{"type":"Feature","properties":{"GID_2":"JOR.5.9_1","GID_0":"JOR","country":"Jordan","GID_1":"JOR.5_1","province":"Irbid","NL_NAME_1":"NA","county":"Wastiyyeh","VARNAME_2":"KoforAsad","NL_NAME_2":"NA","TYPE_2":"Nahia","ENGTYPE_2":"Sub-Province","CC_2":"NA","HASC_2":"JO.IR.WS","name":"Wastiyyeh.county"},
"geometry":{"type": "MultiPolygon","coordinates": [[[[36.0224,32.4883,570.1163],[36.0293,32.5242,530.1071],[36.0289,32.577,513.2997],[36.0303,32.5898,534.4898],[36.0315,32.5961,529.9956],[36.0369,32.6035,510.8453],[36.0349,32.6071,519.6877],[36.0388,32.6308,513.9527],[36.0392,32.6425,497.8335],[36.0363,32.6543,470.9127],[36.0329,32.6579,474.7668],[36.0218,32.6613,474.2514],[35.9895,32.6208,454.4251],[35.9499,32.5867,478.6814],[35.9349,32.5802,527.68],[35.9276,32.5808,550.5499],[35.9098,32.5902,512.6687],[35.8999,32.5933,553.9425],[35.8825,32.5942,539.3244],[35.852,32.5928,534.9525],[35.7915,32.6006,406.5182],[35.8124,32.573,414.814],[35.8271,32.5589,536.2876],[35.8321,32.5411,591.4337],[35.8394,32.529,655.9308],[35.8479,32.5261,661.5414],[35.8565,32.5203,647.623],[35.8573,32.5048,657.6007],[35.8536,32.4925,745.6797],[35.8535,32.4763,856.309],[35.8926,32.471,662.2338],[35.9033,32.4679,658.9894],[35.9292,32.4876,587.8738],[35.9598,32.5037,556.9435],[35.97,32.5024,560.998],[35.9887,32.4901,584.3792],[36.0224,32.4883,570.1163]]]]}}