{"type":"Feature","properties":{"GID_2":"JOR.7.5_1","GID_0":"JOR","country":"Jordan","GID_1":"JOR.7_1","province":"Karak","NL_NAME_1":"NA","county":"Karak","VARNAME_2":"Al-Karak","NL_NAME_2":"NA","TYPE_2":"Nahia","ENGTYPE_2":"Sub-Province","CC_2":"NA","HASC_2":"JO.KA.KA","name":"Karak.county"},
"geometry":{"type": "MultiPolygon","coordinates": [[[[35.6683,31.1008,1206.0393],[35.6862,31.1005,1134.8127],[35.6964,31.1024,1140.6273],[35.7089,31.1146,1147.4319],[35.7112,31.1351,1096.4366],[35.7099,31.1514,1040.5499],[35.6999,31.1699,1066.054],[35.688,31.1868,872.201],[35.6774,31.1858,892.1598],[35.6459,31.1781,984.2942],[35.6443,31.1504,797.1932],[35.6458,31.1359,946.2209],[35.6568,31.1144,1236.8134],[35.6683,31.1008,1206.0393]]]]}}