{"type":"Feature","properties":{"GID_2":"JOR.7.6_1","GID_0":"JOR","country":"Jordan","GID_1":"JOR.7_1","province":"Karak","NL_NAME_1":"NA","county":"MazarJanoobi","VARNAME_2":"Al-Mazaral-Janubiyya","NL_NAME_2":"NA","TYPE_2":"Nahia","ENGTYPE_2":"Sub-Province","CC_2":"NA","HASC_2":"JO.KA.MJ","name":"Mazar_Janoobi.county"},
"geometry":{"type": "MultiPolygon","coordinates": [[[[35.5741,31.0219,401.0073],[35.5923,31.0184,723.2241],[35.6123,31.0121,375.8137],[35.6405,31.0101,857.0227],[35.7058,31.0015,834.4445],[35.7456,30.9846,835.4612],[35.7625,30.9725,670.4045],[35.7945,30.9605,807.6172],[35.8196,30.9484,682.145],[35.8517,30.9422,902.6893],[35.8612,30.9383,1040.9781],[35.8685,30.9316,1039.9191],[35.8759,30.9157,952.4045],[35.8832,30.9079,956.9428],[35.8963,30.8987,910.9927],[35.9089,30.8968,845.8581],[35.9389,30.8989,893.3856],[35.958,30.9023,876.5624],[35.9459,30.9347,914.2973],[35.9407,30.9431,913.8236],[35.9367,30.9643,895.0973],[35.9332,30.9747,897.3704],[35.9287,30.982,897.0862],[35.9238,30.9857,902.6808],[35.9188,30.9871,906.0773],[35.8826,30.9875,936.7423],[35.8757,30.9903,960.8312],[35.873,30.9939,961.3969],[35.8727,31.0067,958.7028],[35.8809,31.0273,927.3003],[35.8804,31.0413,944.7241],[35.8706,31.0646,944.5376],[35.8657,31.071,952.3651],[35.853,31.0953,1017.6714],[35.8476,31.1007,1020.5274],[35.8407,31.1037,1021.583],[35.8287,31.1049,946.4915],[35.8171,31.1007,952.757],[35.8124,31.0957,1051.1605],[35.8051,31.0791,1050.8481],[35.8013,31.074,1035.8031],[35.7929,31.0692,1041.439],[35.7879,31.0685,1041.4709],[35.778,31.07,1065.4054],[35.772,31.0736,1042.5646],[35.7561,31.0907,1082.7075],[35.7461,31.0983,1075.8628],[35.7329,31.1033,1067.4531],[35.7222,31.1098,1108.7661],[35.7089,31.1146,1147.4319],[35.6985,31.1035,1145.4658],[35.6915,31.1011,1135.5612],[35.6451,31.1009,1026.0066],[35.6289,31.0994,867.9957],[35.6203,31.0947,462.4787],[35.6161,31.0898,550.244],[35.609,31.0773,613.3899],[35.6042,31.0638,786.5283],[35.5984,31.0558,995.2732],[35.5947,31.0472,1168.0326],[35.5741,31.0219,401.0073]]]]}}