{"type":"Feature","properties":{"GID_2":"JOR.4.4_1","GID_0":"JOR","country":"Jordan","GID_1":"JOR.4_1","province":"Balqa","NL_NAME_1":"NA","county":"Salt","VARNAME_2":"As-Salt","NL_NAME_2":"NA","TYPE_2":"Nahia","ENGTYPE_2":"Sub-Province","CC_2":"NA","HASC_2":"JO.BA.ST","name":"Salt.county"},
"geometry":{"type": "MultiPolygon","coordinates": [[[[35.8587,31.972,962.8185],[35.869,31.9813,1001.7174],[35.8743,31.9907,1000.666],[35.8738,32.0066,1005.8599],[35.8763,32.0372,957.123],[35.876,32.0463,1005.7858],[35.8722,32.0558,967.6927],[35.86,32.0615,808.4762],[35.8431,32.073,652.4374],[35.8327,32.0729,628.0707],[35.8086,32.06,671.9962],[35.7928,32.0585,783.2675],[35.7836,32.0611,873.8195],[35.7698,32.0719,940.5403],[35.7526,32.0766,899.577],[35.7377,32.083,1008.1212],[35.7172,32.082,1095.5288],[35.7047,32.0806,867.844],[35.6875,32.0621,707.9352],[35.6776,32.0388,481.5186],[35.6743,32.0204,701.9588],[35.6682,32.0062,436.808],[35.665,31.991,556.0725],[35.6572,31.9773,364.8293],[35.6538,31.9643,213.8004],[35.6537,31.9568,226.4471],[35.6582,31.9322,38.7911],[35.6676,31.9232,194.9725],[35.6917,31.9174,156.2577],[35.715,31.8991,179.0901],[35.7352,31.8901,238.0367],[35.767,31.8838,271.6506],[35.7725,31.9083,657.533],[35.7829,31.9262,680.7805],[35.7944,31.9392,705.0761],[35.8129,31.9518,711.4441],[35.8587,31.972,962.8185]]]]}}