{"type":"Feature","properties":{"GID_2":"JOR.2.7_1","GID_0":"JOR","country":"Jordan","GID_1":"JOR.2_1","province":"Amman","NL_NAME_1":"NA","county":"WadiEssier","VARNAME_2":"Wadial-Sayr","NL_NAME_2":"NA","TYPE_2":"Nahia","ENGTYPE_2":"Sub-Province","CC_2":"NA","HASC_2":"JO.AM.WE","name":"Wadi_Essier.county"},
"geometry":{"type": "MultiPolygon","coordinates": [[[[35.9785,31.9704,776.2969],[35.9882,31.9818,791.1829],[36.0019,31.9915,756.4139],[36.0111,31.9938,722.78],[36.0343,31.9961,694.5115],[36.0293,32.0104,679.7087],[36.026,32.0321,702.755],[35.9891,32.0638,801.8964],[35.9792,32.0677,837.1273],[35.9736,32.0682,855.6595],[35.9506,32.064,931.1477],[35.934,32.0514,869.5492],[35.9209,32.0363,876.5438],[35.9017,32.0201,950.4911],[35.8738,32.0066,1005.8599],[35.8749,31.9953,998.0809],[35.8729,31.9864,997.0707],[35.8587,31.972,962.8185],[35.8663,31.9633,969.2373],[35.8803,31.9544,946.2173],[35.916,31.9517,861.7418],[35.9268,31.9538,835.6951],[35.9373,31.9594,833.5873],[35.9619,31.9675,770.1556],[35.9785,31.9704,776.2969]]]]}}