{"type":"Feature","properties":{"GID_1":"JOR.1_1","GID_0":"JOR","country":"Jordan","province":"Ajlun","VARNAME_1":"Ajloan|`Ajlun","NL_NAME_1":"NA","TYPE_1":"Muhafazah","ENGTYPE_1":"Province","CC_1":"NA","HASC_1":"JO.AJ","ISO_1":"NA","name":"Ajlun.province"},
"geometry":{"type": "MultiPolygon","coordinates": [[[[35.78,32.1979,422.1908],[35.8344,32.2216,448.4883],[35.8547,32.2392,521.7442],[35.8655,32.2642,516.2431],[35.8693,32.2849,714.7208],[35.8778,32.307,744.1557],[35.8833,32.3141,737.7524],[35.9038,32.3239,1039.5228],[35.9197,32.328,994.7753],[35.9388,32.336,974.495],[35.9557,32.3487,953.739],[35.9672,32.3548,927.7458],[35.9592,32.3638,863.7067],[35.9462,32.3692,830.5575],[35.9328,32.3776,820.0871],[35.9282,32.3823,870.4391],[35.9246,32.3914,830.7522],[35.9221,32.4205,738.0437],[35.8933,32.4015,869.7122],[35.8848,32.3991,885.2596],[35.8722,32.3976,987.2683],[35.8592,32.399,984.698],[35.8352,32.4059,992.9347],[35.7982,32.3851,1047.0554],[35.7728,32.375,1009.5973],[35.7507,32.3755,801.8616],[35.7374,32.3814,688.8528],[35.71,32.3869,568.9942],[35.6975,32.3471,638.5997],[35.6946,32.3239,627.3002],[35.6881,32.3113,490.053],[35.685,32.2916,562.1823],[35.6791,32.281,453.7557],[35.6745,32.2614,566.1016],[35.667,32.2453,123.937],[35.6875,32.2157,459.6281],[35.7028,32.2018,210.8486],[35.7088,32.1942,247.1443],[35.7274,32.1779,105.9902],[35.7427,32.1696,418.2159],[35.7649,32.1901,184.0228],[35.78,32.1979,422.1908]]]]}}