{"type":"Feature","properties":{"ISO3166-1-Alpha-3":"JOR","country":"Jordan","fill":"#F0F","id":"855","name":"Ajlun"},
"geometry":{"type": "Polygon","coordinates": [[[35.90533,32.33888,950.0841],[35.88378,32.36464,903.2394],[35.8641,32.37818,953.2473],[35.85913,32.38637,1025.5669],[35.85479,32.39944,984.7277],[35.84808,32.402,999.9621],[35.84094,32.39807,1062.7406],[35.83381,32.3896,1078.6696],[35.82188,32.38366,1117.1318],[35.8056,32.38159,1104.3501],[35.77656,32.38298,955.5328],[35.76012,32.38025,955.0532],[35.72969,32.36604,775.1679],[35.70566,32.36022,706.3531],[35.68049,32.36167,648.9158],[35.66313,32.36053,522.9642],[35.64886,32.35536,499.3334],[35.6391,32.34485,463.9635],[35.63207,32.32934,437.1716],[35.61672,32.26676,39.0296],[35.61843,32.25152,-124.1591],[35.62447,32.23532,-186.9816],[35.63832,32.20832,-178.877],[35.6408,32.19966,-196.3508],[35.64003,32.1938,-215.383],[35.63553,32.18382,-219.8661],[35.65181,32.16656,42.0716],[35.66871,32.1607,572.9961],[35.6948,32.15618,386.7979],[35.73651,32.19651,349.0455],[35.80467,32.22274,689.54],[35.81366,32.23147,713.9154],[35.81598,32.24036,741.1224],[35.81521,32.24989,883.9125],[35.818,32.26382,944.4283],[35.82498,32.28028,790.8436],[35.84187,32.30289,947.5534],[35.85769,32.31622,855.1759],[35.87324,32.325,943.1707],[35.88409,32.32896,985.6227],[35.90533,32.33888,950.0841]]]}}