{"type":"Feature","properties":{"GID_2":"JOR.8.3_1","GID_0":"JOR","country":"Jordan","GID_1":"JOR.8_1","province":"Ma`an","NL_NAME_1":"NA","county":"Ma'an","VARNAME_2":"NA","NL_NAME_2":"NA","TYPE_2":"Nahia","ENGTYPE_2":"Sub-Province","CC_2":"NA","HASC_2":"JO.MN.MN","name":"Ma'an.county"},
"geometry":{"type": "MultiPolygon","coordinates": [[[[36.1739,31.2618,835.3009],[36.161,31.2455,851.7461],[36.1587,31.2396,861.9543],[36.1578,31.2082,861.9041],[36.1601,31.1915,844.7352],[36.1702,31.1689,831.7456],[36.2125,31.132,812.4554],[36.2395,31.1012,814.0402],[36.2409,31.0935,814.5539],[36.2328,31.0808,813.8672],[36.2163,31.0654,824.5798],[36.2032,31.0405,841.6967],[36.1877,31.0167,866.4944],[36.1745,30.9838,881.6401],[36.1399,30.9273,852.9058],[36.1266,30.8945,864.4872],[36.1114,30.8705,858.0703],[36.1074,30.8507,875.0233],[36.1025,30.8394,885.7015],[36.0731,30.7972,832.2824],[36.069,30.7808,820.1876],[36.0348,30.7242,854.5806],[36.0307,30.7077,850.2413],[36.0157,30.6835,863.0486],[36.0122,30.675,868.5864],[36.0012,30.6655,882.1223],[35.9904,30.663,892.3552],[35.9824,30.6492,944.7755],[35.9592,30.6282,1006.1689],[35.9154,30.5517,1016.9241],[35.8828,30.5144,997.3193],[35.8775,30.4932,995.3156],[35.8684,30.472,991.3035],[35.8622,30.4621,989.7777],[35.8604,30.4454,989.8879],[35.8569,30.4366,989.9139],[35.8494,30.4289,992.9888],[35.837,30.4206,1002.4829],[35.8243,30.4189,1012.172],[35.7965,30.4194,1036.8087],[35.7872,30.4215,1048.7821],[35.7796,30.4254,1052.5378],[35.757,30.4292,1075.9427],[35.7321,30.4368,1103.6758],[35.7226,30.4415,1115.2983],[35.704,30.4451,1141.3739],[35.6834,30.4595,1153.9423],[35.656,30.4449,1212.8442],[35.6257,30.4407,1283.3154],[35.6103,30.431,1291.2605],[35.5925,30.4116,1311.7043],[35.5845,30.4067,1369.856],[35.5692,30.4028,1394.4082],[35.5303,30.4012,1618.2548],[35.527,30.3741,1615.1355],[35.5275,30.3646,1591.8882],[35.5314,30.3566,1581.8534],[35.5351,30.3544,1555.3217],[35.56,30.3485,1429.9648],[35.5704,30.3442,1390.1536],[35.5828,30.3254,1339.1422],[35.5866,30.3059,1296.1755],[35.5926,30.2859,1285.4556],[35.5955,30.2514,1286.8474],[35.6013,30.2375,1270.3],[35.605,30.2191,1249.3236],[35.6116,30.2025,1242.1782],[35.6154,30.177,1267.9154],[35.6149,30.1666,1242.5791],[35.6297,30.1315,1275.6182],[35.6326,30.1001,1305.103],[35.639,30.0828,1270.6747],[35.6444,30.0547,1235.8096],[35.6459,29.9823,1255.7391],[35.6488,29.9667,1303.3408],[35.6508,29.941,1343.6921],[35.6584,29.923,1284.4005],[35.6593,29.8917,1372.9467],[35.6573,29.8796,1397.182],[35.648,29.8611,1376.2683],[35.6363,29.8464,1338.9442],[35.6528,29.8313,1166.2284],[35.6656,29.816,1164.6682],[35.6855,29.7817,1082.5159],[35.6948,29.753,1047.9624],[35.698,29.7359,997.4537],[35.7046,29.7226,960.1924],[35.7073,29.7001,931.614],[35.7142,29.6694,942.2982],[35.7151,29.6129,859.3069],[35.7122,29.5818,884.1414],[35.7161,29.5653,884.8461],[35.7213,29.5567,900.7977],[35.7227,29.5508,843.9296],[35.716,29.5338,826.8497],[35.7107,29.5005,848.7264],[35.71,29.4602,880.7057],[35.7156,29.4285,936.5629],[35.7225,29.4143,940.2567],[35.7258,29.392,949.4274],[35.7326,29.372,947.9985],[35.7339,29.3401,886.3407],[35.7375,29.3167,949.3356],[35.7384,29.2873,1012.1085],[35.7421,29.264,993.0502],[35.7423,29.2371,996.8459],[35.7393,29.2375,1013.2828],[35.8199,29.22,830.719],[35.9083,29.21,809.5042],[35.9696,29.1982,768.7764],[36.0024,29.1951,761.0057],[36.0728,29.1834,680.927],[36.0828,29.189,673.4904],[36.0982,29.2026,675.095],[36.1518,29.232,714.7788],[36.2126,29.2862,702.888],[36.2497,29.3127,709.4402],[36.3103,29.352,725.8876],[36.3313,29.3731,749.1204],[36.3417,29.3801,752.7606],[36.3709,29.3976,781.5945],[36.3868,29.4028,794.4268],[36.397,29.4014,809.5953],[36.4093,29.4057,825.0222],[36.4233,29.4134,837.5767],[36.4308,29.42,848.0135],[36.4371,29.4207,866.8394],[36.4493,29.4304,878.0127],[36.4601,29.4525,865.9497],[36.4741,29.4643,887.3342],[36.4923,29.4853,864.3934],[36.5273,29.5143,863.0303],[36.5473,29.5462,889.316],[36.5485,29.5605,879.3724],[36.5504,29.5636,861.5745],[36.616,29.6318,903.9874],[36.6245,29.6369,916.3407],[36.6392,29.6738,891.5163],[36.6438,29.6874,898.9211],[36.6441,29.6944,900.5119],[36.6677,29.7278,937.9973],[36.6809,29.7494,979.9838],[36.7361,29.789,1002.4592],[36.7599,29.8205,1003.654],[36.7648,29.8378,988.5437],[36.7758,29.852,976.4343],[36.7849,29.8679,970.3135],[36.792,29.8715,981.6989],[36.7969,29.8709,984.7035],[36.865,29.8856,922.4466],[37.0002,29.9106,955.5054],[37.0373,29.9171,977.4341],[37.0496,29.9169,966.783],[37.0547,29.92,960.5286],[37.0572,29.9193,962.891],[37.1007,29.929,990.9661],[37.1222,29.9308,917.2985],[37.1231,29.9322,913.5199],[37.1265,29.9314,930.6887],[37.2071,29.9479,868.7978],[37.5055,30.0008,792.2479],[37.5208,30.0425,820.9603],[37.6364,30.2767,735.9015],[37.6656,30.3326,714.631],[37.9971,30.5007,578.111],[37.9615,30.5377,575.881],[37.9328,30.5763,568.8566],[37.9035,30.6064,567.662],[37.6336,30.8781,568.2203],[37.5963,30.9133,563.4149],[37.5742,30.9371,566.6744],[37.5463,30.9611,568.2017],[37.518,30.9931,569.2583],[37.4592,31.05,575.7891],[37.3911,31.1217,575.8375],[37.33,31.1782,579.4438],[37.2589,31.255,573.7704],[37.2293,31.2447,581.4912],[37.2147,31.2427,580.6215],[37.1345,31.2417,603.9476],[37.1185,31.2427,605.0287],[37.1012,31.2486,607.4039],[37.0866,31.2499,609.5388],[36.8557,31.2493,662.0115],[36.8092,31.2532,687.6149],[36.6038,31.2528,846.5721],[36.5509,31.2567,847.3868],[36.3265,31.2561,905.933],[36.3087,31.2573,926.8464],[36.2931,31.263,949.9097],[36.2754,31.2643,951.2602],[36.1958,31.2639,825.4179],[36.1739,31.2618,835.3009]]]]}}