{"type":"Feature","properties":{"GID_2":"JOR.3.1_1","GID_0":"JOR","country":"Jordan","GID_1":"JOR.3_1","province":"Aqaba","NL_NAME_1":"NA","county":"Aqaba","VARNAME_2":"Al-Aqaba","NL_NAME_2":"NA","TYPE_2":"Nahia","ENGTYPE_2":"Sub-Province","CC_2":"NA","HASC_2":"JO.AQ.AQ","name":"Aqaba.county"},
"geometry":{"type": "MultiPolygon","coordinates": [[[[34.966,29.5471,6.5024],[34.9799,29.5424,1.5142],[34.9979,29.5307,7.4768],[34.9982,29.5282,0.2934],[35.0007,29.526,1.027],[35.001,29.5182,0.0],[34.9957,29.5171,0.0],[34.9907,29.5037,0.0],[34.9918,29.5004,6.6995],[34.9854,29.4904,0.0],[34.9835,29.4835,10.0529],[34.9796,29.4804,0.0],[34.9801,29.4776,0.0],[34.9746,29.4704,2.5871],[34.9743,29.4629,0.0],[34.9762,29.459,0.0],[34.9715,29.4535,6.793],[34.9712,29.4501,7.5966],[34.9676,29.4471,0.0],[34.9704,29.4379,4.4571],[34.9746,29.4326,12.3959],[34.9724,29.4204,2.975],[34.9779,29.4099,0.0],[34.9762,29.406,0.4597],[34.9704,29.4035,3.7865],[34.9646,29.3985,1.6416],[34.9637,29.3937,0.3585],[34.9685,29.3865,4.8125],[34.9643,29.3827,2.4224],[34.9621,29.3774,1.9318],[34.966,29.3721,0.491],[34.9576,29.3674,0.0],[34.9585,29.3649,0.0],[34.9607,29.3674,1.1251],[34.9665,29.3632,7.2652],[34.9668,29.3615,6.3644],[34.9621,29.3587,8.084],[35.0531,29.3444,502.965],[35.0742,29.3441,703.6617],[35.0972,29.3379,960.9126],[35.2318,29.3164,1042.0181],[35.5332,29.2696,1366.2394],[35.49,29.2764,1510.505],[35.4913,29.3103,1380.3291],[35.4953,29.3372,1478.4148],[35.4959,29.4077,1307.4308],[35.4954,29.4291,1307.2578],[35.4895,29.4726,1128.4187],[35.4743,29.5073,1036.6482],[35.4377,29.5546,1009.1753],[35.4078,29.5786,1510.3389],[35.3903,29.5955,1311.4374],[35.3795,29.6028,962.7611],[35.3742,29.6096,972.2668],[35.3706,29.6187,948.5997],[35.365,29.6269,881.8409],[35.3638,29.6331,867.5692],[35.3649,29.6443,850.8126],[35.372,29.6606,874.524],[35.3734,29.6864,797.1893],[35.3706,29.6974,784.29],[35.3597,29.7112,770.0682],[35.3507,29.7148,791.5303],[35.3324,29.7164,794.7313],[35.2948,29.7109,749.9869],[35.2782,29.7047,743.1805],[35.2232,29.701,1008.3859],[35.2076,29.704,903.1077],[35.1945,29.7135,1126.7072],[35.1754,29.7345,1179.5881],[35.1624,29.7456,1335.4164],[35.1329,29.7606,1141.2239],[35.122,29.7754,1026.3752],[35.091,29.7948,200.0081],[35.0761,29.8068,81.8201],[35.0502,29.8164,55.6448],[35.0468,29.8021,55.9676],[35.0497,29.7872,58.4445],[35.0468,29.767,71.6821],[35.0297,29.705,60.2227],[35.0298,29.6713,34.2003],[35.0324,29.6502,29.6042],[35.0327,29.6307,47.5433],[35.0195,29.6167,35.3813],[35.0017,29.6052,27.4123],[34.9865,29.5898,15.3862],[34.9757,29.571,7.532],[34.966,29.5471,6.5024]]]]}}