{"type":"Feature","properties":{"GID_2":"JOR.10.1_1","GID_0":"JOR","country":"Jordan","GID_1":"JOR.10_1","province":"Mafraq","NL_NAME_1":"NA","county":"Ar-Ruwayshid","VARNAME_2":"NA","NL_NAME_2":"NA","TYPE_2":"Nahia","ENGTYPE_2":"Sub-Province","CC_2":"NA","HASC_2":"JO.MA.ER","name":"Ar-Ruwayshid.county"},
"geometry":{"type": "MultiPolygon","coordinates": [[[[38.7968,33.3682,714.4872],[38.4211,33.1732,804.9169],[37.5361,32.7026,753.2234],[37.0715,32.4531,934.4296],[37.1022,32.4229,865.04],[37.1142,32.4056,864.4907],[37.1266,32.3915,825.9788],[37.1465,32.3727,779.7441],[37.1586,32.3529,759.7285],[37.1606,32.3418,766.7885],[37.1584,32.3216,763.9993],[37.1481,32.299,769.0057],[37.1321,32.281,773.1852],[37.0983,32.2518,797.6252],[37.0731,32.2348,822.936],[37.0314,32.2218,840.6566],[36.984,32.2006,845.8923],[36.9638,32.1975,861.5167],[36.9211,32.1846,909.0341],[36.9007,32.1813,958.9755],[36.8867,32.1756,945.9954],[36.859,32.1727,877.4175],[36.8451,32.1679,832.1806],[36.8322,32.1661,829.1824],[36.8125,32.1676,836.9341],[36.8049,32.1716,843.3549],[36.7844,32.1759,865.0616],[36.7701,32.1817,862.688],[36.7437,32.1847,848.7555],[36.7182,32.1821,822.0154],[36.7006,32.1831,819.5602],[36.6681,32.197,823.2462],[36.6439,32.1994,793.3169],[36.6321,32.2045,780.6469],[36.6095,32.2082,769.4848],[36.5669,32.221,783.9078],[36.5455,32.2238,772.8511],[36.5263,32.2295,774.8746],[36.4849,32.2344,738.3875],[36.4681,32.2337,723.7059],[36.4631,32.2319,718.0927],[36.4577,32.2262,709.8264],[36.453,32.2085,688.3322],[36.4446,32.1995,677.089],[36.4215,32.1826,647.743],[36.4113,32.1711,631.4654],[36.4017,32.1549,611.4694],[36.3993,32.1466,602.1644],[36.3992,32.1371,602.5542],[36.4044,32.1179,588.0449],[36.4133,32.1188,588.8956],[36.4251,32.1238,595.272],[36.4438,32.1247,603.7103],[36.4534,32.1227,615.3712],[36.4723,32.1142,616.8462],[36.4806,32.1038,608.4041],[36.4839,32.0956,600.4863],[36.4845,32.0836,594.5459],[36.4824,32.0682,589.2875],[36.523,32.0674,598.1418],[36.5386,32.0613,594.1252],[36.5571,32.0586,592.8376],[36.5732,32.0534,592.4616],[36.5937,32.0502,598.7742],[36.6053,32.0451,598.7334],[36.6317,32.0423,603.8911],[36.66,32.0296,599.0986],[36.6811,32.0254,601.4541],[36.7264,32.0053,601.3724],[36.7437,32.0024,598.0847],[36.755,31.9973,591.3104],[36.7742,31.9939,592.3975],[36.8024,31.9811,585.2784],[36.8158,31.9776,577.7109],[36.8462,31.9652,577.0933],[36.8597,31.9617,570.0032],[36.869,31.957,572.0096],[36.8882,31.9536,569.1278],[36.9353,31.9328,554.7263],[36.9526,31.9299,559.6306],[36.9639,31.9248,551.7379],[36.9831,31.9213,574.2814],[37.0113,31.9086,594.2355],[37.0305,31.9052,603.2492],[37.0398,31.9004,636.9094],[37.1066,31.8812,650.7857],[37.1158,31.8765,631.6873],[37.1349,31.8731,612.6909],[37.1633,31.8601,599.5735],[37.23,31.8409,603.377],[37.2396,31.8361,600.7122],[37.2582,31.8327,624.4946],[37.2678,31.828,621.4601],[37.3059,31.8167,612.0035],[37.3153,31.8118,631.5611],[37.382,31.7925,613.685],[37.3915,31.7877,608.5183],[37.408,31.7849,608.0544],[37.42,31.7797,600.2681],[37.4387,31.7764,594.2971],[37.4482,31.7716,589.9384],[37.5128,31.7529,653.9172],[37.5243,31.7473,700.8837],[37.549,31.7397,720.6076],[37.5718,31.7361,709.9754],[37.6003,31.7234,746.3156],[37.6231,31.7197,751.4945],[37.6479,31.7121,776.3304],[37.6593,31.7065,782.5114],[37.7195,31.6891,842.6613],[37.7269,31.6852,841.6102],[37.9596,31.7436,809.0153],[37.9713,31.7451,761.5759],[37.984,31.7445,770.3229],[38.0398,31.7635,705.7424],[38.667,31.9193,876.2255],[39.0063,32.0006,876.481],[39.1792,32.1354,934.3698],[39.2009,32.1543,946.0753],[39.2124,32.1524,939.6992],[39.3021,32.2213,926.8484],[39.3009,32.2371,923.1357],[39.2891,32.2708,915.2279],[39.2637,32.3044,920.8544],[39.2414,32.3203,922.8176],[39.2233,32.3259,918.1286],[39.1989,32.3281,913.5234],[39.104,32.3203,900.944],[39.0815,32.3208,897.9622],[39.0566,32.3275,896.6174],[39.0395,32.3404,892.1409],[39.0255,32.3616,886.2585],[39.0153,32.3877,879.1293],[39.0098,32.4132,887.7544],[39.0094,32.4342,893.124],[39.0163,32.4598,882.2109],[39.0522,32.5127,878.4331],[39.0577,32.5437,870.472],[39.0535,32.582,845.1951],[39.0379,32.6409,820.644],[38.9938,32.7753,789.35],[38.8288,33.2582,731.6034],[38.818,33.3057,718.2685],[38.7968,33.3682,714.4872]]]]}}