{"type":"Feature","properties":{"ISO3166-1-Alpha-3":"JOR","country":"Jordan","fill":"#00F","id":"854","name":"Irbid"},
"geometry":{"type": "Polygon","coordinates": [[[35.92745,32.69237,412.8235],[35.92249,32.69377,418.2836],[35.90523,32.70857,366.6065],[35.89572,32.71328,397.7307],[35.78823,32.73441,311.4144],[35.77904,32.74428,37.2763],[35.77904,32.74436,37.2763],[35.77914,32.74446,37.2763],[35.77914,32.74451,37.2763],[35.7749,32.74728,-52.3857],[35.76973,32.74805,-45.4124],[35.76384,32.74697,-54.1572],[35.75759,32.74435,-31.7223],[35.75743,32.74428,-31.7223],[35.74017,32.74053,80.6604],[35.68519,32.71123,-46.8149],[35.65201,32.68617,-63.213],[35.63599,32.67914,-67.4537],[35.61233,32.68154,-207.6135],[35.61222,32.68155,-207.6135],[35.59383,32.67036,-195.5193],[35.57874,32.65343,-199.8394],[35.56985,32.64677,-240.0774],[35.56272,32.64421,-244.11],[35.56055,32.6409,-218.5711],[35.56003,32.63269,-235.4545],[35.56406,32.62548,-249.4849],[35.57254,32.62124,-218.7122],[35.57254,32.61501,-255.1025],[35.56561,32.61501,-254.0817],[35.56561,32.60755,-257.2639],[35.5713,32.59855,-260.3594],[35.5744,32.57277,-267.48],[35.57998,32.56039,-269.4506],[35.57584,32.55496,-268.9921],[35.5744,32.5544,-270.7474],[35.57388,32.55675,-270.4909],[35.57254,32.56039,-267.3636],[35.57016,32.55683,-271.2883],[35.56561,32.5461,-270.9994],[35.55941,32.55295,-253.9156],[35.56282,32.53202,-275.9756],[35.56561,32.52559,-274.9626],[35.55197,32.52559,-259.2574],[35.55197,32.51882,-268.4091],[35.55724,32.51933,-276.8982],[35.56137,32.51918,-274.3215],[35.56851,32.51026,-270.126],[35.57057,32.50603,-269.9782],[35.57998,32.49773,-264.776],[35.57998,32.49148,-274.9907],[35.57099,32.48921,-271.9715],[35.56499,32.48391,-247.3484],[35.56127,32.47709,-254.7002],[35.55941,32.4704,-248.1034],[35.56313,32.46817,-286.2594],[35.5654,32.46631,-284.2891],[35.56809,32.46497,-282.7387],[35.57254,32.4642,-261.6923],[35.57254,32.45673,-285.56],[35.56623,32.45311,-269.5819],[35.55941,32.45053,-250.9317],[35.56561,32.44371,-289.5305],[35.55197,32.43621,-248.0],[35.55414,32.43446,-257.4197],[35.55621,32.43479,-282.7003],[35.55786,32.43412,-288.5825],[35.55941,32.42944,-288.608],[35.55197,32.42944,-260.0209],[35.55197,32.42324,-289.4803],[35.55817,32.418,-290.7791],[35.5591,32.41397,-292.7679],[35.55486,32.41118,-280.6958],[35.54515,32.40957,-247.1618],[35.54959,32.39854,-293.7211],[35.55197,32.39528,-293.5915],[35.55683,32.39092,-292.0016],[35.56096,32.38472,-295.9839],[35.56396,32.37704,-292.3809],[35.56561,32.36795,-264.2758],[35.55941,32.36795,-295.0104],[35.55941,32.37482,-262.1815],[35.55197,32.37482,-271.1154],[35.55197,32.36795,-295.4085],[35.55734,32.35821,-299.7237],[35.55652,32.32821,-310.808],[35.56561,32.31335,-286.4514],[35.56117,32.3017,-311.8871],[35.56086,32.28263,-309.585],[35.56458,32.26359,-325.4964],[35.57254,32.25191,-328.8104],[35.56758,32.24951,-330.579],[35.56375,32.24682,-329.3784],[35.56106,32.24315,-332.2491],[35.55941,32.23759,-333.227],[35.57254,32.23759,-331.3783],[35.55956,32.19037,-345.6831],[35.56597,32.19093,-344.3945],[35.63553,32.18382,-219.8661],[35.64003,32.1938,-215.383],[35.6408,32.19966,-196.3508],[35.63832,32.20832,-178.877],[35.62447,32.23532,-186.9816],[35.61843,32.25152,-124.1591],[35.61672,32.26676,39.0296],[35.63207,32.32934,437.1716],[35.6391,32.34485,463.9635],[35.64886,32.35536,499.3334],[35.66313,32.36053,522.9642],[35.68049,32.36167,648.9158],[35.70566,32.36022,706.3531],[35.72969,32.36604,775.1679],[35.76012,32.38025,955.0532],[35.77656,32.38298,955.5328],[35.8056,32.38159,1104.3501],[35.82188,32.38366,1117.1318],[35.83381,32.3896,1078.6696],[35.84094,32.39807,1062.7406],[35.84808,32.402,999.9621],[35.85479,32.39944,984.7277],[35.85913,32.38637,1025.5669],[35.8641,32.37818,953.2473],[35.88378,32.36464,903.2394],[35.90533,32.33888,950.0841],[35.93965,32.35133,972.9689],[35.95298,32.35474,904.627],[35.98404,32.34715,953.2096],[36.01721,32.34596,912.4228],[36.02502,32.35464,843.319],[36.02636,32.36231,839.8696],[36.02326,32.37715,801.387],[36.01814,32.38709,765.2137],[36.01287,32.39513,722.0159],[36.01163,32.40329,698.7807],[36.01504,32.41143,691.7042],[36.02936,32.42143,668.0186],[36.04176,32.42322,653.4753],[36.05308,32.41988,656.3929],[36.07137,32.40771,703.5764],[36.0801,32.40616,742.2978],[36.08723,32.40825,713.6735],[36.09421,32.43425,644.153],[36.08191,32.51626,657.3654],[36.06987,32.5166,584.3353],[36.06625,32.51732,574.7529],[36.06605,32.52161,572.7069],[36.06047,32.53326,564.8431],[36.0154,32.59116,523.944],[36.006,32.60791,505.2197],[36.00527,32.62669,475.3036],[36.00827,32.64372,454.9591],[36.00362,32.65509,439.7049],[35.98026,32.65661,448.1581],[35.96579,32.65436,436.9859],[35.95536,32.65744,432.4708],[35.94657,32.66444,436.9059],[35.93748,32.674,420.387],[35.9412,32.67354,422.2636],[35.9444,32.67762,400.4405],[35.94574,32.6841,412.6142],[35.94419,32.69077,410.7126],[35.94037,32.6925,327.5192],[35.92745,32.69237,412.8235]]]}}