{"type":"Feature","properties":{"GID_2":"JOR.7.1_1","GID_0":"JOR","country":"Jordan","GID_1":"JOR.7_1","province":"Karak","NL_NAME_1":"NA","county":"Ayy","VARNAME_2":"NA","NL_NAME_2":"NA","TYPE_2":"Nahia","ENGTYPE_2":"Sub-Province","CC_2":"NA","HASC_2":"JO.KA.AY","name":"Ayy.county"},
"geometry":{"type": "MultiPolygon","coordinates": [[[[35.4095,30.9445,-368.8851],[35.4278,30.9317,-354.4001],[35.4534,30.9218,-325.918],[35.4692,30.9223,-260.0039],[35.486,30.9293,-190.9393],[35.499,30.9399,-133.2098],[35.5052,30.953,-33.3953],[35.5062,30.9703,-141.2094],[35.502,31.001,-154.712],[35.5035,31.0068,-207.1864],[35.506,31.0099,-177.252],[35.5239,31.0182,-135.6143],[35.5595,31.0197,42.5223],[35.5741,31.0219,401.0073],[35.5947,31.0472,1168.0326],[35.5984,31.0558,995.2732],[35.6042,31.0638,786.5283],[35.609,31.0773,613.3899],[35.6203,31.0947,462.4787],[35.6264,31.0985,758.8145],[35.6341,31.1004,887.572],[35.6683,31.1008,1206.0393],[35.6568,31.1144,1236.8134],[35.6458,31.1359,946.2209],[35.6443,31.1504,797.1932],[35.6459,31.1781,984.2942],[35.6126,31.1848,675.6147],[35.5819,31.1816,0.4603],[35.5493,31.1819,-55.5467],[35.5268,31.1879,-385.9097],[35.4894,31.1904,-395.0],[35.4672,31.1965,-395.0],[35.4241,31.1967,-395.7469],[35.4458,31.1715,-399.59],[35.4538,31.1568,-398.502],[35.4588,31.136,-399.3351],[35.4598,31.1204,-398.4275],[35.4468,31.0764,-395.541],[35.4086,31.0256,-388.0],[35.4045,31.0052,-386.0],[35.4069,30.989,-380.1433],[35.4151,30.9695,-378.6896],[35.415,30.9488,-372.4313],[35.4095,30.9445,-368.8851]]]]}}