{"type":"Feature","properties":{"ISO3166-1-Alpha-3":"JOR","country":"Jordan","fill":"#FF0","id":"859","name":"Karak"},
"geometry":{"type": "Polygon","coordinates": [[[35.68716,31.40382,513.0151],[35.67336,31.40392,646.1519],[35.65444,31.40715,482.8461],[35.55419,31.43586,-427.0],[35.47849,31.43847,-427.0],[35.45713,31.43352,-427.0],[35.45688,31.42351,-427.0],[35.45285,31.40082,-427.0],[35.43508,31.36062,-427.0],[35.41647,31.33184,-427.0],[35.42391,31.3246,-427.0],[35.42226,31.303,-407.1607],[35.40821,31.28202,-403.4637],[35.3957,31.25768,-403.6436],[35.40118,31.23029,-401.571],[35.41069,31.20461,-391.0],[35.42133,31.18451,-391.0],[35.43621,31.15955,-391.0],[35.44324,31.13221,-391.0],[35.43849,31.10374,-392.0],[35.39157,31.02395,-388.0],[35.38516,30.99465,-383.6186],[35.38526,30.96328,-376.0443],[35.3741,30.94514,-358.211],[35.34711,30.92271,-291.3723],[35.35482,30.91816,-258.1023],[35.4048,30.88796,-236.993],[35.41875,30.88468,-198.9329],[35.43658,30.88359,-205.4909],[35.44774,30.88943,-186.1244],[35.45425,30.89935,-236.6488],[35.46061,30.94,-285.1972],[35.47073,30.96591,-316.8005],[35.47508,30.98625,-349.9552],[35.48128,30.99408,-330.1013],[35.49073,30.99669,-254.3717],[35.50345,30.99622,-21.0075],[35.52117,30.99842,221.1929],[35.53388,30.99769,358.4492],[35.5452,30.99478,19.1954],[35.55636,30.98622,336.3251],[35.57031,30.97837,394.9685],[35.58463,30.97354,467.0932],[35.66995,30.96992,578.5582],[35.83025,30.91486,867.2039],[35.83691,30.90979,870.9905],[35.8397,30.9037,908.2134],[35.84389,30.89659,928.3486],[35.85324,30.88884,747.5655],[35.8658,30.88109,895.7584],[35.90208,30.86664,854.9637],[35.91246,30.86127,815.1526],[35.92027,30.85396,795.2448],[35.93065,30.83889,801.0836],[35.93856,30.83127,800.9221],[35.98094,30.80417,811.093],[36.02378,30.76706,822.5167],[36.14093,30.95506,865.0019],[36.19193,31.09479,814.1799],[36.16852,31.1505,830.6376],[36.15178,31.24864,859.7893],[35.84916,31.25494,787.489],[35.83924,31.26254,842.1301],[35.83567,31.27455,862.9031],[35.83815,31.29401,807.5427],[35.84187,31.30817,783.2822],[35.84994,31.32806,747.0623],[35.8518,31.33705,780.4525],[35.84916,31.35021,740.8182],[35.84234,31.36925,667.6697],[35.818,31.40594,534.1571],[35.7733,31.41475,901.2341],[35.75222,31.41511,852.3267],[35.71806,31.41227,837.3559],[35.68716,31.40382,513.0151]]]}}