{"type":"Feature","properties":{"GID_1":"JOR.7_1","GID_0":"JOR","country":"Jordan","province":"Karak","VARNAME_1":"AlKarak|Kerak","NL_NAME_1":"NA","TYPE_1":"Muhafazah","ENGTYPE_1":"Province","CC_1":"NA","HASC_1":"JO.KA","ISO_1":"NA","name":"Karak.province"},
"geometry":{"type": "MultiPolygon","coordinates": [[[[35.7775,31.4495,156.6174],[35.7626,31.4417,388.6734],[35.7102,31.4413,112.0351],[35.6833,31.4531,190.4951],[35.6541,31.4635,184.2897],[35.6227,31.4722,-154.5456],[35.5769,31.477,-312.948],[35.5179,31.4771,-427.0],[35.4755,31.4709,-427.0],[35.4751,31.4198,-427.0],[35.4715,31.3996,-427.0],[35.4551,31.3593,-427.0],[35.3949,31.2646,-401.4227],[35.3898,31.2445,-400.3416],[35.4012,31.2231,-391.5128],[35.4458,31.1715,-399.59],[35.4538,31.1568,-398.502],[35.4588,31.136,-399.3351],[35.4598,31.1204,-398.4275],[35.4468,31.0764,-395.541],[35.4086,31.0256,-388.0],[35.4045,31.0052,-386.0],[35.4069,30.989,-380.1433],[35.4151,30.9695,-378.6896],[35.415,30.9488,-372.4313],[35.4095,30.9445,-368.8851],[35.4278,30.9317,-354.4001],[35.4534,30.9218,-325.918],[35.4692,30.9223,-260.0039],[35.486,30.9293,-190.9393],[35.499,30.9399,-133.2098],[35.5052,30.953,-33.3953],[35.5062,30.9703,-141.2094],[35.502,31.001,-154.712],[35.5035,31.0068,-207.1864],[35.506,31.0099,-177.252],[35.5239,31.0182,-135.6143],[35.5595,31.0197,42.5223],[35.5741,31.0219,401.0073],[35.5923,31.0184,723.2241],[35.6123,31.0121,375.8137],[35.6405,31.0101,857.0227],[35.7058,31.0015,834.4445],[35.7456,30.9846,835.4612],[35.7625,30.9725,670.4045],[35.7945,30.9605,807.6172],[35.8196,30.9484,682.145],[35.8517,30.9422,902.6893],[35.8612,30.9383,1040.9781],[35.8685,30.9316,1039.9191],[35.8759,30.9157,952.4045],[35.8832,30.9079,956.9428],[35.8963,30.8987,910.9927],[35.9089,30.8968,845.8581],[35.9389,30.8989,893.3856],[35.958,30.9023,876.5624],[35.9778,30.8957,893.3403],[35.9981,30.8845,875.4824],[36.0098,30.8806,886.5211],[36.0189,30.8756,890.3672],[36.0572,30.8646,872.209],[36.0762,30.8564,878.9373],[36.0872,30.848,882.7003],[36.1025,30.8394,885.7015],[36.1074,30.8507,875.0233],[36.1114,30.8705,858.0703],[36.1266,30.8945,864.4872],[36.1399,30.9273,852.9058],[36.1745,30.9838,881.6401],[36.1877,31.0167,866.4944],[36.2032,31.0405,841.6967],[36.2163,31.0654,824.5798],[36.2328,31.0808,813.8672],[36.2412,31.0952,814.4664],[36.2395,31.1012,814.0402],[36.2125,31.132,812.4554],[36.1702,31.1689,831.7456],[36.1601,31.1915,844.7352],[36.1578,31.2082,861.9041],[36.1587,31.2396,861.9543],[36.161,31.2455,851.7461],[36.1739,31.2618,835.3009],[36.1531,31.2735,855.3917],[36.1421,31.284,837.1832],[36.1213,31.2991,815.7869],[36.1129,31.3086,794.2463],[36.108,31.3262,782.3373],[36.0995,31.3352,766.0748],[36.0797,31.3505,777.8915],[36.0664,31.3554,797.2693],[36.0574,31.3619,778.4034],[36.0287,31.3894,720.3235],[36.0136,31.3993,701.505],[35.9878,31.409,734.1758],[35.9007,31.4189,757.7645],[35.8804,31.4355,661.2524],[35.8652,31.4447,456.3746],[35.8319,31.4568,391.0261],[35.8043,31.4576,247.9058],[35.7867,31.4533,173.8171],[35.7775,31.4495,156.6174]]]]}}