{"type":"Feature","properties":{"ISO3166-1-Alpha-3":"JOR","country":"Jordan","fill":"#F0F","id":"850","name":"Mafraq"},
"geometry":{"type": "Polygon","coordinates": [[[39.04633,32.30849,900.7419],[39.0362,32.31335,895.6879],[39.02876,32.32834,895.0342],[38.97998,32.4721,881.2271],[38.97863,32.47373,883.6904],[38.97822,32.47497,881.6394],[38.97863,32.47569,879.3289],[38.97998,32.47605,877.9592],[39.05718,32.4966,884.4021],[38.99,32.70558,806.1357],[38.94277,32.85234,782.9213],[38.89719,32.99434,768.0695],[38.86257,33.10072,760.7475],[38.82102,33.22903,737.8492],[38.77451,33.37169,720.0502],[38.52957,33.24425,801.4835],[38.31574,33.13118,748.1791],[38.23088,33.0863,720.2052],[38.05673,32.99434,687.929],[38.05673,32.99429,687.929],[37.92939,32.92533,663.8141],[37.75804,32.83252,652.9321],[37.58668,32.73984,702.2516],[37.49461,32.69006,799.4177],[37.41521,32.64713,856.4934],[37.24406,32.5544,737.9736],[37.13337,32.49458,799.0432],[37.13337,32.49453,799.0432],[37.13316,32.49453,799.0432],[37.13316,32.49448,799.0432],[36.9801,32.41004,1173.1155],[36.81939,32.31679,1065.5844],[36.80657,32.31304,1059.1581],[36.79251,32.31353,1062.1803],[36.72864,32.3278,1097.1611],[36.70694,32.32834,1083.9647],[36.68957,32.31966,1072.2499],[36.6535,32.34286,1052.4858],[36.51668,32.35701,858.3297],[36.48018,32.36079,821.2422],[36.46395,32.36939,810.5561],[36.40763,32.37423,752.0196],[36.38789,32.37932,734.5336],[36.37311,32.38642,721.4656],[36.28526,32.45693,633.9271],[36.22077,32.49458,587.7426],[36.18821,32.52228,578.6899],[36.17736,32.52732,584.3994],[36.17219,32.52592,592.6195],[36.16082,32.51722,622.9698],[36.15586,32.5152,635.3388],[36.14987,32.51613,641.9088],[36.13953,32.51954,660.0312],[36.13323,32.52011,661.687],[36.09623,32.51587,619.4152],[36.08191,32.51626,657.3654],[36.09421,32.43425,644.153],[36.08723,32.40825,713.6735],[36.0801,32.40616,742.2978],[36.07137,32.40771,703.5764],[36.05308,32.41988,656.3929],[36.04176,32.42322,653.4753],[36.02936,32.42143,668.0186],[36.01504,32.41143,691.7042],[36.01163,32.40329,698.7807],[36.01287,32.39513,722.0159],[36.01814,32.38709,765.2137],[36.02326,32.37715,801.387],[36.02636,32.36231,839.8696],[36.02502,32.35464,843.319],[36.01721,32.34596,912.4228],[36.00311,32.32159,861.6178],[35.95763,32.27806,766.0978],[35.94802,32.26248,616.3093],[35.94724,32.25261,684.6427],[35.95205,32.24578,763.5398],[35.96027,32.24113,695.4346],[35.96714,32.23581,727.6047],[35.98032,32.2171,473.574],[35.9907,32.19667,454.4554],[36.01086,32.19085,594.6159],[36.01938,32.18305,534.4404],[36.02295,32.17615,658.1366],[36.0214,32.16966,509.5159],[36.0169,32.16354,440.2882],[36.01396,32.15633,489.76],[36.01473,32.14685,509.9682],[36.01969,32.13995,533.0422],[36.02998,32.13383,569.7573],[36.04067,32.13223,553.6138],[36.05246,32.13437,535.8264],[36.06253,32.1391,486.6676],[36.07618,32.15062,478.65],[36.08615,32.14951,490.2644],[36.09871,32.1429,545.2227],[36.12305,32.12716,559.425],[36.13839,32.12362,556.9095],[36.15224,32.1246,592.5987],[36.17302,32.13181,579.5122],[36.1834,32.1339,624.8882],[36.19586,32.1353,613.251],[36.23632,32.13197,557.9192],[36.27668,32.11504,589.3372],[36.2942,32.10419,602.5579],[36.3096,32.10031,611.3554],[36.32464,32.10065,588.7405],[36.3375,32.10566,582.9607],[36.34805,32.11254,587.6331],[36.36091,32.1175,590.6633],[36.37941,32.11907,585.39],[36.43341,32.11411,592.6531],[36.45093,32.10628,597.36],[36.48277,32.08081,594.4486],[36.51796,32.06342,597.9241],[37.75938,31.69677,866.5833],[37.76083,31.69631,868.9988],[37.76141,31.69612,868.9988],[37.95048,31.74447,811.5601],[37.98652,31.75336,752.5966],[38.17537,31.79992,669.9803],[38.40017,31.85537,759.1859],[38.62486,31.91087,846.4181],[38.84975,31.96632,871.4149],[38.96334,31.99438,861.3812],[38.96344,31.99433,861.3812],[38.96344,31.99448,861.3812],[38.99806,32.00694,873.0846],[39.11682,32.1029,907.4842],[39.13625,32.11535,915.9801],[39.14637,32.11814,924.0361],[39.14617,32.12584,925.7543],[39.26647,32.21287,925.8649],[39.292,32.24452,927.9573],[39.27112,32.31196,916.2413],[39.25634,32.34268,914.7056],[39.23578,32.35286,914.9807],[39.04633,32.30849,900.7419]]]}}