{"type":"Feature","properties":{"GID_1":"JOR.10_1","GID_0":"JOR","country":"Jordan","province":"Mafraq","VARNAME_1":"NA","NL_NAME_1":"NA","TYPE_1":"Muhafazah","ENGTYPE_1":"Province","CC_1":"NA","HASC_1":"JO.MA","ISO_1":"NA","name":"Mafraq.province"},
"geometry":{"type": "MultiPolygon","coordinates": [[[[36.0396,32.1991,722.8178],[36.0365,32.1773,691.703],[36.054,32.1651,635.5177],[36.0649,32.1524,517.5785],[36.0698,32.1416,502.258],[36.0878,32.1324,572.2639],[36.0999,32.1294,568.5182],[36.1122,32.1307,519.3688],[36.1191,32.1338,550.9387],[36.1318,32.145,552.3826],[36.1432,32.1473,532.8533],[36.1495,32.146,548.7336],[36.1731,32.1351,600.5811],[36.1784,32.1344,602.304],[36.244,32.1557,590.4716],[36.2615,32.1474,557.8423],[36.2971,32.1267,583.8744],[36.3203,32.1172,575.5881],[36.3513,32.1137,588.5403],[36.4094,32.1181,587.3785],[36.4251,32.1238,595.272],[36.4329,32.1247,596.6298],[36.4489,32.124,605.1489],[36.4723,32.1142,616.8462],[36.4806,32.1038,608.4041],[36.4845,32.0911,602.2859],[36.4824,32.0682,589.2875],[36.523,32.0674,598.1418],[36.5386,32.0613,594.1252],[36.5571,32.0586,592.8376],[36.5732,32.0534,592.4616],[36.5937,32.0502,598.7742],[36.6053,32.0451,598.7334],[36.6317,32.0423,603.8911],[36.66,32.0296,599.0986],[36.6811,32.0254,601.4541],[36.7264,32.0053,601.3724],[36.7437,32.0024,598.0847],[36.755,31.9973,591.3104],[36.7742,31.9939,592.3975],[36.8024,31.9811,585.2784],[36.8158,31.9776,577.7109],[36.8462,31.9652,577.0933],[36.8597,31.9617,570.0032],[36.869,31.957,572.0096],[36.8882,31.9536,569.1278],[36.9353,31.9328,554.7263],[36.9526,31.9299,559.6306],[36.9639,31.9248,551.7379],[36.9831,31.9213,574.2814],[37.0113,31.9086,594.2355],[37.0305,31.9052,603.2492],[37.0398,31.9004,636.9094],[37.1066,31.8812,650.7857],[37.1158,31.8765,631.6873],[37.1349,31.8731,612.6909],[37.1633,31.8601,599.5735],[37.23,31.8409,603.377],[37.2396,31.8361,600.7122],[37.2582,31.8327,624.4946],[37.2678,31.828,621.4601],[37.3059,31.8167,612.0035],[37.3153,31.8118,631.5611],[37.382,31.7925,613.685],[37.3915,31.7877,608.5183],[37.408,31.7849,608.0544],[37.42,31.7797,600.2681],[37.4387,31.7764,594.2971],[37.4482,31.7716,589.9384],[37.5128,31.7529,653.9172],[37.5243,31.7473,700.8837],[37.549,31.7397,720.6076],[37.5718,31.7361,709.9754],[37.6003,31.7234,746.3156],[37.6231,31.7197,751.4945],[37.6479,31.7121,776.3304],[37.6593,31.7065,782.5114],[37.7195,31.6891,842.6613],[37.7269,31.6852,841.6102],[37.9596,31.7436,809.0153],[37.9713,31.7451,761.5759],[37.984,31.7445,770.3229],[38.0398,31.7635,705.7424],[38.667,31.9193,876.2255],[39.0063,32.0006,876.481],[39.1792,32.1354,934.3698],[39.2009,32.1543,946.0753],[39.2124,32.1524,939.6992],[39.3021,32.2213,926.8484],[39.3009,32.2371,923.1357],[39.2891,32.2708,915.2279],[39.2637,32.3044,920.8544],[39.2414,32.3203,922.8176],[39.2233,32.3259,918.1286],[39.1989,32.3281,913.5234],[39.104,32.3203,900.944],[39.0815,32.3208,897.9622],[39.0566,32.3275,896.6174],[39.0395,32.3404,892.1409],[39.0255,32.3616,886.2585],[39.0153,32.3877,879.1293],[39.0098,32.4132,887.7544],[39.0094,32.4342,893.124],[39.0163,32.4598,882.2109],[39.0522,32.5127,878.4331],[39.0577,32.5437,870.472],[39.0535,32.582,845.1951],[39.0379,32.6409,820.644],[38.9938,32.7753,789.35],[38.8288,33.2582,731.6034],[38.818,33.3057,718.2685],[38.7968,33.3682,714.4872],[38.4211,33.1732,804.9169],[37.5361,32.7026,753.2234],[37.0336,32.4327,1011.1807],[36.9562,32.3908,1168.3003],[36.8893,32.3482,1152.6396],[36.8458,32.3125,1091.1351],[36.8254,32.3107,1057.6561],[36.7384,32.3324,1119.79],[36.72,32.3251,1069.1648],[36.7133,32.3252,1067.5044],[36.6921,32.3391,1111.6815],[36.6704,32.3423,1065.4742],[36.5207,32.3549,861.6204],[36.5033,32.3591,833.491],[36.4928,32.3675,840.7064],[36.4802,32.3734,831.0593],[36.4636,32.3773,812.5013],[36.4097,32.3822,759.1365],[36.4006,32.3872,749.7374],[36.3365,32.4427,675.7753],[36.2961,32.4705,631.4237],[36.2577,32.4929,618.491],[36.2178,32.5218,579.5272],[36.2056,32.5284,574.7238],[36.2007,32.5285,576.0063],[36.1784,32.5183,602.709],[36.1767,32.5117,615.2923],[36.1673,32.5001,618.4108],[36.161,32.4882,658.9703],[36.1434,32.4446,664.99],[36.1354,32.4348,717.5805],[36.1172,32.425,695.8386],[36.0681,32.4204,644.0671],[36.0755,32.4002,767.6985],[36.0801,32.3764,839.7839],[36.0799,32.3662,819.0339],[36.074,32.3435,848.8933],[36.0507,32.3226,831.2533],[36.041,32.3164,803.0245],[36.0131,32.2932,723.7742],[36.0055,32.2793,699.4694],[36.0055,32.2684,706.7906],[36.0101,32.2585,674.1779],[36.014,32.2546,655.3549],[36.0348,32.2429,607.3971],[36.0452,32.2271,649.1541],[36.0472,32.2193,589.6488],[36.0468,32.2129,645.7238],[36.0396,32.1991,722.8178]]]]}}