{"type":"Feature","properties":{"GID_2":"JOR.1.2_1","GID_0":"JOR","country":"Jordan","GID_1":"JOR.1_1","province":"Ajlun","NL_NAME_1":"NA","county":"Kofranjah","VARNAME_2":"NA","NL_NAME_2":"NA","TYPE_2":"Nahia","ENGTYPE_2":"Sub-Province","CC_2":"NA","HASC_2":"JO.AJ.KF","name":"Kofranjah.county"},
"geometry":{"type": "MultiPolygon","coordinates": [[[[35.667,32.2453,123.937],[35.6875,32.2157,459.6281],[35.7028,32.2018,210.8486],[35.7088,32.1942,247.1443],[35.7274,32.1779,105.9902],[35.7427,32.1696,418.2159],[35.7649,32.1901,184.0228],[35.7861,32.2012,396.1911],[35.7833,32.2134,488.9813],[35.7841,32.2198,578.794],[35.7926,32.2472,972.49],[35.7987,32.2565,1086.3927],[35.7991,32.2638,923.484],[35.7961,32.2686,929.0044],[35.7835,32.2756,1104.3796],[35.7674,32.2787,993.503],[35.7552,32.2754,968.7695],[35.7293,32.2626,859.3047],[35.7005,32.2532,663.9271],[35.667,32.2453,123.937]]]]}}