{"type":"Feature","properties":{"GID_2":"JOR.10.3_1","GID_0":"JOR","country":"Jordan","GID_1":"JOR.10_1","province":"Mafraq","NL_NAME_1":"NA","county":"Mafraq","VARNAME_2":"Al-Mafraq","NL_NAME_2":"NA","TYPE_2":"Nahia","ENGTYPE_2":"Sub-Province","CC_2":"NA","HASC_2":"JO.MA.MA","name":"Mafraq.county"},
"geometry":{"type": "MultiPolygon","coordinates": [[[[36.5033,32.2322,752.5138],[36.5033,32.2633,787.308],[36.4873,32.2958,814.0663],[36.4853,32.3051,803.4105],[36.4868,32.337,814.1729],[36.4896,32.3517,824.1724],[36.4953,32.3655,842.772],[36.4802,32.3734,831.0593],[36.4636,32.3773,812.5013],[36.4097,32.3822,759.1365],[36.4006,32.3872,749.7374],[36.3795,32.4055,723.9067],[36.3479,32.3792,693.9766],[36.3442,32.3735,692.8531],[36.3417,32.3651,685.1415],[36.3421,32.353,680.0833],[36.3401,32.3457,679.2032],[36.3325,32.3383,667.5078],[36.3269,32.3361,665.3302],[36.3163,32.3373,666.3958],[36.3014,32.3473,670.0793],[36.2793,32.3703,680.686],[36.2713,32.3821,681.6378],[36.2508,32.3913,667.9752],[36.2221,32.3959,663.8551],[36.2055,32.3949,654.7289],[36.1783,32.3887,693.6994],[36.1645,32.3818,714.4299],[36.1392,32.3604,762.1258],[36.107,32.344,798.2246],[36.144,32.3288,757.7632],[36.1645,32.3257,763.8629],[36.1761,32.3209,754.5547],[36.1931,32.318,718.8045],[36.1985,32.3151,716.7073],[36.2076,32.3019,710.4391],[36.2111,32.2845,712.9895],[36.2182,32.2705,685.1766],[36.2174,32.2517,666.0813],[36.2096,32.238,688.5273],[36.2092,32.2317,627.0002],[36.211,32.2257,606.4704],[36.2159,32.2219,598.2734],[36.2445,32.2114,605.288],[36.2531,32.2045,599.5344],[36.256,32.1995,594.8716],[36.2558,32.187,593.5917],[36.2485,32.1752,588.2657],[36.244,32.1557,590.4716],[36.2615,32.1474,557.8423],[36.2971,32.1267,583.8744],[36.3203,32.1172,575.5881],[36.3513,32.1137,588.5403],[36.4044,32.1179,588.0449],[36.3992,32.1371,602.5542],[36.4008,32.153,608.7866],[36.4113,32.1711,631.4654],[36.4215,32.1826,647.743],[36.4446,32.1995,677.089],[36.453,32.2085,688.3322],[36.457,32.2242,708.5312],[36.46,32.2296,713.3876],[36.4655,32.233,720.2985],[36.4735,32.2345,735.4045],[36.5033,32.2322,752.5138]]]]}}