{"type":"Feature","properties":{"GID_2":"JOR.10.2_1","GID_0":"JOR","country":"Jordan","GID_1":"JOR.10_1","province":"Mafraq","NL_NAME_1":"NA","county":"Bal'ama","VARNAME_2":"NA","NL_NAME_2":"NA","TYPE_2":"Nahia","ENGTYPE_2":"Sub-Province","CC_2":"NA","HASC_2":"JO.MA.BM","name":"Bal'ama.county"},
"geometry":{"type": "MultiPolygon","coordinates": [[[[36.0365,32.1773,691.703],[36.054,32.1651,635.5177],[36.0649,32.1524,517.5785],[36.0698,32.1416,502.258],[36.0878,32.1324,572.2639],[36.0999,32.1294,568.5182],[36.1122,32.1307,519.3688],[36.1191,32.1338,550.9387],[36.1318,32.145,552.3826],[36.1432,32.1473,532.8533],[36.1495,32.146,548.7336],[36.1731,32.1351,600.5811],[36.1784,32.1344,602.304],[36.244,32.1557,590.4716],[36.2485,32.1752,588.2657],[36.2541,32.1834,589.0652],[36.2567,32.1933,594.4968],[36.2553,32.2015,595.9825],[36.2445,32.2114,605.288],[36.2159,32.2219,598.2734],[36.2101,32.2276,611.6154],[36.2096,32.238,688.5273],[36.2174,32.2517,666.0813],[36.2186,32.2578,647.7028],[36.2182,32.2705,685.1766],[36.2111,32.2845,712.9895],[36.2076,32.3019,710.4391],[36.1985,32.3151,716.7073],[36.1931,32.318,718.8045],[36.1761,32.3209,754.5547],[36.1645,32.3257,763.8629],[36.144,32.3288,757.7632],[36.107,32.344,798.2246],[36.074,32.3435,848.8933],[36.0507,32.3226,831.2533],[36.041,32.3164,803.0245],[36.0131,32.2932,723.7742],[36.0055,32.2793,699.4694],[36.0055,32.2684,706.7906],[36.0101,32.2585,674.1779],[36.014,32.2546,655.3549],[36.0348,32.2429,607.3971],[36.0466,32.2234,594.4721],[36.0468,32.2129,645.7238],[36.0396,32.1991,722.8178],[36.0365,32.1773,691.703]]]]}}