{"type":"Feature","properties":{"GID_2":"JOR.1.1_1","GID_0":"JOR","country":"Jordan","GID_1":"JOR.1_1","province":"Ajlun","NL_NAME_1":"NA","county":"Ajloun","VARNAME_2":"Ajlun","NL_NAME_2":"NA","TYPE_2":"Nahia","ENGTYPE_2":"Sub-Province","CC_2":"NA","HASC_2":"JO.AJ.AJ","name":"Ajloun.county"},
"geometry":{"type": "MultiPolygon","coordinates": [[[[35.7861,32.2012,396.1911],[35.8344,32.2216,448.4883],[35.8547,32.2392,521.7442],[35.8655,32.2642,516.2431],[35.8693,32.2849,714.7208],[35.8778,32.307,744.1557],[35.8833,32.3141,737.7524],[35.9038,32.3239,1039.5228],[35.9197,32.328,994.7753],[35.9388,32.336,974.495],[35.9557,32.3487,953.739],[35.9672,32.3548,927.7458],[35.9592,32.3638,863.7067],[35.9462,32.3692,830.5575],[35.9328,32.3776,820.0871],[35.9282,32.3823,870.4391],[35.9246,32.3914,830.7522],[35.9221,32.4205,738.0437],[35.8933,32.4015,869.7122],[35.8848,32.3991,885.2596],[35.8722,32.3976,987.2683],[35.8592,32.399,984.698],[35.8352,32.4059,992.9347],[35.7982,32.3851,1047.0554],[35.7728,32.375,1009.5973],[35.7507,32.3755,801.8616],[35.7374,32.3814,688.8528],[35.71,32.3869,568.9942],[35.6975,32.3471,638.5997],[35.6946,32.3239,627.3002],[35.6881,32.3113,490.053],[35.685,32.2916,562.1823],[35.6791,32.281,453.7557],[35.6745,32.2614,566.1016],[35.667,32.2453,123.937],[35.7005,32.2532,663.9271],[35.7293,32.2626,859.3047],[35.7602,32.2773,1015.2164],[35.7674,32.2787,993.503],[35.7835,32.2756,1104.3796],[35.7961,32.2686,929.0044],[35.7991,32.2638,923.484],[35.7995,32.26,1058.1901],[35.7987,32.2565,1086.3927],[35.7926,32.2472,972.49],[35.7841,32.2198,578.794],[35.7833,32.2134,488.9813],[35.7861,32.2012,396.1911]]]]}}