{"type":"Feature","properties":{"GID_2":"JOR.2.4_1","GID_0":"JOR","country":"Jordan","GID_1":"JOR.2_1","province":"Amman","NL_NAME_1":"NA","county":"Na'oor","VARNAME_2":"NA","NL_NAME_2":"NA","TYPE_2":"Nahia","ENGTYPE_2":"Sub-Province","CC_2":"NA","HASC_2":"JO.AM.NA","name":"Na'oor.county"},
"geometry":{"type": "MultiPolygon","coordinates": [[[[35.8989,31.8597,870.4008],[35.907,31.8508,850.5993],[35.9283,31.8443,853.0843],[35.9361,31.8248,802.1943],[35.966,31.8,754.0991],[35.9904,31.8073,759.24],[36.0081,31.8201,768.626],[36.0243,31.8261,772.475],[36.0346,31.8335,782.3005],[36.0534,31.8501,824.627],[36.0822,31.8826,870.3861],[36.1022,31.9083,814.6853],[36.1033,31.9162,799.4271],[36.102,31.9204,779.892],[36.0954,31.9268,806.5833],[36.083,31.9297,813.9269],[36.0651,31.9287,856.4987],[36.0472,31.9218,790.2676],[36.0088,31.9176,843.2957],[36.0068,31.8926,908.0066],[35.9959,31.881,880.7599],[35.9894,31.8793,899.0703],[35.9514,31.8802,900.1443],[35.9328,31.8789,884.1741],[35.9186,31.8751,863.0186],[35.9086,31.8706,867.2449],[35.8989,31.8597,870.4008]]]]}}