{"type":"Feature","properties":{"GID_2":"JOR.5.4_1","GID_0":"JOR","country":"Jordan","GID_1":"JOR.5_1","province":"Irbid","NL_NAME_1":"NA","county":"Irbid","VARNAME_2":"NA","NL_NAME_2":"NA","TYPE_2":"Nahia","ENGTYPE_2":"Sub-Province","CC_2":"NA","HASC_2":"JO.IR.IR","name":"Irbid.county"},
"geometry":{"type": "MultiPolygon","coordinates": [[[[35.8394,32.529,655.9308],[35.8321,32.5411,591.4337],[35.8271,32.5589,536.2876],[35.8124,32.573,414.814],[35.7915,32.6006,406.5182],[35.7778,32.5991,388.2897],[35.7521,32.6008,363.3467],[35.735,32.5928,296.1635],[35.7286,32.5869,315.0972],[35.7264,32.5779,348.0323],[35.7292,32.5715,364.9263],[35.7575,32.5573,415.9235],[35.7799,32.543,519.2581],[35.7963,32.5303,563.3664],[35.8155,32.5224,644.4619],[35.8299,32.5209,645.6173],[35.8394,32.529,655.9308]]]]}}