{"type":"Feature","properties":{"GID_2":"JOR.10.4_1","GID_0":"JOR","country":"Jordan","GID_1":"JOR.10_1","province":"Mafraq","NL_NAME_1":"NA","county":"Sabha","VARNAME_2":"NA","NL_NAME_2":"NA","TYPE_2":"Nahia","ENGTYPE_2":"Sub-Province","CC_2":"NA","HASC_2":"JO.MA.SA","name":"Sabha.county"},
"geometry":{"type": "MultiPolygon","coordinates": [[[[37.0715,32.4531,934.4296],[36.9562,32.3908,1168.3003],[36.8893,32.3482,1152.6396],[36.8458,32.3125,1091.1351],[36.8254,32.3107,1057.6561],[36.7384,32.3324,1119.79],[36.72,32.3251,1069.1648],[36.7133,32.3252,1067.5044],[36.6921,32.3391,1111.6815],[36.6704,32.3423,1065.4742],[36.5207,32.3549,861.6204],[36.5033,32.3591,833.491],[36.4953,32.3655,842.772],[36.4896,32.3517,824.1724],[36.4868,32.337,814.1729],[36.4853,32.3051,803.4105],[36.4873,32.2958,814.0663],[36.5033,32.2633,787.308],[36.5033,32.2322,752.5138],[36.5263,32.2295,774.8746],[36.5455,32.2238,772.8511],[36.5669,32.221,783.9078],[36.6095,32.2082,769.4848],[36.6321,32.2045,780.6469],[36.6439,32.1994,793.3169],[36.6681,32.197,823.2462],[36.7006,32.1831,819.5602],[36.7182,32.1821,822.0154],[36.7437,32.1847,848.7555],[36.7701,32.1817,862.688],[36.7844,32.1759,865.0616],[36.8049,32.1716,843.3549],[36.8125,32.1676,836.9341],[36.8322,32.1661,829.1824],[36.8451,32.1679,832.1806],[36.859,32.1727,877.4175],[36.8867,32.1756,945.9954],[36.9007,32.1813,958.9755],[36.9211,32.1846,909.0341],[36.9638,32.1975,861.5167],[36.984,32.2006,845.8923],[37.0314,32.2218,840.6566],[37.0697,32.2331,822.561],[37.0921,32.2468,802.8608],[37.1369,32.2857,771.543],[37.1499,32.3023,765.669],[37.1584,32.3216,763.9993],[37.1607,32.335,775.7475],[37.1586,32.3529,759.7285],[37.1465,32.3727,779.7441],[37.1266,32.3915,825.9788],[37.1142,32.4056,864.4907],[37.1022,32.4229,865.04],[37.0715,32.4531,934.4296]]]]}}