{"type":"Feature","properties":{"GID_2":"JOR.11.1_1","GID_0":"JOR","country":"Jordan","GID_1":"JOR.11_1","province":"Tafilah","NL_NAME_1":"NA","county":"Bsaira","VARNAME_2":"Bisaira","NL_NAME_2":"NA","TYPE_2":"Nahia","ENGTYPE_2":"Sub-Province","CC_2":"NA","HASC_2":"JO.AT.BS","name":"Bsaira.county"},
"geometry":{"type": "MultiPolygon","coordinates": [[[[35.7054,30.6439,1361.1069],[35.7105,30.6734,1363.4446],[35.7177,30.6923,1462.9969],[35.7205,30.7131,1410.5564],[35.7264,30.7235,1350.5509],[35.7286,30.7355,1280.7518],[35.7132,30.7414,1300.2676],[35.7011,30.7513,1305.3676],[35.6893,30.7638,1387.4998],[35.681,30.7673,1336.8293],[35.6654,30.7672,1295.9781],[35.6246,30.76,1261.0009],[35.6074,30.7599,809.3868],[35.5838,30.7624,845.598],[35.5688,30.7602,551.1895],[35.5589,30.7557,814.021],[35.5533,30.7445,877.2311],[35.5529,30.738,846.9106],[35.5584,30.7029,1183.3247],[35.5648,30.6907,1306.4762],[35.5653,30.6809,1022.018],[35.5555,30.662,545.0081],[35.542,30.6478,643.7182],[35.6183,30.6405,1160.7711],[35.6375,30.6364,1290.3231],[35.6724,30.6227,1330.8108],[35.6966,30.6328,1355.5706],[35.7054,30.6439,1361.1069]]]]}}