{"type":"Feature","properties":{"ISO3166-1-Alpha-3":"JOR","country":"Jordan","fill":"#F00","id":"856","name":"Jarash"},
"geometry":{"type": "Polygon","coordinates": [[[36.01721,32.34596,912.4228],[35.98404,32.34715,953.2096],[35.95298,32.35474,904.627],[35.93965,32.35133,972.9689],[35.90533,32.33888,950.0841],[35.88409,32.32896,985.6227],[35.87324,32.325,943.1707],[35.85769,32.31622,855.1759],[35.84187,32.30289,947.5534],[35.82498,32.28028,790.8436],[35.818,32.26382,944.4283],[35.81521,32.24989,883.9125],[35.81598,32.24036,741.1224],[35.81366,32.23147,713.9154],[35.80467,32.22274,689.54],[35.73651,32.19651,349.0455],[35.6948,32.15618,386.7979],[35.6962,32.14783,469.5893],[35.70643,32.1446,502.8462],[35.71976,32.14352,429.5479],[35.80668,32.14538,324.1177],[35.82637,32.1422,483.6675],[35.84032,32.13711,698.7341],[35.85164,32.12739,769.3154],[35.85913,32.11897,711.8536],[35.89588,32.09566,814.9634],[35.93329,32.13837,750.7777],[35.94492,32.14615,655.8374],[35.96073,32.15416,556.8445],[35.9738,32.15936,700.2223],[35.98233,32.1668,599.4545],[35.98729,32.17563,659.3359],[35.9907,32.19667,454.4554],[35.98032,32.2171,473.574],[35.96714,32.23581,727.6047],[35.96027,32.24113,695.4346],[35.95205,32.24578,763.5398],[35.94724,32.25261,684.6427],[35.94802,32.26248,616.3093],[35.95763,32.27806,766.0978],[36.00311,32.32159,861.6178],[36.01721,32.34596,912.4228]]]}}