{"type":"Feature","properties":{"GID_2":"JOR.4.5_1","GID_0":"JOR","country":"Jordan","GID_1":"JOR.4_1","province":"Balqa","NL_NAME_1":"NA","county":"ShoonehJanoobiyyeh","VARNAME_2":"Shunaal-Janibiyya","NL_NAME_2":"NA","TYPE_2":"Nahia","ENGTYPE_2":"Sub-Province","CC_2":"NA","HASC_2":"JO.BA.SJ","name":"Shooneh_Janoobiyyeh.county"},
"geometry":{"type": "MultiPolygon","coordinates": [[[[35.7139,32.1892,102.2949],[35.6835,32.1617,384.2938],[35.6472,32.1382,147.8741],[35.6228,32.1102,-35.443],[35.5787,32.0679,-283.5762],[35.5703,32.0658,-290.7466],[35.5557,32.0664,-295.0252],[35.5285,32.0771,-309.132],[35.5256,32.0722,-332.1575],[35.5278,32.0292,-314.8357],[35.5388,32.0184,-292.6295],[35.5404,32.0116,-312.3931],[35.5311,32.0,-366.5735],[35.5478,31.9686,-370.3613],[35.5415,31.933,-374.5772],[35.5234,31.9181,-359.9525],[35.5332,31.876,-351.6284],[35.5506,31.8665,-382.4468],[35.5408,31.8501,-385.8905],[35.5513,31.8359,-382.0539],[35.5434,31.8169,-392.1632],[35.5557,31.7585,-424.5358],[35.5518,31.7524,-427.0],[35.5534,31.7383,-427.0],[35.5761,31.7208,-427.0],[35.5963,31.7097,-199.5091],[35.631,31.7093,83.723],[35.6576,31.7138,234.4552],[35.671,31.7182,281.1599],[35.6827,31.7268,396.9323],[35.6913,31.7357,514.0959],[35.693,31.7394,420.3446],[35.6942,31.7697,189.3184],[35.6959,31.778199999999998,153.874],[35.7068,31.7912,140.8346],[35.7119,31.7944,316.5086],[35.7174,31.7955,408.9366],[35.7399,31.8192,207.7495],[35.7459,31.8379,446.9873],[35.7501,31.8617,456.9794],[35.7542,31.8692,235.8862],[35.767,31.8838,271.6506],[35.7392,31.8888,241.2048],[35.7181,31.8973,221.1504],[35.6917,31.9174,156.2577],[35.6676,31.9232,194.9725],[35.6604,31.9291,-66.0129],[35.6564,31.9383,171.2345],[35.6534,31.9606,179.2481],[35.6572,31.9773,364.8293],[35.665,31.991,556.0725],[35.6682,32.0062,436.808],[35.6743,32.0204,701.9588],[35.6776,32.0388,481.5186],[35.6866,32.0604,739.109],[35.7047,32.0806,867.844],[35.7026,32.0942,795.6152],[35.7067,32.1189,579.2122],[35.726,32.1515,352.5009],[35.7427,32.1696,418.2159],[35.7274,32.1779,105.9902],[35.7139,32.1892,102.2949]]]]}}