{"type":"Feature","properties":{"ISO3166-1-Alpha-3":"JOR","country":"Jordan","fill":"#F00","id":"852","name":"Tafilah"},
"geometry":{"type": "Polygon","coordinates": [[[36.02378,30.76706,822.5167],[35.98094,30.80417,811.093],[35.93856,30.83127,800.9221],[35.93065,30.83889,801.0836],[35.92027,30.85396,795.2448],[35.91246,30.86127,815.1526],[35.90208,30.86664,854.9637],[35.8658,30.88109,895.7584],[35.85324,30.88884,747.5655],[35.84389,30.89659,928.3486],[35.8397,30.9037,908.2134],[35.83691,30.90979,870.9905],[35.83025,30.91486,867.2039],[35.66995,30.96992,578.5582],[35.58463,30.97354,467.0932],[35.57031,30.97837,394.9685],[35.55636,30.98622,336.3251],[35.5452,30.99478,19.1954],[35.53388,30.99769,358.4492],[35.52117,30.99842,221.1929],[35.50345,30.99622,-21.0075],[35.49073,30.99669,-254.3717],[35.48128,30.99408,-330.1013],[35.47508,30.98625,-349.9552],[35.47073,30.96591,-316.8005],[35.46061,30.94,-285.1972],[35.45425,30.89935,-236.6488],[35.44774,30.88943,-186.1244],[35.43658,30.88359,-205.4909],[35.41875,30.88468,-198.9329],[35.4048,30.88796,-236.993],[35.35482,30.91816,-258.1023],[35.34711,30.92271,-291.3723],[35.33493,30.91258,-247.6251],[35.32222,30.88995,-234.4301],[35.31953,30.86732,-226.4239],[35.32005,30.84494,-206.6819],[35.31663,30.82282,-201.622],[35.31085,30.81331,-192.5648],[35.2939,30.80019,-173.6198],[35.28615,30.79233,-186.8332],[35.27953,30.78024,-167.6464],[35.27612,30.76898,-162.0358],[35.27157,30.74371,-139.4048],[35.26388,30.71997,-130.8058],[35.27891,30.71009,-138.8208],[35.34718,30.66784,-66.1978],[35.36258,30.66084,-29.3275],[35.3756,30.65069,71.944],[35.38754,30.63276,89.9148],[35.39978,30.61898,104.0443],[35.41394,30.61291,137.3902],[35.42526,30.60935,155.4784],[35.44805,30.60849,225.3294],[35.4881,30.60857,317.8545],[35.52892,30.60327,875.8309],[35.62835,30.60599,1293.4971],[35.66235,30.60335,1278.4502],[35.75578,30.61423,1159.5657],[35.82668,30.62893,1020.1057],[35.84079,30.63666,1007.8743],[35.85071,30.64505,993.4915],[35.86317,30.65255,1051.3267],[35.87386,30.65454,1078.609],[35.8844,30.65379,1066.9159],[35.91122,30.64474,1052.7375],[35.94771,30.65642,965.7425],[36.02378,30.76706,822.5167]]]}}