{"type":"Feature","properties":{"GID_1":"JOR.11_1","GID_0":"JOR","country":"Jordan","province":"Tafilah","VARNAME_1":"AtTafilah|Tafela|Tafileh","NL_NAME_1":"NA","TYPE_1":"Muhafazah","ENGTYPE_1":"Province","CC_1":"NA","HASC_1":"JO.AT","ISO_1":"NA","name":"Tafilah.province"},
"geometry":{"type": "MultiPolygon","coordinates": [[[[35.6992,30.6355,1320.1755],[35.7054,30.6439,1361.1069],[35.718,30.6456,1257.1195],[35.8175,30.6471,1024.7433],[35.827,30.6506,1020.288],[35.8505,30.6679,976.6719],[35.8654,30.6711,1000.5008],[35.9102,30.6705,996.2212],[35.9313,30.6643,994.0418],[35.9412,30.6631,990.5244],[35.9904,30.663,892.3552],[36.0012,30.6655,882.1223],[36.0122,30.675,868.5864],[36.0157,30.6835,863.0486],[36.0307,30.7077,850.2413],[36.0348,30.7242,854.5806],[36.069,30.7808,820.1876],[36.0731,30.7972,832.2824],[36.1025,30.8394,885.7015],[36.0872,30.848,882.7003],[36.0762,30.8564,878.9373],[36.0572,30.8646,872.209],[36.0189,30.8756,890.3672],[36.0098,30.8806,886.5211],[35.9981,30.8845,875.4824],[35.9778,30.8957,893.3403],[35.958,30.9023,876.5624],[35.9389,30.8989,893.3856],[35.9089,30.8968,845.8581],[35.8963,30.8987,910.9927],[35.8832,30.9079,956.9428],[35.8759,30.9157,952.4045],[35.8685,30.9316,1039.9191],[35.8612,30.9383,1040.9781],[35.8517,30.9422,902.6893],[35.8196,30.9484,682.145],[35.7945,30.9605,807.6172],[35.7625,30.9725,670.4045],[35.7456,30.9846,835.4612],[35.7058,31.0015,834.4445],[35.6405,31.0101,857.0227],[35.6123,31.0121,375.8137],[35.5923,31.0184,723.2241],[35.5741,31.0219,401.0073],[35.5595,31.0197,42.5223],[35.5239,31.0182,-135.6143],[35.506,31.0099,-177.252],[35.5035,31.0068,-207.1864],[35.502,31.001,-154.712],[35.5062,30.9703,-141.2094],[35.5052,30.953,-33.3953],[35.499,30.9399,-133.2098],[35.486,30.9293,-190.9393],[35.4692,30.9223,-260.0039],[35.4534,30.9218,-325.918],[35.4278,30.9317,-354.4001],[35.4095,30.9445,-368.8851],[35.3977,30.9351,-361.565],[35.3601,30.9139,-327.1881],[35.3469,30.8888,-303.2282],[35.3565,30.8728,-225.5509],[35.3602,30.8594,-216.3744],[35.3665,30.8456,-208.1495],[35.3667,30.8369,-205.6473],[35.363,30.8287,-209.2611],[35.3414,30.8053,-183.8107],[35.3342,30.7954,-180.4788],[35.3417,30.7775,-160.7599],[35.3554,30.7648,-137.5874],[35.3792,30.737,-90.3145],[35.3935,30.7243,-56.0766],[35.4265,30.6802,82.664],[35.4449,30.6635,145.774],[35.4536,30.657,184.4301],[35.4614,30.6541,210.7583],[35.4982,30.6539,397.0602],[35.522,30.6562,427.5781],[35.542,30.6478,643.7182],[35.6183,30.6405,1160.7711],[35.6375,30.6364,1290.3231],[35.6724,30.6227,1330.8108],[35.693,30.6309,1330.241],[35.6992,30.6355,1320.1755]]]]}}