{"type":"Feature","properties":{"GID_2":"JOR.8.5_1","GID_0":"JOR","country":"Jordan","GID_1":"JOR.8_1","province":"Ma`an","NL_NAME_1":"NA","county":"WadiMusa","VARNAME_2":"NA","NL_NAME_2":"NA","TYPE_2":"Nahia","ENGTYPE_2":"Sub-Province","CC_2":"NA","HASC_2":"NA","name":"Wadi_Musa.county"},
"geometry":{"type": "MultiPolygon","coordinates": [[[[35.3736,30.1683,870.6891],[35.4177,30.1656,1567.6642],[35.4618,30.1692,1658.0796],[35.5012,30.1663,1473.1146],[35.5401,30.1599,1396.4067],[35.5586,30.1588,1364.9778],[35.5803,30.1599,1288.6302],[35.6149,30.1666,1242.5791],[35.6154,30.177,1267.9154],[35.6116,30.2025,1242.1782],[35.605,30.2191,1249.3236],[35.6013,30.2375,1270.3],[35.5955,30.2514,1286.8474],[35.5926,30.2859,1285.4556],[35.5866,30.3059,1296.1755],[35.5828,30.3254,1339.1422],[35.5704,30.3442,1390.1536],[35.56,30.3485,1429.9648],[35.5351,30.3544,1555.3217],[35.5298,30.3583,1609.9427],[35.5275,30.3646,1591.8882],[35.527,30.3741,1615.1355],[35.5303,30.4012,1618.2548],[35.5216,30.4042,1579.9677],[35.4924,30.4205,1563.864],[35.4551,30.4513,1173.7214],[35.4383,30.4491,1000.2446],[35.4335,30.4454,939.4269],[35.4299,30.4395,944.3974],[35.4277,30.4282,897.8995],[35.4279,30.3948,1090.1564],[35.4262,30.3823,1184.1469],[35.4211,30.3702,1109.3922],[35.407,30.3512,703.1113],[35.4054,30.346,852.2861],[35.4067,30.3391,741.1338],[35.4306,30.3007,982.0608],[35.4324,30.2897,889.5447],[35.4309,30.2753,913.2452],[35.4247,30.261,916.6261],[35.4196,30.2422,1106.5018],[35.4053,30.2196,843.4149],[35.4008,30.2096,1016.8163],[35.3958,30.2035,853.5902],[35.3912,30.1935,1004.2867],[35.3736,30.1683,870.6891]]]]}}