{"type":"Feature","properties":{"GID_2":"JOR.7.4_1","GID_0":"JOR","country":"Jordan","GID_1":"JOR.7_1","province":"Karak","NL_NAME_1":"NA","county":"GhourEssafi","VARNAME_2":"Al-Safi","NL_NAME_2":"NA","TYPE_2":"Nahia","ENGTYPE_2":"Sub-Province","CC_2":"NA","HASC_2":"JO.KA.SF","name":"Ghour_Essafi.county"},
"geometry":{"type": "MultiPolygon","coordinates": [[[[35.8652,31.4447,456.3746],[35.8319,31.4568,391.0261],[35.8105,31.458,298.5196],[35.7867,31.4533,173.8171],[35.7626,31.4417,388.6734],[35.774,31.4229,863.3668],[35.7952,31.4067,842.4966],[35.8069,31.3929,653.5889],[35.8165,31.4011,474.0834],[35.8307,31.3993,612.6265],[35.8479,31.3874,320.1723],[35.8734,31.3769,730.1097],[35.882,31.371,707.4496],[35.8878,31.371,728.8842],[35.8912,31.3735,735.6457],[35.8923,31.379,714.42],[35.8877,31.3891,704.9249],[35.8894,31.3993,528.1251],[35.894,31.4098,462.2275],[35.9007,31.4189,757.7645],[35.8804,31.4355,661.2524],[35.8652,31.4447,456.3746]]]]}}