{"type":"Feature","properties":{"GID_2":"JOR.5.6_1","GID_0":"JOR","country":"Jordan","GID_1":"JOR.5_1","province":"Irbid","NL_NAME_1":"NA","county":"MazarShamali","VARNAME_2":"MazarShamaliyyeh","NL_NAME_2":"NA","TYPE_2":"Nahia","ENGTYPE_2":"Sub-Province","CC_2":"NA","HASC_2":"JO.IR.MS","name":"Mazar_Shamali.county"},
"geometry":{"type": "MultiPolygon","coordinates": [[[[35.8352,32.4059,992.9347],[35.8242,32.4163,986.3943],[35.8211,32.4214,994.3034],[35.8194,32.4349,976.8943],[35.8203,32.456,877.551],[35.8227,32.4618,918.3596],[35.8324,32.4701,709.6522],[35.8535,32.4763,856.309],[35.8536,32.4925,745.6797],[35.843,32.4947,756.2672],[35.8285,32.4926,757.4865],[35.8004,32.5026,620.3892],[35.7761,32.5059,565.6823],[35.7452,32.5145,489.7049],[35.7195,32.5284,276.008],[35.7151,32.5159,314.8879],[35.7083,32.5036,296.2117],[35.7065,32.4945,318.5279],[35.7074,32.4859,431.5839],[35.7137,32.4759,516.051],[35.7152,32.4679,606.0964],[35.7138,32.4598,624.3835],[35.7075,32.4497,564.5115],[35.7061,32.441,625.3891],[35.706,32.4023,526.8253],[35.71,32.3869,568.9942],[35.7374,32.3814,688.8528],[35.7507,32.3755,801.8616],[35.7728,32.375,1009.5973],[35.7982,32.3851,1047.0554],[35.8352,32.4059,992.9347]]]]}}