{"type":"Feature","properties":{"GID_2":"JOR.4.3_1","GID_0":"JOR","country":"Jordan","GID_1":"JOR.4_1","province":"Balqa","NL_NAME_1":"NA","county":"DairAlla","VARNAME_2":"NA","NL_NAME_2":"NA","TYPE_2":"Nahia","ENGTYPE_2":"Sub-Province","CC_2":"NA","HASC_2":"JO.BA.DA","name":"Dair_Alla.county"},
"geometry":{"type": "MultiPolygon","coordinates": [[[[35.667,32.2453,123.937],[35.6538,32.2428,-21.4861],[35.6405,32.2377,49.6199],[35.6015,32.2349,-240.772],[35.5715,32.2284,-335.9736],[35.5755,32.206,-283.2107],[35.5727,32.1963,-317.1742],[35.5643,32.183,-344.9069],[35.5579,32.1581,-351.3006],[35.555,32.1314,-335.8954],[35.5512,32.1203,-351.9777],[35.5371,32.104,-355.465],[35.5339,32.0863,-316.8549],[35.5285,32.0771,-309.132],[35.5557,32.0664,-295.0252],[35.5703,32.0658,-290.7466],[35.5787,32.0679,-283.5762],[35.6228,32.1102,-35.443],[35.6472,32.1382,147.8741],[35.6835,32.1617,384.2938],[35.7139,32.1892,102.2949],[35.6875,32.2157,459.6281],[35.667,32.2453,123.937]]]]}}