{"type":"Feature","properties":{"GID_2":"JOR.4.2_1","GID_0":"JOR","country":"Jordan","GID_1":"JOR.4_1","province":"Balqa","NL_NAME_1":"NA","county":"Ardhah","VARNAME_2":"Al-Ardhah|Sbaihi","NL_NAME_2":"NA","TYPE_2":"Nahia","ENGTYPE_2":"Sub-Province","CC_2":"NA","HASC_2":"JO.BA.AR","name":"Ardhah.county"},
"geometry":{"type": "MultiPolygon","coordinates": [[[[35.9506,32.064,931.1477],[35.9517,32.0926,725.5127],[35.9477,32.1101,816.6487],[35.9226,32.118,956.5386],[35.9156,32.1265,906.4121],[35.9162,32.136,857.3103],[35.9225,32.147,770.6683],[35.9203,32.1569,690.1543],[35.9135,32.1629,660.001],[35.897,32.1698,696.4547],[35.8862,32.172,698.5282],[35.8568,32.172,590.5308],[35.8347,32.169,511.2936],[35.8328,32.1475,641.9225],[35.8277,32.1289,473.161],[35.8158,32.1139,667.6047],[35.8083,32.1089,485.1752],[35.7855,32.1005,678.6865],[35.767,32.0968,692.8398],[35.7546,32.0896,838.7112],[35.7377,32.083,1008.1212],[35.7526,32.0766,899.577],[35.7698,32.0719,940.5403],[35.7836,32.0611,873.8195],[35.7928,32.0585,783.2675],[35.8086,32.06,671.9962],[35.8327,32.0729,628.0707],[35.839,32.0736,651.7484],[35.845,32.0722,658.9917],[35.86,32.0615,808.4762],[35.8706,32.057,969.5063],[35.8745,32.0524,1014.4546],[35.8763,32.0372,957.123],[35.8738,32.0066,1005.8599],[35.9017,32.0201,950.4911],[35.9209,32.0363,876.5438],[35.934,32.0514,869.5492],[35.9506,32.064,931.1477]]]]}}