{"type":"Feature","properties":{"GID_2":"JOR.7.7_1","GID_0":"JOR","country":"Jordan","GID_1":"JOR.7_1","province":"Karak","NL_NAME_1":"NA","county":"Qasr","VARNAME_2":"Al-Qasr","NL_NAME_2":"NA","TYPE_2":"Nahia","ENGTYPE_2":"Sub-Province","CC_2":"NA","HASC_2":"JO.KA.QA","name":"Qasr.county"},
"geometry":{"type": "MultiPolygon","coordinates": [[[[35.9007,31.4189,757.7645],[35.894,31.4098,462.2275],[35.8894,31.3993,528.1251],[35.8877,31.3891,704.9249],[35.8923,31.379,714.42],[35.8912,31.3735,735.6457],[35.8878,31.371,728.8842],[35.882,31.371,707.4496],[35.8734,31.3769,730.1097],[35.8479,31.3874,320.1723],[35.8307,31.3993,612.6265],[35.8165,31.4011,474.0834],[35.8069,31.3929,653.5889],[35.8049,31.3726,735.9837],[35.7891,31.3463,839.838],[35.7884,31.3354,832.9589],[35.7907,31.3237,860.4167],[35.7902,31.3148,862.2299],[35.7851,31.3057,874.9025],[35.7804,31.3025,872.8813],[35.7703,31.2977,889.4071],[35.7599,31.2955,895.4798],[35.6955,31.2965,889.1453],[35.6971,31.2776,735.6927],[35.6961,31.2618,842.9091],[35.6912,31.245,932.9609],[35.6839,31.232,1030.0588],[35.6812,31.2182,795.6385],[35.6833,31.2009,658.8134],[35.688,31.1868,872.201],[35.6999,31.1699,1066.054],[35.7099,31.1514,1040.5499],[35.7112,31.1351,1096.4366],[35.7089,31.1146,1147.4319],[35.7222,31.1098,1108.7661],[35.7329,31.1033,1067.4531],[35.7461,31.0983,1075.8628],[35.7561,31.0907,1082.7075],[35.772,31.0736,1042.5646],[35.7829,31.0687,1060.0695],[35.7929,31.0692,1041.439],[35.8013,31.074,1035.8031],[35.8051,31.0791,1050.8481],[35.8124,31.0957,1051.1605],[35.8213,31.1032,944.3566],[35.8363,31.1047,986.9642],[35.8476,31.1007,1020.5274],[35.853,31.0953,1017.6714],[35.8657,31.071,952.3651],[35.8706,31.0646,944.5376],[35.8804,31.0413,944.7241],[35.8809,31.0273,927.3003],[35.8727,31.0067,958.7028],[35.873,30.9939,961.3969],[35.8757,30.9903,960.8312],[35.8826,30.9875,936.7423],[35.9188,30.9871,906.0773],[35.9238,30.9857,902.6808],[35.9287,30.982,897.0862],[35.9332,30.9747,897.3704],[35.9367,30.9643,895.0973],[35.9407,30.9431,913.8236],[35.9459,30.9347,914.2973],[35.958,30.9023,876.5624],[35.9778,30.8957,893.3403],[35.9981,30.8845,875.4824],[36.0098,30.8806,886.5211],[36.0189,30.8756,890.3672],[36.0572,30.8646,872.209],[36.0762,30.8564,878.9373],[36.0872,30.848,882.7003],[36.1025,30.8394,885.7015],[36.1074,30.8507,875.0233],[36.1114,30.8705,858.0703],[36.1266,30.8945,864.4872],[36.1399,30.9273,852.9058],[36.1745,30.9838,881.6401],[36.1877,31.0167,866.4944],[36.2032,31.0405,841.6967],[36.2069,31.0494,841.4045],[36.2128,31.0569,829.9455],[36.2163,31.0654,824.5798],[36.2328,31.0808,813.8672],[36.2392,31.09,814.3897],[36.2409,31.0985,814.2547],[36.2125,31.132,812.4554],[36.1702,31.1689,831.7456],[36.1601,31.1915,844.7352],[36.1578,31.2082,861.9041],[36.1587,31.2396,861.9543],[36.161,31.2455,851.7461],[36.1739,31.2618,835.3009],[36.1531,31.2735,855.3917],[36.1421,31.284,837.1832],[36.1213,31.2991,815.7869],[36.1129,31.3086,794.2463],[36.108,31.3262,782.3373],[36.0995,31.3352,766.0748],[36.0797,31.3505,777.8915],[36.0664,31.3554,797.2693],[36.0574,31.3619,778.4034],[36.0287,31.3894,720.3235],[36.0136,31.3993,701.505],[35.9878,31.409,734.1758],[35.9007,31.4189,757.7645]]]]}}