{"type":"Feature","properties":{"GID_2":"JOR.7.2_1","GID_0":"JOR","country":"Jordan","GID_1":"JOR.7_1","province":"Karak","NL_NAME_1":"NA","county":"Faqqoo'","VARNAME_2":"Faqqu","NL_NAME_2":"NA","TYPE_2":"Nahia","ENGTYPE_2":"Sub-Province","CC_2":"NA","HASC_2":"JO.KA.FA","name":"Faqqoo'.county"},
"geometry":{"type": "MultiPolygon","coordinates": [[[[35.6955,31.2965,889.1453],[35.7487,31.2951,922.5057],[35.7653,31.2963,884.4838],[35.7804,31.3025,872.8813],[35.7851,31.3057,874.9025],[35.7889,31.3117,871.7098],[35.7909,31.3183,855.7467],[35.7884,31.3354,832.9589],[35.7891,31.3463,839.838],[35.8049,31.3726,735.9837],[35.8069,31.3929,653.5889],[35.7952,31.4067,842.4966],[35.774,31.4229,863.3668],[35.7626,31.4417,388.6734],[35.7102,31.4413,112.0351],[35.7185,31.4274,278.2881],[35.7237,31.4131,751.7009],[35.7294,31.4048,877.1702],[35.7311,31.3962,941.3692],[35.731,31.387,994.403],[35.7283,31.3787,1007.3059],[35.7195,31.3687,934.2328],[35.6964,31.3512,925.1445],[35.6927,31.3458,929.0031],[35.691,31.3382,930.7544],[35.6931,31.3093,778.2093],[35.6955,31.2965,889.1453]]]]}}