{"type":"Feature","properties":{"GID_2":"JOR.11.3_1","GID_0":"JOR","country":"Jordan","GID_1":"JOR.11_1","province":"Tafilah","NL_NAME_1":"NA","county":"Tafileh","VARNAME_2":"Al-Tafila","NL_NAME_2":"NA","TYPE_2":"Nahia","ENGTYPE_2":"Sub-Province","CC_2":"NA","HASC_2":"JO.AT.AT","name":"Tafileh.county"},
"geometry":{"type": "MultiPolygon","coordinates": [[[[35.3469,30.8888,-303.2282],[35.3565,30.8728,-225.5509],[35.367,30.8413,-223.4708],[35.3654,30.8326,-217.6942],[35.363,30.8287,-209.2611],[35.3414,30.8053,-183.8107],[35.3342,30.7954,-180.4788],[35.3417,30.7775,-160.7599],[35.3554,30.7648,-137.5874],[35.3792,30.737,-90.3145],[35.3935,30.7243,-56.0766],[35.4265,30.6802,82.664],[35.4536,30.657,184.4301],[35.4614,30.6541,210.7583],[35.474,30.6534,282.7346],[35.522,30.6562,427.5781],[35.542,30.6478,643.7182],[35.5555,30.662,545.0081],[35.5653,30.6809,1022.018],[35.5648,30.6907,1306.4762],[35.5584,30.7029,1183.3247],[35.5529,30.738,846.9106],[35.5552,30.7498,957.757],[35.5623,30.7582,745.2095],[35.5838,30.7624,845.598],[35.6074,30.7599,809.3868],[35.6246,30.76,1261.0009],[35.6654,30.7672,1295.9781],[35.681,30.7673,1336.8293],[35.6893,30.7638,1387.4998],[35.7011,30.7513,1305.3676],[35.7132,30.7414,1300.2676],[35.7286,30.7355,1280.7518],[35.7567,30.7834,1152.924],[35.7565,30.7956,1163.1167],[35.7496,30.8115,1144.2997],[35.7481,30.8207,1112.2015],[35.7478,30.8543,1087.6686],[35.7493,30.8677,1022.8975],[35.7554,30.8776,991.3189],[35.7596,30.894,975.0682],[35.7654,30.9018,959.879],[35.7689,30.9103,929.5744],[35.775,30.918,815.3247],[35.7882,30.9427,525.9744],[35.8013,30.9571,770.2191],[35.7625,30.9725,670.4045],[35.7456,30.9846,835.4612],[35.7011,31.0026,830.2805],[35.6405,31.0101,857.0227],[35.6123,31.0121,375.8137],[35.5923,31.0184,723.2241],[35.5741,31.0219,401.0073],[35.5595,31.0197,42.5223],[35.5239,31.0182,-135.6143],[35.509,31.012,-129.2334],[35.5027,31.0049,-239.7204],[35.5025,30.9948,-122.4131],[35.5062,30.9703,-141.2094],[35.5052,30.953,-33.3953],[35.499,30.9399,-133.2098],[35.4906,30.9323,-154.6014],[35.4692,30.9223,-260.0039],[35.4534,30.9218,-325.918],[35.4278,30.9317,-354.4001],[35.4095,30.9445,-368.8851],[35.3977,30.9351,-361.565],[35.3601,30.9139,-327.1881],[35.3469,30.8888,-303.2282]]]]}}