{"type":"Feature","properties":{"GID_2":"JOR.8.4_1","GID_0":"JOR","country":"Jordan","GID_1":"JOR.8_1","province":"Ma`an","NL_NAME_1":"NA","county":"Shoabak","VARNAME_2":"Ash-Shibek","NL_NAME_2":"NA","TYPE_2":"Nahia","ENGTYPE_2":"Sub-Province","CC_2":"NA","HASC_2":"JO.MN.SB","name":"Shoabak.county"},
"geometry":{"type": "MultiPolygon","coordinates": [[[[35.4551,30.4513,1173.7214],[35.4924,30.4205,1563.864],[35.5216,30.4042,1579.9677],[35.5303,30.4012,1618.2548],[35.5692,30.4028,1394.4082],[35.5845,30.4067,1369.856],[35.5925,30.4116,1311.7043],[35.6103,30.431,1291.2605],[35.6257,30.4407,1283.3154],[35.656,30.4449,1212.8442],[35.6834,30.4595,1153.9423],[35.6889,30.4718,1156.6235],[35.6886,30.4864,1160.9448],[35.6631,30.528199999999998,1204.1545],[35.6539,30.5493,1208.6],[35.6517,30.5607,1222.1832],[35.6531,30.5833,1263.863],[35.6594,30.5934,1263.0439],[35.6643,30.6079,1282.8492],[35.6724,30.6227,1330.8108],[35.6375,30.6364,1290.3231],[35.6183,30.6405,1160.7711],[35.542,30.6478,643.7182],[35.522,30.6562,427.5781],[35.5119,30.6401,358.4977],[35.5021,30.6144,348.1037],[35.5004,30.6057,413.9486],[35.4986,30.5706,963.4687],[35.4922,30.5605,749.6281],[35.4816,30.535,832.0402],[35.4795,30.4731,962.8639],[35.4777,30.4694,1049.209],[35.4698,30.4617,1219.4094],[35.4551,30.4513,1173.7214]]]]}}