{"type":"Feature","properties":{"GID_2":"JOR.9.1_1","GID_0":"JOR","country":"Jordan","GID_1":"JOR.9_1","province":"Madaba","NL_NAME_1":"NA","county":"Dhiban","VARNAME_2":"NA","NL_NAME_2":"NA","TYPE_2":"Nahia","ENGTYPE_2":"Sub-Province","CC_2":"NA","HASC_2":"JO.MD.DB","name":"Dhiban.county"},
"geometry":{"type": "MultiPolygon","coordinates": [[[[35.8398,31.6374,736.0742],[35.8144,31.6226,731.051],[35.8009,31.6178,730.5726],[35.7873,31.6094,675.8181],[35.7711,31.5919,683.0664],[35.766,31.575,577.8145],[35.7652,31.5662,541.9987],[35.7707,31.5447,653.1689],[35.7786,31.531,683.9061],[35.7789,31.5221,698.0861],[35.7755,31.5136,692.3724],[35.7684,31.5077,724.1539],[35.7379,31.4925,740.7625],[35.7055,31.4797,789.9922],[35.6942,31.4706,417.9559],[35.6833,31.4531,190.4951],[35.7102,31.4413,112.0351],[35.7626,31.4417,388.6734],[35.7775,31.4495,156.6174],[35.7983,31.4566,110.1807],[35.8228,31.4579,396.7683],[35.8372,31.4553,402.4823],[35.8652,31.4447,456.3746],[35.8789,31.4591,654.7158],[35.8825,31.4662,704.1613],[35.8851,31.4818,728.2633],[35.8894,31.494,713.8347],[35.8955,31.5044,710.9031],[35.9106,31.5188,703.3351],[35.9141,31.5316,683.7143],[35.9135,31.5379,699.0104],[35.9088,31.5448,716.4153],[35.8864,31.5496,696.2409],[35.8775,31.556,689.4463],[35.8748,31.5607,686.1806],[35.875,31.5663,662.1083],[35.8778,31.5709,631.576],[35.8864,31.5773,612.4726],[35.8991,31.5823,614.7686],[35.9013,31.5857,621.1764],[35.9018,31.5937,643.3624],[35.8937,31.6075,623.5052],[35.8811,31.6181,672.4174],[35.8677,31.6227,717.4983],[35.8398,31.6374,736.0742]]]]}}