{"type":"Feature","properties":{"GID_2":"JOR.3.2_1","GID_0":"JOR","country":"Jordan","GID_1":"JOR.3_1","province":"Aqaba","NL_NAME_1":"NA","county":"Quaira","VARNAME_2":"Al-Quwayra","NL_NAME_2":"NA","TYPE_2":"Nahia","ENGTYPE_2":"Sub-Province","CC_2":"NA","HASC_2":"JO.AQ.QR","name":"Quaira.county"},
"geometry":{"type": "MultiPolygon","coordinates": [[[[35.5332,29.2696,1366.2394],[35.7423,29.2371,996.8459],[35.7421,29.264,993.0502],[35.7384,29.2873,1012.1085],[35.7375,29.3167,949.3356],[35.7339,29.3401,886.3407],[35.7326,29.372,947.9985],[35.7258,29.392,949.4274],[35.7225,29.4143,940.2567],[35.7156,29.4285,936.5629],[35.71,29.4602,880.7057],[35.7107,29.5005,848.7264],[35.716,29.5338,826.8497],[35.7227,29.5508,843.9296],[35.7213,29.5567,900.7977],[35.7161,29.5653,884.8461],[35.7122,29.5818,884.1414],[35.7151,29.6129,859.3069],[35.7151,29.6616,886.8625],[35.7073,29.7001,931.614],[35.7046,29.7226,960.1924],[35.698,29.7359,997.4537],[35.6948,29.753,1047.9624],[35.6855,29.7817,1082.5159],[35.6751,29.7999,1145.1722],[35.6656,29.816,1164.6682],[35.6558,29.828,1170.7911],[35.6363,29.8464,1338.9442],[35.6286,29.8631,1409.9551],[35.6181,29.8808,1392.8043],[35.6035,29.895,1430.4589],[35.5672,29.9424,1515.6387],[35.5622,29.9601,1585.3027],[35.5572,29.9686,1560.3541],[35.5536,29.9822,1568.6298],[35.5514,29.9856,1541.4731],[35.5289,29.9957,1543.8517],[35.4727,30.0039,1334.2823],[35.4268,30.0081,1133.2985],[35.3883,30.009,1067.9268],[35.362,30.0122,1028.6467],[35.3032,30.0125,813.5431],[35.2968,29.9997,892.7905],[35.2804,29.9845,552.6757],[35.2587,29.9508,682.4449],[35.2522,29.9434,891.4259],[35.2486,29.9349,790.187],[35.2426,29.9272,838.3302],[35.2391,29.9186,823.8471],[35.2331,29.911,812.6345],[35.2295,29.9024,708.5544],[35.2235,29.8947,726.2166],[35.22,29.8861,709.3636],[35.214,29.8784,951.8568],[35.2104,29.8699,950.4418],[35.2044,29.8622,809.7534],[35.1816,29.8212,956.7852],[35.1673,29.8068,1178.4924],[35.1517,29.7792,1299.3336],[35.1329,29.7606,1141.2239],[35.1624,29.7456,1335.4164],[35.1754,29.7345,1179.5881],[35.1945,29.7135,1126.7072],[35.2043,29.7057,934.4276],[35.215,29.7018,957.1698],[35.2232,29.701,1008.3859],[35.2782,29.7047,743.1805],[35.2948,29.7109,749.9869],[35.3324,29.7164,794.7313],[35.3507,29.7148,791.5303],[35.3627,29.7089,771.449],[35.3706,29.6974,784.29],[35.3734,29.6864,797.1893],[35.372,29.6606,874.524],[35.3649,29.6443,850.8126],[35.3638,29.6331,867.5692],[35.365,29.6269,881.8409],[35.3706,29.6187,948.5997],[35.3742,29.6096,972.2668],[35.3795,29.6028,962.7611],[35.3903,29.5955,1311.4374],[35.4078,29.5786,1510.3389],[35.4377,29.5546,1009.1753],[35.4743,29.5073,1036.6482],[35.4895,29.4726,1128.4187],[35.4954,29.4291,1307.2578],[35.4959,29.4077,1307.4308],[35.4953,29.3372,1478.4148],[35.4913,29.3103,1380.3291],[35.49,29.2764,1510.505],[35.5332,29.2696,1366.2394]]]]}}