{"type":"Feature","properties":{"GID_2":"JOR.5.8_1","GID_0":"JOR","country":"Jordan","GID_1":"JOR.5_1","province":"Irbid","NL_NAME_1":"NA","county":"Tayybeh","VARNAME_2":"NA","NL_NAME_2":"NA","TYPE_2":"Nahia","ENGTYPE_2":"Sub-Province","CC_2":"NA","HASC_2":"JO.IR.TA","name":"Tayybeh.county"},
"geometry":{"type": "MultiPolygon","coordinates": [[[[35.6494,32.6873,39.3035],[35.6212,32.6769,-209.665],[35.6147,32.6707,-215.0107],[35.6166,32.6566,-215.3182],[35.6053,32.6528,-226.2569],[35.6057,32.6467,-209.248],[35.6033,32.6443,-209.5024],[35.5945,32.6422,-226.4778],[35.58,32.6329,-206.5891],[35.5787,32.6226,-213.7178],[35.5818,32.6195,-214.5957],[35.5803,32.6046,-219.0982],[35.5826,32.6,-223.3644],[35.59,32.5966,-240.4228],[35.592,32.5904,-234.4619],[35.5873,32.5811,-259.3158],[35.5866,32.5716,-261.0834],[35.5969,32.5536,-225.0388],[35.5959,32.5515,-221.5049],[35.5859,32.5517,-241.3732],[35.5841,32.5422,-243.544],[35.5795,32.5423,-238.8392],[35.5737,32.5456,-269.909],[35.5715,32.5446,-271.2621],[35.5722,32.5386,-241.6385],[35.5789,32.5294,-241.6273],[35.5767,32.5262,-244.4212],[35.5666,32.5244,-272.8628],[35.5613,32.5181,-272.5516],[35.566,32.5151,-269.6779],[35.5725,32.5152,-265.0443],[35.5789,32.5028,-262.5553],[35.5863,32.5003,-247.4674],[35.5882,32.4976,-243.2092],[35.587,32.4925,-250.7607],[35.5747,32.4736,-283.9924],[35.5738,32.4686,-260.5233],[35.5754,32.464,-247.337],[35.5837,32.4606,-243.2093],[35.5857,32.4573,-241.5081],[35.5832,32.4524,-245.3495],[35.5783,32.4522,-247.4743],[35.5749,32.4496,-284.3876],[35.5774,32.4364,-243.1421],[35.5657,32.4332,-284.3119],[35.5686,32.4107,-265.2289],[35.5668,32.4069,-281.0661],[35.5593,32.4051,-289.7481],[35.5583,32.4035,-289.5135],[35.5679,32.3898,-251.6981],[35.5597,32.3904,-277.0246],[35.5578,32.3725,-285.4337],[35.5652,32.3647,-249.8715],[35.5676,32.3588,-247.19],[35.5648,32.3439,-242.2637],[35.5616,32.3369,-251.3151],[35.5608,32.3288,-290.5735],[35.5687,32.311,-275.3365],[35.5638,32.2994,-312.1581],[35.5635,32.2923,-318.2009],[35.5704,32.2778,-315.0203],[35.5668,32.2557,-327.9718],[35.5707,32.2414,-332.5538],[35.5715,32.2284,-335.9736],[35.6015,32.2349,-240.772],[35.6405,32.2377,49.6199],[35.6538,32.2428,-21.4861],[35.667,32.2453,123.937],[35.6716,32.2545,406.5961],[35.6791,32.281,453.7557],[35.685,32.2916,562.1823],[35.6881,32.3113,490.053],[35.6946,32.3239,627.3002],[35.6975,32.3471,638.5997],[35.71,32.3869,568.9942],[35.706,32.4023,526.8253],[35.7061,32.441,625.3891],[35.7075,32.4497,564.5115],[35.7138,32.4598,624.3835],[35.7152,32.4679,606.0964],[35.7137,32.4759,516.051],[35.7074,32.4859,431.5839],[35.7065,32.4945,318.5279],[35.7083,32.5036,296.2117],[35.7151,32.5159,314.8879],[35.7195,32.5284,276.008],[35.733,32.5491,382.1412],[35.7397,32.5653,348.2656],[35.7278,32.5735,372.1282],[35.7267,32.5827,334.1646],[35.7315,32.5902,269.7467],[35.747,32.5995,373.1309],[35.7521,32.6008,363.3467],[35.7778,32.5991,388.2897],[35.7915,32.6006,406.5182],[35.852,32.5928,534.9525],[35.8825,32.5942,539.3244],[35.8999,32.5933,553.9425],[35.9098,32.5902,512.6687],[35.9276,32.5808,550.5499],[35.9349,32.5802,527.68],[35.9499,32.5867,478.6814],[35.9895,32.6208,454.4251],[36.0218,32.6613,474.2514],[36.0108,32.6628,451.3203],[35.9936,32.6614,433.5516],[35.983,32.6651,432.9559],[35.9734,32.6711,428.59],[35.9726,32.6735,426.4215],[35.9829,32.682,433.6537],[35.9827,32.6906,418.2696],[35.9746,32.6969,418.9087],[35.9627,32.697,390.4483],[35.9517,32.7034,414.4201],[35.948,32.707,410.5359],[35.9452,32.7177,405.5861],[35.9368,32.7241,333.6595],[35.9308,32.7246,301.8335],[35.9204,32.7221,175.103],[35.9091,32.7259,261.2307],[35.9013,32.7248,142.1609],[35.8864,32.7331,297.6025],[35.8784,32.7357,261.2971],[35.8619,32.7357,122.0242],[35.8413,32.7294,1.8767],[35.8351,32.729,20.3458],[35.8263,32.7311,53.0976],[35.8202,32.7346,-20.724],[35.817,32.7396,118.0737],[35.8076,32.7384,-14.4326],[35.8045,32.7427,94.7118],[35.8093,32.7511,198.9092],[35.8077,32.7565,250.1035],[35.8014,32.7596,164.4232],[35.7796,32.7519,60.8367],[35.7692,32.7509,83.8465],[35.7642,32.7473,-49.8864],[35.7563,32.7262,320.183],[35.7335,32.7236,-80.187],[35.7191,32.7113,101.9974],[35.7032,32.7018,-3.9543],[35.6933,32.6992,-4.8907],[35.6861,32.6953,-46.9098],[35.6614,32.6938,159.753],[35.6494,32.6873,39.3035]]]]}}