{"type":"Feature","properties":{"GID_2":"JOR.5.1_1","GID_0":"JOR","country":"Jordan","GID_1":"JOR.5_1","province":"Irbid","NL_NAME_1":"NA","county":"AghwarShamaliyyeh","VARNAME_2":"Al-AghwarShamaliyyeh|ShoonehSh","NL_NAME_2":"NA","TYPE_2":"Nahia","ENGTYPE_2":"Sub-Province","CC_2":"NA","HASC_2":"JO.IR.AS","name":"Aghwar_Shamaliyyeh.county"},
"geometry":{"type": "MultiPolygon","coordinates": [[[[35.9672,32.3548,927.7458],[35.9866,32.3606,867.9612],[36.0044,32.3738,780.1919],[36.0146,32.3746,767.2484],[36.0233,32.3715,799.5707],[36.0467,32.3539,905.7389],[36.074,32.3435,848.8933],[36.0799,32.3662,819.0339],[36.0801,32.3764,839.7839],[36.0755,32.4002,767.6985],[36.0681,32.4204,644.0671],[36.051,32.4261,637.1998],[36.0375,32.4347,625.7184],[36.0307,32.4436,638.6726],[36.0224,32.4883,570.1163],[35.9887,32.4901,584.3792],[35.97,32.5024,560.998],[35.9598,32.5037,556.9435],[35.9292,32.4876,587.8738],[35.9033,32.4679,658.9894],[35.9242,32.4421,669.4902],[35.9257,32.4339,683.2872],[35.9221,32.4205,738.0437],[35.9233,32.4024,763.2582],[35.9246,32.3914,830.7522],[35.9282,32.3823,870.4391],[35.9328,32.3776,820.0871],[35.9462,32.3692,830.5575],[35.9592,32.3638,863.7067],[35.9672,32.3548,927.7458]]]]}}