{"type":"Feature","properties":{"GID_2":"JOR.5.2_1","GID_0":"JOR","country":"Jordan","GID_1":"JOR.5_1","province":"Irbid","NL_NAME_1":"NA","county":"BaniKenanah","VARNAME_2":"BaniKnana|SamaEl-Roosan","NL_NAME_2":"NA","TYPE_2":"Nahia","ENGTYPE_2":"Sub-Province","CC_2":"NA","HASC_2":"JO.IR.BK","name":"Bani_Kenanah.county"},
"geometry":{"type": "MultiPolygon","coordinates": [[[[35.9221,32.4205,738.0437],[35.9257,32.4339,683.2872],[35.9242,32.4421,669.4902],[35.9033,32.4679,658.9894],[35.8926,32.471,662.2338],[35.8535,32.4763,856.309],[35.8324,32.4701,709.6522],[35.8216,32.46,862.7861],[35.8194,32.4469,958.2968],[35.8211,32.4214,994.3034],[35.8242,32.4163,986.3943],[35.8352,32.4059,992.9347],[35.8592,32.399,984.698],[35.8722,32.3976,987.2683],[35.8848,32.3991,885.2596],[35.8933,32.4015,869.7122],[35.9221,32.4205,738.0437]]]]}}