{"type":"Feature","properties":{"GID_2":"JOR.12.1_1","GID_0":"JOR","country":"Jordan","GID_1":"JOR.12_1","province":"Zarqa","NL_NAME_1":"NA","county":"Azraq","VARNAME_2":"Al-Azraq","NL_NAME_2":"NA","TYPE_2":"Nahia","ENGTYPE_2":"Sub-Province","CC_2":"NA","HASC_2":"JO.AZ.ZQ","name":"Azraq.county"},
"geometry":{"type": "MultiPolygon","coordinates": [[[[37.0113,31.4959,557.2344],[37.0062,31.5006,559.122],[37.0922,31.5219,537.6955],[37.1805,31.5458,510.6715],[37.3818,31.5946,594.451],[37.4033,31.6017,571.8243],[37.7269,31.6852,841.6102],[37.7195,31.6891,842.6613],[37.6593,31.7065,782.5114],[37.6479,31.7121,776.3304],[37.6231,31.7197,751.4945],[37.6003,31.7234,746.3156],[37.5718,31.7361,709.9754],[37.549,31.7397,720.6076],[37.5243,31.7473,700.8837],[37.5128,31.7529,653.9172],[37.4482,31.7716,589.9384],[37.4387,31.7764,594.2971],[37.42,31.7797,600.2681],[37.408,31.7849,608.0544],[37.3915,31.7877,608.5183],[37.382,31.7925,613.685],[37.3153,31.8118,631.5611],[37.3059,31.8167,612.0035],[37.2678,31.828,621.4601],[37.2582,31.8327,624.4946],[37.2396,31.8361,600.7122],[37.23,31.8409,603.377],[37.1633,31.8601,599.5735],[37.1349,31.8731,612.6909],[37.1158,31.8765,631.6873],[37.1066,31.8812,650.7857],[37.0398,31.9004,636.9094],[37.0305,31.9052,603.2492],[37.0113,31.9086,594.2355],[36.9831,31.9213,574.2814],[36.9639,31.9248,551.7379],[36.9526,31.9299,559.6306],[36.9353,31.9328,554.7263],[36.8882,31.9536,569.1278],[36.869,31.957,572.0096],[36.8597,31.9617,570.0032],[36.8462,31.9652,577.0933],[36.8158,31.9776,577.7109],[36.8024,31.9811,585.2784],[36.7742,31.9939,592.3975],[36.755,31.9973,591.3104],[36.7437,32.0024,598.0847],[36.7264,32.0053,601.3724],[36.6811,32.0254,601.4541],[36.66,32.0296,599.0986],[36.6317,32.0423,603.8911],[36.6053,32.0451,598.7334],[36.5937,32.0502,598.7742],[36.5732,32.0534,592.4616],[36.5571,32.0586,592.8376],[36.5386,32.0613,594.1252],[36.523,32.0674,598.1418],[36.4824,32.0682,589.2875],[36.4724,32.054,583.0],[36.4219,32.0116,646.6478],[36.4638,31.9998,621.2117],[36.4735,31.9915,626.1552],[36.5054,31.9567,617.1164],[36.521,31.9429,631.0985],[36.53,31.9298,628.8173],[36.5333,31.9181,627.9154],[36.5318,31.9119,613.327],[36.528,31.9064,607.351],[36.5174,31.8988,592.6661],[36.4865,31.8871,623.4413],[36.47,31.8743,654.572],[36.445,31.8614,655.2152],[36.4563,31.8442,643.2443],[36.4717,31.8303,629.2751],[36.4858,31.8106,621.5565],[36.5001,31.798,650.0221],[36.5142,31.778199999999998,635.5059],[36.5285,31.7656,652.2847],[36.5425,31.7457,625.9662],[36.5517,31.7372,611.1528],[36.5649,31.7276,602.4352],[36.5847,31.7206,591.9471],[36.6044,31.7008,581.1399],[36.6183,31.6809,579.7931],[36.6361,31.6657,582.1843],[36.6435,31.6629,582.0266],[36.6645,31.6631,571.8167],[36.6797,31.6695,564.5367],[36.6982,31.6723,557.6476],[36.7167,31.6781,548.7497],[36.746,31.6806,537.4073],[36.7644,31.6867,532.9881],[36.7765,31.6872,531.647],[36.7849,31.6851,531.5826],[36.8229,31.653199999999998,545.9362],[36.8497,31.6258,555.2106],[36.937,31.5512,561.206],[36.9508,31.5356,557.2415],[36.9935,31.499,558.0662],[37.0026,31.4888,559.4925],[37.0066,31.4895,559.6063],[37.0025,31.4936,559.35],[37.0113,31.4959,557.2344]]]]}}