{"type":"Feature","properties":{"GID_2":"JOR.2.3_1","GID_0":"JOR","country":"Jordan","GID_1":"JOR.2_1","province":"Amman","NL_NAME_1":"NA","county":"Mowaqqar","VARNAME_2":"Al-Mwwqqar","NL_NAME_2":"NA","TYPE_2":"Nahia","ENGTYPE_2":"Sub-Province","CC_2":"NA","HASC_2":"JO.AM.MO","name":"Mowaqqar.county"},
"geometry":{"type": "MultiPolygon","coordinates": [[[[36.5847,31.7206,591.9471],[36.5617,31.7293,606.3252],[36.5425,31.7457,625.9662],[36.5285,31.7656,652.2847],[36.5142,31.778199999999998,635.5059],[36.5001,31.798,650.0221],[36.4858,31.8106,621.5565],[36.4717,31.8303,629.2751],[36.4563,31.8442,643.2443],[36.445,31.8614,655.2152],[36.4206,31.8447,673.0428],[36.4053,31.8405,707.074],[36.3668,31.8414,745.0535],[36.3364,31.8552,776.8673],[36.3268,31.8564,777.3323],[36.3173,31.8552,771.6775],[36.3033,31.8494,761.3207],[36.2778,31.8472,784.4366],[36.2495,31.841,771.1046],[36.2233,31.8391,788.0017],[36.1992,31.8326,809.6488],[36.1217,31.8316,887.9646],[36.1077,31.8332,923.9742],[36.0922,31.8422,852.4824],[36.0802,31.8517,856.1867],[36.0666,31.8656,907.1335],[36.0534,31.8501,824.627],[36.0346,31.8335,782.3005],[36.0243,31.8261,772.475],[36.0081,31.8201,768.626],[35.9904,31.8073,759.24],[36.0297,31.7983,801.3873],[36.0354,31.7953,773.0635],[36.0402,31.7897,772.0793],[36.0451,31.7804,769.3629],[36.0447,31.7723,757.0515],[36.0419,31.7677,755.7667],[36.0296,31.7568,738.5603],[36.0276,31.7499,736.6473],[36.0312,31.7432,732.6776],[36.0417,31.7394,730.1648],[36.081,31.7428,794.2661],[36.1032,31.7499,789.1862],[36.1432,31.7534,809.3509],[36.1648,31.7493,813.1887],[36.1742,31.7445,804.3943],[36.212,31.7329,803.7536],[36.2237,31.7275,821.9437],[36.247,31.7231,800.4872],[36.3109,31.7229,745.8369],[36.3527,31.7269,709.9678],[36.4445,31.7265,645.4308],[36.4518,31.7244,642.3652],[36.4671,31.7134,633.3178],[36.4857,31.7052,626.9178],[36.5014,31.7027,617.7761],[36.5422,31.704,608.1122],[36.5712,31.7138,598.4236],[36.5847,31.7206,591.9471]]]]}}