{"type":"Feature","properties":{"GID_2":"JOR.5.5_1","GID_0":"JOR","country":"Jordan","GID_1":"JOR.5_1","province":"Irbid","NL_NAME_1":"NA","county":"Kora","VARNAME_2":"DairAbiSa'id","NL_NAME_2":"NA","TYPE_2":"Nahia","ENGTYPE_2":"Sub-Province","CC_2":"NA","HASC_2":"JO.IR.KO","name":"Kora.county"},
"geometry":{"type": "MultiPolygon","coordinates": [[[[35.8299,32.5209,645.6173],[35.8155,32.5224,644.4619],[35.7963,32.5303,563.3664],[35.7799,32.543,519.2581],[35.7575,32.5573,415.9235],[35.7397,32.5653,348.2656],[35.733,32.5491,382.1412],[35.7195,32.5284,276.008],[35.7452,32.5145,489.7049],[35.7761,32.5059,565.6823],[35.8004,32.5026,620.3892],[35.8285,32.4926,757.4865],[35.8299,32.5209,645.6173]]]]}}