{"type":"Feature","properties":{"GID_2":"JOR.2.1_1","GID_0":"JOR","country":"Jordan","GID_1":"JOR.2_1","province":"Amman","NL_NAME_1":"NA","county":"Amman","VARNAME_2":"NA","NL_NAME_2":"NA","TYPE_2":"Nahia","ENGTYPE_2":"Sub-Province","CC_2":"NA","HASC_2":"JO.AM.AM","name":"Amman.county"},
"geometry":{"type": "MultiPolygon","coordinates": [[[[36.0088,31.9176,843.2957],[36.0168,31.9327,870.6424],[36.0185,31.9421,879.9526],[36.0178,31.9532,823.6586],[36.0148,31.9588,857.6161],[35.9959,31.9677,778.1448],[35.9785,31.9704,776.2969],[35.9667,31.9686,740.7124],[35.9373,31.9594,833.5873],[35.9268,31.9538,835.6951],[35.916,31.9517,861.7418],[35.8803,31.9544,946.2173],[35.8663,31.9633,969.2373],[35.8587,31.972,962.8185],[35.8129,31.9518,711.4441],[35.7944,31.9392,705.0761],[35.7829,31.9262,680.7805],[35.7725,31.9083,657.533],[35.767,31.8838,271.6506],[35.7542,31.8692,235.8862],[35.7501,31.8617,456.9794],[35.7825,31.8498,746.558],[35.7895,31.8488,766.2992],[35.7965,31.8499,787.0913],[35.8066,31.8543,848.0536],[35.8293,31.859,913.9937],[35.8544,31.8594,880.8891],[35.8816,31.8569,845.9248],[35.8904,31.8574,837.7228],[35.8989,31.8597,870.4008],[35.9086,31.8706,867.2449],[35.9186,31.8751,863.0186],[35.9328,31.8789,884.1741],[35.9514,31.8802,900.1443],[35.9894,31.8793,899.0703],[35.9959,31.881,880.7599],[36.0068,31.8926,908.0066],[36.0088,31.9176,843.2957]]]]}}