{"type":"Feature","properties":{"GID_2":"JOR.5.7_1","GID_0":"JOR","country":"Jordan","GID_1":"JOR.5_1","province":"Irbid","NL_NAME_1":"NA","county":"Ramtha","VARNAME_2":"ArRamtha","NL_NAME_2":"NA","TYPE_2":"Nahia","ENGTYPE_2":"Sub-Province","CC_2":"NA","HASC_2":"JO.IR.RA","name":"Ramtha.county"},
"geometry":{"type": "MultiPolygon","coordinates": [[[[36.0681,32.4204,644.0671],[36.1172,32.425,695.8386],[36.1354,32.4348,717.5805],[36.1434,32.4446,664.99],[36.161,32.4882,658.9703],[36.1673,32.5001,618.4108],[36.1767,32.5117,615.2923],[36.1784,32.5183,602.709],[36.1647,32.5222,618.0822],[36.1338,32.5239,659.367],[36.1106,32.5231,663.0333],[36.0908,32.5179,645.8509],[36.0887,32.5367,616.0716],[36.0844,32.5491,617.6371],[36.0704,32.5758,583.1636],[36.0589,32.5878,583.6693],[36.0369,32.6035,510.8453],[36.0315,32.5961,529.9956],[36.0303,32.5898,534.4898],[36.0289,32.577,513.2997],[36.0293,32.5242,530.1071],[36.0224,32.4883,570.1163],[36.03,32.446,629.907],[36.033,32.4394,627.4027],[36.0375,32.4347,625.7184],[36.051,32.4261,637.1998],[36.0681,32.4204,644.0671]]]]}}