{"type":"Feature","properties":{"GID_1":"JOR.2_1","GID_0":"JOR","country":"Jordan","province":"Amman","VARNAME_1":"Ama","NL_NAME_1":"NA","TYPE_1":"Muhafazah","ENGTYPE_1":"Province","CC_1":"NA","HASC_1":"JO.AM","ISO_1":"NA","name":"Amman.province"},
"geometry":{"type": "MultiPolygon","coordinates": [[[[36.0433,31.9921,670.9644],[36.0343,31.9961,694.5115],[36.0293,32.0104,679.7087],[36.026,32.0321,702.755],[35.9891,32.0638,801.8964],[35.9792,32.0677,837.1273],[35.9736,32.0682,855.6595],[35.9506,32.064,931.1477],[35.934,32.0514,869.5492],[35.9209,32.0363,876.5438],[35.9017,32.0201,950.4911],[35.8738,32.0066,1005.8599],[35.8749,31.9953,998.0809],[35.8729,31.9864,997.0707],[35.8587,31.972,962.8185],[35.8129,31.9518,711.4441],[35.7915,31.9361,639.7393],[35.7829,31.9262,680.7805],[35.7725,31.9083,657.533],[35.767,31.8838,271.6506],[35.7542,31.8692,235.8862],[35.7501,31.8617,456.9794],[35.7459,31.8379,446.9873],[35.7399,31.8192,207.7495],[35.7174,31.7955,408.9366],[35.76,31.7884,689.462],[35.7959,31.7756,793.001],[35.8053,31.7758,792.7383],[35.8238,31.7815,799.3958],[35.8393,31.7815,786.1785],[35.8533,31.7759,765.0776],[35.8795,31.7727,759.0115],[35.897,31.7625,761.0139],[35.8909,31.7429,739.901],[35.8796,31.7291,761.3552],[35.8773,31.724,752.4105],[35.878,31.7194,749.7208],[35.8911,31.6983,727.8577],[35.8906,31.6915,716.2028],[35.8843,31.6818,728.7328],[35.8785,31.6771,738.5815],[35.8639,31.6709,757.4661],[35.8478,31.669,772.5558],[35.8399,31.6661,765.1832],[35.8363,31.6592,790.6527],[35.836,31.653199999999998,764.0189],[35.8398,31.6374,736.0742],[35.8677,31.6227,717.4983],[35.8811,31.6181,672.4174],[35.8937,31.6075,623.5052],[35.9018,31.5937,643.3624],[35.9013,31.5857,621.1764],[35.8991,31.5823,614.7686],[35.8864,31.5773,612.4726],[35.8778,31.5709,631.576],[35.875,31.5663,662.1083],[35.8748,31.5607,686.1806],[35.8775,31.556,689.4463],[35.8864,31.5496,696.2409],[35.9046,31.5466,719.6075],[35.9102,31.5436,704.3469],[35.9142,31.5348,685.5688],[35.9131,31.5263,702.7212],[35.9106,31.5188,703.3351],[35.8955,31.5044,710.9031],[35.8894,31.494,713.8347],[35.8851,31.4818,728.2633],[35.8811,31.4622,664.4265],[35.8652,31.4447,456.3746],[35.8804,31.4355,661.2524],[35.9007,31.4189,757.7645],[35.9878,31.409,734.1758],[36.0136,31.3993,701.505],[36.0287,31.3894,720.3235],[36.0574,31.3619,778.4034],[36.0664,31.3554,797.2693],[36.0797,31.3505,777.8915],[36.0995,31.3352,766.0748],[36.108,31.3262,782.3373],[36.1129,31.3086,794.2463],[36.1213,31.2991,815.7869],[36.1421,31.284,837.1832],[36.1531,31.2735,855.3917],[36.1739,31.2618,835.3009],[36.1958,31.2639,825.4179],[36.2754,31.2643,951.2602],[36.2931,31.263,949.9097],[36.3087,31.2573,926.8464],[36.3265,31.2561,905.933],[36.5509,31.2567,847.3868],[36.6038,31.2528,846.5721],[36.8092,31.2532,687.6149],[36.8557,31.2493,662.0115],[37.0866,31.2499,609.5388],[37.1012,31.2486,607.4039],[37.1185,31.2427,605.0287],[37.1345,31.2417,603.9476],[37.2147,31.2427,580.6215],[37.2293,31.2447,581.4912],[37.2589,31.255,573.7704],[37.2399,31.2784,582.9853],[37.1922,31.3171,566.1918],[37.0113,31.4959,557.2344],[37.0025,31.4936,559.35],[37.0066,31.4895,559.6063],[37.0026,31.4888,559.4925],[36.9935,31.499,558.0662],[36.9508,31.5356,557.2415],[36.937,31.5512,561.206],[36.8497,31.6258,555.2106],[36.8229,31.653199999999998,545.9362],[36.7849,31.6851,531.5826],[36.7765,31.6872,531.647],[36.7644,31.6867,532.9881],[36.746,31.6806,537.4073],[36.7167,31.6781,548.7497],[36.6982,31.6723,557.6476],[36.6797,31.6695,564.5367],[36.6645,31.6631,571.8167],[36.6528,31.6622,577.2284],[36.6394,31.6639,582.6085],[36.6183,31.6809,579.7931],[36.6044,31.7008,581.1399],[36.5847,31.7206,591.9471],[36.5617,31.7293,606.3252],[36.5425,31.7457,625.9662],[36.5285,31.7656,652.2847],[36.5142,31.778199999999998,635.5059],[36.5001,31.798,650.0221],[36.4858,31.8106,621.5565],[36.4717,31.8303,629.2751],[36.4563,31.8442,643.2443],[36.445,31.8614,655.2152],[36.47,31.8743,654.572],[36.4865,31.8871,623.4413],[36.5206,31.9006,591.9485],[36.5303,31.9089,611.8925],[36.5333,31.9181,627.9154],[36.53,31.9298,628.8173],[36.521,31.9429,631.0985],[36.5054,31.9567,617.1164],[36.4735,31.9915,626.1552],[36.4638,31.9998,621.2117],[36.4219,32.0116,646.6478],[36.4154,32.0207,634.7738],[36.4045,32.0303,627.4948],[36.3955,32.0343,624.1245],[36.3906,32.0348,626.0477],[36.3818,32.0332,615.9526],[36.3632,32.0249,637.8281],[36.3292,32.0051,643.2263],[36.2847,31.987,686.4794],[36.2524,31.9855,686.7629],[36.2051,31.9789,732.558],[36.1718,31.9777,716.5034],[36.1543,31.9808,779.7697],[36.1388,31.993,693.5589],[36.1325,31.9947,709.9875],[36.1184,31.9927,702.7199],[36.1,31.984,762.8976],[36.0831,31.9816,785.9567],[36.0599,31.9837,763.481],[36.0514,31.9868,726.915],[36.0433,31.9921,670.9644]]]]}}