{"type":"Feature","properties":{"ISO3166-1-Alpha-3":"JOR","country":"Jordan","fill":"#F0F","id":"851","name":"Amman"},
"geometry":{"type": "Polygon","coordinates": [[[36.05447,31.951,839.5212],[36.04129,31.95448,758.6431],[36.02192,31.96632,813.2048],[35.98822,32.00128,698.7318],[35.96414,32.02016,782.1764],[35.9412,32.04585,837.9346],[35.91174,32.03763,896.5393],[35.88053,32.01159,1039.2358],[35.86487,32.00409,1033.5647],[35.82684,31.9942,976.1166],[35.81195,31.98371,917.3104],[35.76694,31.93834,647.8378],[35.74193,31.92283,574.8824],[35.68374,31.89743,-0.3715],[35.66871,31.88594,39.9517],[35.66173,31.87493,-123.5796],[35.6639,31.86573,-67.0693],[35.67088,31.85878,-101.7006],[35.68157,31.85413,-68.838],[35.6948,31.8508,19.2107],[35.71775,31.84757,66.4599],[35.72348,31.84219,88.1724],[35.72519,31.83372,166.5599],[35.71248,31.80307,256.4955],[35.71015,31.79253,265.1707],[35.70829,31.77465,316.5259],[35.74586,31.78297,592.1042],[35.7964,31.78312,817.3217],[35.8118,31.78641,826.6919],[35.82436,31.79082,837.7429],[35.83102,31.78992,827.4981],[35.83815,31.78418,812.1359],[35.84048,31.71176,775.0366],[35.83831,31.70241,767.6935],[35.83242,31.69318,767.8741],[35.81521,31.67556,747.7752],[35.81025,31.66791,748.2491],[35.80885,31.65923,757.7394],[35.8104,31.649539999999998,727.068],[35.81816,31.62378,717.4883],[35.8256,31.60807,637.2325],[35.86906,31.568,581.0815],[35.8751,31.55534,692.6574],[35.87433,31.54583,655.6601],[35.87092,31.53859,703.7821],[35.87185,31.53066,711.4261],[35.87774,31.52446,707.445],[35.88564,31.5179,708.0386],[35.8875,31.51175,697.8051],[35.8844,31.50542,705.5574],[35.87061,31.48826,777.8662],[35.86394,31.47738,771.8639],[35.84684,31.43214,327.1626],[35.84249,31.42563,496.1456],[35.8349,31.41883,288.673],[35.82885,31.4148,208.4567],[35.818,31.40594,534.1571],[35.84234,31.36925,667.6697],[35.84916,31.35021,740.8182],[35.8518,31.33705,780.4525],[35.84994,31.32806,747.0623],[35.84187,31.30817,783.2822],[35.83815,31.29401,807.5427],[35.83567,31.27455,862.9031],[35.83924,31.26254,842.1301],[35.84916,31.25494,787.489],[36.15178,31.24864,859.7893],[37.22172,31.24729,581.1758],[37.21977,31.2491,581.5325],[37.08965,31.37008,582.2552],[36.95953,31.491,568.3926],[36.99791,31.50081,558.9365],[36.99746,31.50102,558.9365],[36.99436,31.50247,557.7146],[36.71428,31.7469,535.6205],[36.69567,31.75062,537.923],[36.67857,31.74664,542.5661],[36.63108,31.7216,566.0382],[36.61232,31.72114,575.8333],[36.58906,31.72861,583.9133],[36.5456,31.75403,619.3394],[36.50075,31.78966,646.6086],[36.47377,31.81591,631.6143],[36.46752,31.82687,631.6367],[36.46892,31.83625,631.2332],[36.47656,31.84516,629.9235],[36.49904,31.86085,655.638],[36.5271,31.87581,595.3446],[36.5363,31.88803,588.8141],[36.5346,31.90382,603.2276],[36.50587,31.93562,602.6223],[36.44907,31.98869,648.2399],[36.42845,32.00347,651.1093],[36.40747,32.01148,630.8691],[36.30169,32.01934,644.356],[36.2804,32.01544,662.9752],[36.26846,32.00663,674.3304],[36.24939,31.98689,689.7025],[36.23648,31.98012,708.9258],[36.21586,31.97683,716.7946],[36.15147,31.97722,729.5233],[36.10243,31.96391,701.5648],[36.0863,31.96267,730.5068],[36.07401,31.9605,845.6654],[36.05447,31.951,839.5212]]]}}