{"type":"Feature","properties":{"ISO3166-1-Alpha-3":"JOR","country":"Jordan","fill":"#00F","id":"858","name":"Madaba"},
"geometry":{"type": "Polygon","coordinates": [[[35.818,31.40594,534.1571],[35.82885,31.4148,208.4567],[35.8349,31.41883,288.673],[35.84249,31.42563,496.1456],[35.84684,31.43214,327.1626],[35.86394,31.47738,771.8639],[35.87061,31.48826,777.8662],[35.8844,31.50542,705.5574],[35.8875,31.51175,697.8051],[35.88564,31.5179,708.0386],[35.87774,31.52446,707.445],[35.87185,31.53066,711.4261],[35.87092,31.53859,703.7821],[35.87433,31.54583,655.6601],[35.8751,31.55534,692.6574],[35.86906,31.568,581.0815],[35.8256,31.60807,637.2325],[35.81816,31.62378,717.4883],[35.8104,31.649539999999998,727.068],[35.80885,31.65923,757.7394],[35.81025,31.66791,748.2491],[35.81521,31.67556,747.7752],[35.83242,31.69318,767.8741],[35.83831,31.70241,767.6935],[35.84048,31.71176,775.0366],[35.83815,31.78418,812.1359],[35.83102,31.78992,827.4981],[35.82436,31.79082,837.7429],[35.8118,31.78641,826.6919],[35.7964,31.78312,817.3217],[35.74586,31.78297,592.1042],[35.70829,31.77465,316.5259],[35.69542,31.76811,226.5788],[35.66871,31.76607,67.9928],[35.6563,31.76284,53.0014],[35.64421,31.75597,34.3084],[35.63817,31.74923,21.5623],[35.62649,31.7223,72.3597],[35.61005,31.69685,93.7267],[35.5975,31.68646,-86.672],[35.58354,31.68081,-287.5863],[35.51476,31.68409,-427.0],[35.50248,31.68536,-427.0],[35.48014,31.64112,-427.0],[35.46422,31.56857,-427.0],[35.45874,31.49441,-427.0],[35.45905,31.49281,-427.0],[35.45916,31.49188,-427.0],[35.45874,31.49157,-427.0],[35.45812,31.49193,-427.0],[35.45854,31.49162,-427.0],[35.45713,31.43352,-427.0],[35.47849,31.43847,-427.0],[35.55419,31.43586,-427.0],[35.65444,31.40715,482.8461],[35.67336,31.40392,646.1519],[35.68716,31.40382,513.0151],[35.71806,31.41227,837.3559],[35.75222,31.41511,852.3267],[35.7733,31.41475,901.2341],[35.818,31.40594,534.1571]]]}}