{"type":"Feature","properties":{"GID_1":"JOR.9_1","GID_0":"JOR","country":"Jordan","province":"Madaba","VARNAME_1":"NA","NL_NAME_1":"NA","TYPE_1":"Muhafazah","ENGTYPE_1":"Province","CC_1":"NA","HASC_1":"JO.MD","ISO_1":"JO-MD","name":"Madaba.province"},
"geometry":{"type": "MultiPolygon","coordinates": [[[[35.8504,31.6316,736.1368],[35.8398,31.6374,736.0742],[35.836,31.653199999999998,764.0189],[35.8384,31.6646,787.0909],[35.8436,31.6681,767.0436],[35.8639,31.6709,757.4661],[35.8785,31.6771,738.5815],[35.8843,31.6818,728.7328],[35.8915,31.6951,718.2997],[35.8897,31.7009,726.3853],[35.878,31.7194,749.7208],[35.8773,31.724,752.4105],[35.8796,31.7291,761.3552],[35.8909,31.7429,739.901],[35.897,31.7625,761.0139],[35.8795,31.7727,759.0115],[35.8533,31.7759,765.0776],[35.8393,31.7815,786.1785],[35.8318,31.7821,801.2559],[35.8187,31.7804,797.8647],[35.8053,31.7758,792.7383],[35.7959,31.7756,793.001],[35.76,31.7884,689.462],[35.7174,31.7955,408.9366],[35.7138,31.795,296.0374],[35.7068,31.7912,140.8346],[35.6959,31.778199999999998,153.874],[35.6942,31.7697,189.3184],[35.6939,31.7437,347.2266],[35.6913,31.7357,514.0959],[35.6827,31.7268,396.9323],[35.671,31.7182,281.1599],[35.6576,31.7138,234.4552],[35.631,31.7093,83.723],[35.609,31.7086,38.8581],[35.592,31.7112,-341.3071],[35.5761,31.7208,-427.0],[35.5534,31.7383,-427.0],[35.5518,31.7524,-427.0],[35.5303,31.7196,-427.0],[35.4995,31.6364,-427.0],[35.4783,31.5743,-427.0],[35.4755,31.4709,-427.0],[35.5179,31.4771,-427.0],[35.5507,31.4777,-427.0],[35.5769,31.477,-312.948],[35.6227,31.4722,-154.5456],[35.6541,31.4635,184.2897],[35.6833,31.4531,190.4951],[35.7102,31.4413,112.0351],[35.7626,31.4417,388.6734],[35.7867,31.4533,173.8171],[35.8105,31.458,298.5196],[35.8319,31.4568,391.0261],[35.8652,31.4447,456.3746],[35.8811,31.4622,664.4265],[35.8851,31.4818,728.2633],[35.8894,31.494,713.8347],[35.8955,31.5044,710.9031],[35.9106,31.5188,703.3351],[35.9142,31.5348,685.5688],[35.9122,31.5408,696.783],[35.9088,31.5448,716.4153],[35.8864,31.5496,696.2409],[35.8775,31.556,689.4463],[35.8748,31.5607,686.1806],[35.875,31.5663,662.1083],[35.8778,31.5709,631.576],[35.8864,31.5773,612.4726],[35.8974,31.5811,585.7639],[35.9013,31.5857,621.1764],[35.9018,31.5937,643.3624],[35.8992,31.5995,676.8379],[35.8901,31.6113,664.5215],[35.8811,31.6181,672.4174],[35.8677,31.6227,717.4983],[35.8504,31.6316,736.1368]]]]}}