{"type":"Feature","properties":{"GID_2":"JOR.8.2_1","GID_0":"JOR","country":"Jordan","GID_1":"JOR.8_1","province":"Ma`an","NL_NAME_1":"NA","county":"Iel","VARNAME_2":"Ayi","NL_NAME_2":"NA","TYPE_2":"Nahia","ENGTYPE_2":"Sub-Province","CC_2":"NA","HASC_2":"JO.MN.IE","name":"Iel.county"},
"geometry":{"type": "MultiPolygon","coordinates": [[[[35.6363,29.8464,1338.9442],[35.6455,29.8568,1391.4291],[35.6573,29.8796,1397.182],[35.6593,29.8917,1372.9467],[35.6593,29.9156,1314.676],[35.6572,29.9275,1288.4221],[35.6508,29.941,1343.6921],[35.6488,29.9667,1303.3408],[35.6459,29.9823,1255.7391],[35.6444,30.0547,1235.8096],[35.639,30.0828,1270.6747],[35.6326,30.1001,1305.103],[35.6297,30.1315,1275.6182],[35.6149,30.1666,1242.5791],[35.5803,30.1599,1288.6302],[35.5586,30.1588,1364.9778],[35.5401,30.1599,1396.4067],[35.5012,30.1663,1473.1146],[35.4618,30.1692,1658.0796],[35.4177,30.1656,1567.6642],[35.3736,30.1683,870.6891],[35.3631,30.1575,1034.1113],[35.3486,30.1486,881.2106],[35.3404,30.1414,1093.2117],[35.3384,30.1385,1082.5336],[35.3376,30.1307,1146.4896],[35.3454,30.1108,1226.7561],[35.3463,30.0855,1293.1802],[35.3449,30.0749,1309.5896],[35.3348,30.0567,1171.2458],[35.3287,30.0492,1040.0844],[35.3242,30.0391,1200.8457],[35.3032,30.0125,813.5431],[35.362,30.0122,1028.6467],[35.3883,30.009,1067.9268],[35.4268,30.0081,1133.2985],[35.4727,30.0039,1334.2823],[35.5289,29.9957,1543.8517],[35.548,29.9878,1556.4199],[35.5536,29.9822,1568.6298],[35.5572,29.9686,1560.3541],[35.5622,29.9601,1585.3027],[35.5672,29.9424,1515.6387],[35.6035,29.895,1430.4589],[35.6181,29.8808,1392.8043],[35.6286,29.8631,1409.9551],[35.6363,29.8464,1338.9442]]]]}}