{"type":"Feature","properties":{"GID_2":"JOR.2.5_1","GID_0":"JOR","country":"Jordan","GID_1":"JOR.2_1","province":"Amman","NL_NAME_1":"NA","county":"Sahab","VARNAME_2":"NA","NL_NAME_2":"NA","TYPE_2":"Nahia","ENGTYPE_2":"Sub-Province","CC_2":"NA","HASC_2":"JO.AM.SH","name":"Sahab.county"},
"geometry":{"type": "MultiPolygon","coordinates": [[[[36.0088,31.9176,843.2957],[36.0472,31.9218,790.2676],[36.0606,31.9276,827.8394],[36.0725,31.9296,855.514],[36.0907,31.9287,808.8613],[36.0992,31.924,778.0801],[36.1033,31.9162,799.4271],[36.1022,31.9083,814.6853],[36.0822,31.8826,870.3861],[36.0666,31.8656,907.1335],[36.0802,31.8517,856.1867],[36.0922,31.8422,852.4824],[36.1077,31.8332,923.9742],[36.1217,31.8316,887.9646],[36.1992,31.8326,809.6488],[36.2233,31.8391,788.0017],[36.2495,31.841,771.1046],[36.2778,31.8472,784.4366],[36.3033,31.8494,761.3207],[36.3173,31.8552,771.6775],[36.3268,31.8564,777.3323],[36.3364,31.8552,776.8673],[36.3668,31.8414,745.0535],[36.3969,31.8401,711.7091],[36.4135,31.8418,688.6549],[36.4206,31.8447,673.0428],[36.4478,31.8632,651.4677],[36.47,31.8743,654.572],[36.4865,31.8871,623.4413],[36.5206,31.9006,591.9485],[36.5303,31.9089,611.8925],[36.5333,31.9181,627.9154],[36.53,31.9298,628.8173],[36.521,31.9429,631.0985],[36.5054,31.9567,617.1164],[36.4712,31.9939,609.4255],[36.4605,32.0016,620.09],[36.4219,32.0116,646.6478],[36.4154,32.0207,634.7738],[36.4045,32.0303,627.4948],[36.3955,32.0343,624.1245],[36.3906,32.0348,626.0477],[36.3818,32.0332,615.9526],[36.3632,32.0249,637.8281],[36.3292,32.0051,643.2263],[36.2847,31.987,686.4794],[36.2524,31.9855,686.7629],[36.2051,31.9789,732.558],[36.1718,31.9777,716.5034],[36.1543,31.9808,779.7697],[36.1388,31.993,693.5589],[36.1325,31.9947,709.9875],[36.1184,31.9927,702.7199],[36.1,31.984,762.8976],[36.0831,31.9816,785.9567],[36.0599,31.9837,763.481],[36.0343,31.9961,694.5115],[36.0062,31.993,739.5917],[35.9905,31.9838,792.3898],[35.9785,31.9704,776.2969],[35.9959,31.9677,778.1448],[36.0113,31.961,864.081],[36.0162,31.9571,815.4731],[36.0185,31.9489,836.4531],[36.0179,31.9374,871.0657],[36.0149,31.9283,841.0967],[36.0088,31.9176,843.2957]]]]}}