{"type":"Feature","properties":{"GID_2":"JOR.12.2_1","GID_0":"JOR","country":"Jordan","GID_1":"JOR.12_1","province":"Zarqa","NL_NAME_1":"NA","county":"Bierain","VARNAME_2":"Birin","NL_NAME_2":"NA","TYPE_2":"Nahia","ENGTYPE_2":"Sub-Province","CC_2":"NA","HASC_2":"JO.AZ.BR","name":"Bierain.county"},
"geometry":{"type": "MultiPolygon","coordinates": [[[[36.026,32.0321,702.755],[36.0421,32.0408,710.4609],[36.0537,32.0449,658.7304],[36.0717,32.0597,583.2229],[36.0746,32.0665,545.8525],[36.0745,32.0726,570.0698],[36.0674,32.0942,588.3954],[36.0662,32.1041,556.8469],[36.0664,32.1219,511.3277],[36.0698,32.1416,502.258],[36.0649,32.1524,517.5785],[36.054,32.1651,635.5177],[36.0365,32.1773,691.703],[36.0206,32.1693,509.5159],[35.9949,32.1626,532.9042],[35.9827,32.1543,585.7034],[35.9628,32.1364,734.3885],[35.9532,32.1223,772.3438],[35.9477,32.1101,816.6487],[35.9517,32.0926,725.5127],[35.9506,32.064,931.1477],[35.9736,32.0682,855.6595],[35.9861,32.0656,820.275],[36.026,32.0321,702.755]]]]}}