{"type":"Feature","properties":{"GID_2":"JOR.9.2_1","GID_0":"JOR","country":"Jordan","GID_1":"JOR.9_1","province":"Madaba","NL_NAME_1":"NA","county":"Madaba","VARNAME_2":"NA","NL_NAME_2":"NA","TYPE_2":"Nahia","ENGTYPE_2":"Sub-Province","CC_2":"NA","HASC_2":"JO.MD.MD","name":"Madaba.county"},
"geometry":{"type": "MultiPolygon","coordinates": [[[[35.4755,31.4709,-427.0],[35.5179,31.4771,-427.0],[35.5769,31.477,-312.948],[35.6227,31.4722,-154.5456],[35.6541,31.4635,184.2897],[35.6833,31.4531,190.4951],[35.6942,31.4706,417.9559],[35.7055,31.4797,789.9922],[35.7379,31.4925,740.7625],[35.7723,31.5103,711.9532],[35.7778,31.5177,700.7769],[35.7791,31.5266,704.178],[35.7774,31.5349,680.4769],[35.7707,31.5447,653.1689],[35.7652,31.5662,541.9987],[35.766,31.575,577.8145],[35.7711,31.5919,683.0664],[35.7873,31.6094,675.8181],[35.8009,31.6178,730.5726],[35.8144,31.6226,731.051],[35.8398,31.6374,736.0742],[35.836,31.653199999999998,764.0189],[35.8363,31.6592,790.6527],[35.8399,31.6661,765.1832],[35.8436,31.6681,767.0436],[35.8685,31.6725,752.7173],[35.8785,31.6771,738.5815],[35.8843,31.6818,728.7328],[35.8906,31.6915,716.2028],[35.8911,31.6983,727.8577],[35.878,31.7194,749.7208],[35.8773,31.724,752.4105],[35.8796,31.7291,761.3552],[35.8909,31.7429,739.901],[35.897,31.7625,761.0139],[35.8795,31.7727,759.0115],[35.8533,31.7759,765.0776],[35.8393,31.7815,786.1785],[35.8238,31.7815,799.3958],[35.8053,31.7758,792.7383],[35.7959,31.7756,793.001],[35.76,31.7884,689.462],[35.7174,31.7955,408.9366],[35.7138,31.795,296.0374],[35.7068,31.7912,140.8346],[35.6959,31.778199999999998,153.874],[35.6942,31.7697,189.3184],[35.693,31.7394,420.3446],[35.6913,31.7357,514.0959],[35.6827,31.7268,396.9323],[35.671,31.7182,281.1599],[35.6576,31.7138,234.4552],[35.62,31.7087,14.381],[35.5963,31.7097,-199.5091],[35.5761,31.7208,-427.0],[35.5534,31.7383,-427.0],[35.5518,31.7524,-427.0],[35.5303,31.7196,-427.0],[35.4995,31.6364,-427.0],[35.4783,31.5743,-427.0],[35.4755,31.4709,-427.0]]]]}}