{"type":"Feature","properties":{"GID_2":"JOR.8.1_1","GID_0":"JOR","country":"Jordan","GID_1":"JOR.8_1","province":"Ma`an","NL_NAME_1":"NA","county":"Husseiniyyeh","VARNAME_2":"Al-Husanyniyya","NL_NAME_2":"NA","TYPE_2":"Nahia","ENGTYPE_2":"Sub-Province","CC_2":"NA","HASC_2":"JO.MN.HU","name":"Husseiniyyeh.county"},
"geometry":{"type": "MultiPolygon","coordinates": [[[[35.9904,30.663,892.3552],[35.9362,30.6635,994.849],[35.9102,30.6705,996.2212],[35.8577,30.6702,982.4551],[35.8443,30.664,986.8438],[35.827,30.6506,1020.288],[35.8175,30.6471,1024.7433],[35.7288,30.6462,1278.4648],[35.7054,30.6439,1361.1069],[35.6966,30.6328,1355.5706],[35.6724,30.6227,1330.8108],[35.6643,30.6079,1282.8492],[35.6594,30.5934,1263.0439],[35.6531,30.5833,1263.863],[35.6517,30.5607,1222.1832],[35.6539,30.5493,1208.6],[35.6631,30.528199999999998,1204.1545],[35.6886,30.4864,1160.9448],[35.6889,30.4718,1156.6235],[35.6834,30.4595,1153.9423],[35.704,30.4451,1141.3739],[35.7226,30.4415,1115.2983],[35.7321,30.4368,1103.6758],[35.757,30.4292,1075.9427],[35.7796,30.4254,1052.5378],[35.7916,30.4201,1041.6207],[35.8243,30.4189,1012.172],[35.8347,30.42,1003.6593],[35.8406,30.4224,998.8754],[35.8494,30.4289,992.9888],[35.8589,30.4396,988.6001],[35.8622,30.4621,989.7777],[35.8684,30.472,991.3035],[35.8775,30.4932,995.3156],[35.8828,30.5144,997.3193],[35.9154,30.5517,1016.9241],[35.9592,30.6282,1006.1689],[35.9824,30.6492,944.7755],[35.9904,30.663,892.3552]]]]}}