{"type":"Feature","properties":{"GID_2":"JOR.3.3_1","GID_0":"JOR","country":"Jordan","GID_1":"JOR.3_1","province":"Aqaba","NL_NAME_1":"NA","county":"WadiArabah","VARNAME_2":"WadiAraba|Gharandal","NL_NAME_2":"NA","TYPE_2":"Nahia","ENGTYPE_2":"Sub-Province","CC_2":"NA","HASC_2":"JO.AQ.WA","name":"Wadi_Arabah.county"},
"geometry":{"type": "MultiPolygon","coordinates": [[[[35.0502,29.8164,55.6448],[35.0761,29.8068,81.8201],[35.091,29.7948,200.0081],[35.1235,29.7743,1093.944],[35.1329,29.7606,1141.2239],[35.1517,29.7792,1299.3336],[35.1673,29.8068,1178.4924],[35.1816,29.8212,956.7852],[35.2044,29.8622,809.7534],[35.2104,29.8699,950.4418],[35.214,29.8784,951.8568],[35.22,29.8861,709.3636],[35.2235,29.8947,726.2166],[35.2295,29.9024,708.5544],[35.2331,29.911,812.6345],[35.2391,29.9186,823.8471],[35.2426,29.9272,838.3302],[35.2486,29.9349,790.187],[35.2522,29.9434,891.4259],[35.2587,29.9508,682.4449],[35.2804,29.9845,552.6757],[35.2968,29.9997,892.7905],[35.3032,30.0125,813.5431],[35.3242,30.0391,1200.8457],[35.3287,30.0492,1040.0844],[35.3433,30.0714,1331.5537],[35.3463,30.0855,1293.1802],[35.346,30.1062,1178.379],[35.3444,30.1151,1195.7167],[35.3379,30.1286,1117.6296],[35.3384,30.1385,1082.5336],[35.3486,30.1486,881.2106],[35.3572,30.1532,979.2581],[35.3687,30.1626,1026.8704],[35.3912,30.1935,1004.2867],[35.3958,30.2035,853.5902],[35.4008,30.2096,1016.8163],[35.4053,30.2196,843.4149],[35.4196,30.2422,1106.5018],[35.4247,30.261,916.6261],[35.4309,30.2753,913.2452],[35.4324,30.2897,889.5447],[35.4306,30.3007,982.0608],[35.4067,30.3391,741.1338],[35.4062,30.3496,727.152],[35.4211,30.3702,1109.3922],[35.4262,30.3823,1184.1469],[35.4279,30.3948,1090.1564],[35.4277,30.4282,897.8995],[35.4299,30.4395,944.3974],[35.4335,30.4454,939.4269],[35.4383,30.4491,1000.2446],[35.4551,30.4513,1173.7214],[35.4698,30.4617,1219.4094],[35.4777,30.4694,1049.209],[35.4795,30.4731,962.8639],[35.4816,30.535,832.0402],[35.4922,30.5605,749.6281],[35.4986,30.5706,963.4687],[35.5004,30.6057,413.9486],[35.5021,30.6144,348.1037],[35.5119,30.6401,358.4977],[35.522,30.6562,427.5781],[35.474,30.6534,282.7346],[35.4614,30.6541,210.7583],[35.4536,30.657,184.4301],[35.4265,30.6802,82.664],[35.3935,30.7243,-56.0766],[35.3792,30.737,-90.3145],[35.3554,30.7648,-137.5874],[35.3417,30.7775,-160.7599],[35.3342,30.7954,-180.4788],[35.3414,30.8053,-183.8107],[35.363,30.8287,-209.2611],[35.3654,30.8326,-217.6942],[35.367,30.8413,-223.4708],[35.3565,30.8728,-225.5509],[35.3469,30.8888,-303.2282],[35.3334,30.863,-277.2161],[35.3331,30.8449,-261.4418],[35.3381,30.8284,-246.3031],[35.333,30.8082,-227.2189],[35.3138,30.8023,-217.8403],[35.2989,30.7867,-184.7666],[35.2901,30.7659,-174.153],[35.29,30.7251,-154.8802],[35.2759,30.6967,-132.8257],[35.2514,30.658,-98.0897],[35.2461,30.6357,-65.2422],[35.2312,30.6238,-75.0566],[35.2017,30.5745,-38.5551],[35.1993,30.558,-28.5549],[35.1767,30.4672,30.4947],[35.1698,30.4493,43.6394],[35.156,30.4322,55.5774],[35.152,30.4186,66.7656],[35.1866,30.3622,109.7312],[35.1919,30.3466,135.31],[35.1887,30.3347,137.7793],[35.1665,30.3134,144.4473],[35.1601,30.2962,155.3496],[35.1635,30.2762,166.0219],[35.1445,30.2395,186.2195],[35.1758,30.1191,186.0833],[35.0984,30.0226,137.2067],[35.0776,29.9505,96.1209],[35.0808,29.8723,60.9993],[35.0513,29.8209,54.7919],[35.0502,29.8164,55.6448]]]]}}