{"type":"Feature","properties":{"GID_2":"JOR.2.6_1","GID_0":"JOR","country":"Jordan","GID_1":"JOR.2_1","province":"Amman","NL_NAME_1":"NA","county":"UmEl-Basatien","VARNAME_2":"Umal-Basatin","NL_NAME_2":"NA","TYPE_2":"Nahia","ENGTYPE_2":"Sub-Province","CC_2":"NA","HASC_2":"JO.AM.UB","name":"Um_El-Basatien.county"},
"geometry":{"type": "MultiPolygon","coordinates": [[[[35.7501,31.8617,456.9794],[35.7459,31.8379,446.9873],[35.7399,31.8192,207.7495],[35.7174,31.7955,408.9366],[35.76,31.7884,689.462],[35.7959,31.7756,793.001],[35.8053,31.7758,792.7383],[35.8238,31.7815,799.3958],[35.8393,31.7815,786.1785],[35.8533,31.7759,765.0776],[35.8795,31.7727,759.0115],[35.897,31.7625,761.0139],[35.9054,31.7725,762.071],[35.9156,31.7803,756.5316],[35.9331,31.7855,762.348],[35.966,31.8,754.0991],[35.9361,31.8248,802.1943],[35.9283,31.8443,853.0843],[35.907,31.8508,850.5993],[35.8989,31.8597,870.4008],[35.8816,31.8569,845.9248],[35.8544,31.8594,880.8891],[35.8293,31.859,913.9937],[35.8066,31.8543,848.0536],[35.7965,31.8499,787.0913],[35.7895,31.8488,766.2992],[35.7825,31.8498,746.558],[35.7501,31.8617,456.9794]]]]}}