{"type":"Feature","properties":{"GID_2":"JOR.7.3_1","GID_0":"JOR","country":"Jordan","GID_1":"JOR.7_1","province":"Karak","NL_NAME_1":"NA","county":"GhourEl-Mazra'ah","VARNAME_2":"Al-Mazra'a","NL_NAME_2":"NA","TYPE_2":"Nahia","ENGTYPE_2":"Sub-Province","CC_2":"NA","HASC_2":"JO.KA.MZ","name":"Ghour_El-Mazra'ah.county"},
"geometry":{"type": "MultiPolygon","coordinates": [[[[35.4241,31.1967,-395.7469],[35.4672,31.1965,-395.0],[35.4894,31.1904,-395.0],[35.5268,31.1879,-385.9097],[35.5493,31.1819,-55.5467],[35.5819,31.1816,0.4603],[35.6126,31.1848,675.6147],[35.6459,31.1781,984.2942],[35.6774,31.1858,892.1598],[35.688,31.1868,872.201],[35.6833,31.2009,658.8134],[35.6812,31.2182,795.6385],[35.6839,31.232,1030.0588],[35.6912,31.245,932.9609],[35.697,31.2696,943.8429],[35.6913,31.3413,934.4745],[35.6964,31.3512,925.1445],[35.7165,31.3657,932.8679],[35.7283,31.3787,1007.3059],[35.731,31.387,994.403],[35.7311,31.3962,941.3692],[35.7294,31.4048,877.1702],[35.7237,31.4131,751.7009],[35.7185,31.4274,278.2881],[35.7102,31.4413,112.0351],[35.6833,31.4531,190.4951],[35.6541,31.4635,184.2897],[35.6227,31.4722,-154.5456],[35.5769,31.477,-312.948],[35.5507,31.4777,-427.0],[35.5179,31.4771,-427.0],[35.4755,31.4709,-427.0],[35.4751,31.4198,-427.0],[35.4715,31.3996,-427.0],[35.4551,31.3593,-427.0],[35.3949,31.2646,-401.4227],[35.3898,31.2445,-400.3416],[35.4012,31.2231,-391.5128],[35.4241,31.1967,-395.7469]]]]}}