{"type":"Feature","properties":{"GID_2":"JOR.2.2_1","GID_0":"JOR","country":"Jordan","GID_1":"JOR.2_1","province":"Amman","NL_NAME_1":"NA","county":"Jizeh","VARNAME_2":"Al-Jiza","NL_NAME_2":"NA","TYPE_2":"Nahia","ENGTYPE_2":"Sub-Province","CC_2":"NA","HASC_2":"JO.AM.JI","name":"Jizeh.county"},
"geometry":{"type": "MultiPolygon","coordinates": [[[[35.966,31.8,754.0991],[35.9331,31.7855,762.348],[35.9156,31.7803,756.5316],[35.9054,31.7725,762.071],[35.897,31.7625,761.0139],[35.8909,31.7429,739.901],[35.8796,31.7291,761.3552],[35.8773,31.724,752.4105],[35.878,31.7194,749.7208],[35.8911,31.6983,727.8577],[35.8915,31.6951,718.2997],[35.8886,31.688,724.9687],[35.8843,31.6818,728.7328],[35.8785,31.6771,738.5815],[35.8639,31.6709,757.4661],[35.8436,31.6681,767.0436],[35.8384,31.6646,787.0909],[35.8363,31.6592,790.6527],[35.8373,31.6447,764.3149],[35.8398,31.6374,736.0742],[35.8677,31.6227,717.4983],[35.8811,31.6181,672.4174],[35.8901,31.6113,664.5215],[35.8992,31.5995,676.8379],[35.9018,31.5937,643.3624],[35.9013,31.5857,621.1764],[35.8974,31.5811,585.7639],[35.8864,31.5773,612.4726],[35.8778,31.5709,631.576],[35.875,31.5663,662.1083],[35.8748,31.5607,686.1806],[35.8775,31.556,689.4463],[35.8864,31.5496,696.2409],[35.9088,31.5448,716.4153],[35.9122,31.5408,696.783],[35.9142,31.5348,685.5688],[35.9106,31.5188,703.3351],[35.8955,31.5044,710.9031],[35.8894,31.494,713.8347],[35.8851,31.4818,728.2633],[35.8811,31.4622,664.4265],[35.8652,31.4447,456.3746],[35.8804,31.4355,661.2524],[35.9007,31.4189,757.7645],[35.9878,31.409,734.1758],[36.0136,31.3993,701.505],[36.0287,31.3894,720.3235],[36.0574,31.3619,778.4034],[36.0664,31.3554,797.2693],[36.0797,31.3505,777.8915],[36.0995,31.3352,766.0748],[36.108,31.3262,782.3373],[36.1129,31.3086,794.2463],[36.1213,31.2991,815.7869],[36.1421,31.284,837.1832],[36.1531,31.2735,855.3917],[36.1739,31.2618,835.3009],[36.1958,31.2639,825.4179],[36.2754,31.2643,951.2602],[36.2931,31.263,949.9097],[36.3087,31.2573,926.8464],[36.3265,31.2561,905.933],[36.5509,31.2567,847.3868],[36.6038,31.2528,846.5721],[36.8092,31.2532,687.6149],[36.8557,31.2493,662.0115],[37.0866,31.2499,609.5388],[37.1012,31.2486,607.4039],[37.1185,31.2427,605.0287],[37.1345,31.2417,603.9476],[37.2147,31.2427,580.6215],[37.2293,31.2447,581.4912],[37.2589,31.255,573.7704],[37.2399,31.2784,582.9853],[37.1922,31.3171,566.1918],[37.0113,31.4959,557.2344],[37.0025,31.4936,559.35],[37.0066,31.4895,559.6063],[37.0026,31.4888,559.4925],[36.9935,31.499,558.0662],[36.9508,31.5356,557.2415],[36.937,31.5512,561.206],[36.8497,31.6258,555.2106],[36.8229,31.653199999999998,545.9362],[36.7849,31.6851,531.5826],[36.7765,31.6872,531.647],[36.7644,31.6867,532.9881],[36.746,31.6806,537.4073],[36.7167,31.6781,548.7497],[36.6982,31.6723,557.6476],[36.6797,31.6695,564.5367],[36.6645,31.6631,571.8167],[36.6435,31.6629,582.0266],[36.6361,31.6657,582.1843],[36.6183,31.6809,579.7931],[36.6044,31.7008,581.1399],[36.5847,31.7206,591.9471],[36.5712,31.7138,598.4236],[36.5422,31.704,608.1122],[36.5014,31.7027,617.7761],[36.4857,31.7052,626.9178],[36.4671,31.7134,633.3178],[36.4518,31.7244,642.3652],[36.4445,31.7265,645.4308],[36.3527,31.7269,709.9678],[36.3109,31.7229,745.8369],[36.247,31.7231,800.4872],[36.2237,31.7275,821.9437],[36.212,31.7329,803.7536],[36.1742,31.7445,804.3943],[36.1648,31.7493,813.1887],[36.1432,31.7534,809.3509],[36.1032,31.7499,789.1862],[36.081,31.7428,794.2661],[36.0417,31.7394,730.1648],[36.0312,31.7432,732.6776],[36.0276,31.7499,736.6473],[36.0296,31.7568,738.5603],[36.0419,31.7677,755.7667],[36.0447,31.7723,757.0515],[36.0451,31.7804,769.3629],[36.0436,31.7844,775.653],[36.0354,31.7953,773.0635],[36.0297,31.7983,801.3873],[35.9904,31.8073,759.24],[35.966,31.8,754.0991]]]]}}