{"type":"Feature","properties":{"GID_2":"JOR.10.5_1","GID_0":"JOR","country":"Jordan","GID_1":"JOR.10_1","province":"Mafraq","NL_NAME_1":"NA","county":"SamaSerhan","VARNAME_2":"Samaas-Sarhan","NL_NAME_2":"NA","TYPE_2":"Nahia","ENGTYPE_2":"Sub-Province","CC_2":"NA","HASC_2":"JO.MA.SS","name":"Sama_Serhan.county"},
"geometry":{"type": "MultiPolygon","coordinates": [[[[36.074,32.3435,848.8933],[36.107,32.344,798.2246],[36.1392,32.3604,762.1258],[36.1645,32.3818,714.4299],[36.1783,32.3887,693.6994],[36.2055,32.3949,654.7289],[36.2221,32.3959,663.8551],[36.2508,32.3913,667.9752],[36.2713,32.3821,681.6378],[36.2793,32.3703,680.686],[36.3014,32.3473,670.0793],[36.3163,32.3373,666.3958],[36.3269,32.3361,665.3302],[36.3325,32.3383,667.5078],[36.3401,32.3457,679.2032],[36.3421,32.353,680.0833],[36.3417,32.3651,685.1415],[36.3442,32.3735,692.8531],[36.3479,32.3792,693.9766],[36.3795,32.4055,723.9067],[36.3365,32.4427,675.7753],[36.2961,32.4705,631.4237],[36.2577,32.4929,618.491],[36.2178,32.5218,579.5272],[36.2056,32.5284,574.7238],[36.2007,32.5285,576.0063],[36.1784,32.5183,602.709],[36.1767,32.5117,615.2923],[36.1673,32.5001,618.4108],[36.161,32.4882,658.9703],[36.1434,32.4446,664.99],[36.1354,32.4348,717.5805],[36.1172,32.425,695.8386],[36.0681,32.4204,644.0671],[36.0755,32.4002,767.6985],[36.0801,32.3764,839.7839],[36.0799,32.3662,819.0339],[36.074,32.3435,848.8933]]]]}}