{"type":"Feature","properties":{"ISO3166-1-Alpha-3":"JOR","country":"Jordan","fill":"#00F","id":"853","name":"Ma`an"},
"geometry":{"type": "Polygon","coordinates": [[[37.22172,31.24729,581.1758],[36.15178,31.24864,859.7893],[36.16852,31.1505,830.6376],[36.19193,31.09479,814.1799],[36.14093,30.95506,865.0019],[36.02378,30.76706,822.5167],[35.94771,30.65642,965.7425],[35.91122,30.64474,1052.7375],[35.8844,30.65379,1066.9159],[35.87386,30.65454,1078.609],[35.86317,30.65255,1051.3267],[35.85071,30.64505,993.4915],[35.84079,30.63666,1007.8743],[35.82668,30.62893,1020.1057],[35.75578,30.61423,1159.5657],[35.66235,30.60335,1278.4502],[35.62835,30.60599,1293.4971],[35.52892,30.60327,875.8309],[35.4881,30.60857,317.8545],[35.44805,30.60849,225.3294],[35.44231,30.54602,333.7231],[35.42185,30.46682,733.7786],[35.37746,30.34497,504.7942],[35.37947,30.23239,620.9017],[35.37141,30.20325,655.0482],[35.31291,30.1031,1171.2949],[35.30144,30.05339,630.6771],[35.29912,30.02706,685.5753],[35.30377,30.00832,880.2881],[35.30904,29.99853,1072.006],[35.31679,29.98698,1023.5492],[35.32594,29.97659,989.7584],[35.33818,29.96672,974.2324],[35.35188,29.95975,968.6843],[35.36831,29.95502,971.97],[35.38428,29.95443,997.8115],[35.39916,29.95605,1028.6726],[35.41208,29.96014,1076.9373],[35.42495,29.96244,1092.3958],[35.45068,29.96308,1155.0295],[35.4805,29.95799,1108.7592],[35.4991,29.95194,1086.9747],[35.51869,29.94249,1268.125],[35.53807,29.92773,1510.5729],[35.55605,29.91099,1269.2963],[35.57094,29.89089,1455.1516],[35.62354,29.78736,1027.8755],[35.6884,29.55719,816.6663],[35.7379,29.24059,1015.1397],[35.74018,29.23201,990.0427],[35.74025,29.23173,990.0427],[35.79723,29.22308,874.2912],[35.91246,29.20569,813.515],[36.01644,29.18995,717.1237],[36.04383,29.19088,721.1821],[36.06946,29.20003,674.3063],[36.17798,29.27837,701.7239],[36.28371,29.35485,721.8707],[36.39998,29.4389,832.6405],[36.47708,29.49461,862.066],[36.54126,29.58941,880.243],[36.60358,29.68147,880.3924],[36.64958,29.7494,928.9017],[36.70487,29.83115,990.8727],[36.72874,29.85353,1006.6323],[36.75624,29.86552,1004.8623],[36.84295,29.88123,923.7122],[36.93194,29.89725,925.569],[37.0758,29.92329,934.2325],[37.21853,29.94913,846.9033],[37.35238,29.97331,815.3971],[37.4702,29.99455,795.1417],[37.4917,30.01119,814.709],[37.53614,30.1053,794.8062],[37.56921,30.17496,802.7747],[37.60518,30.25071,767.8505],[37.63453,30.31278,748.5046],[37.64755,30.33086,732.9055],[37.6707,30.34761,702.4267],[37.77933,30.40042,646.7585],[37.900149999999996,30.45907,597.5381],[37.97332,30.49452,577.5851],[37.98004,30.49809,572.4371],[37.98097,30.4984,572.0107],[37.98138,30.49881,571.8315],[37.98107,30.49948,571.8315],[37.93157,30.54966,575.9091],[37.82191,30.66087,580.6881],[37.71204,30.77202,579.6013],[37.60228,30.88323,572.1552],[37.49263,30.99449,576.7687],[37.48942,30.9977,576.6786],[37.48632,31.0009,577.166],[37.48312,31.0041,576.4592],[37.48002,31.00726,576.9546],[37.3499,31.12823,584.7805],[37.22172,31.24729,581.1758]]]}}