{"type":"Feature","properties":{"GID_1":"JOR.8_1","GID_0":"JOR","country":"Jordan","province":"Ma`an","VARNAME_1":"NA","NL_NAME_1":"NA","TYPE_1":"Muhafazah","ENGTYPE_1":"Province","CC_1":"NA","HASC_1":"JO.MN","ISO_1":"NA","name":"Ma`an.province"},
"geometry":{"type": "MultiPolygon","coordinates": [[[[36.1958,31.2639,825.4179],[36.1739,31.2618,835.3009],[36.16,31.2437,855.8438],[36.1577,31.2279,868.2122],[36.1578,31.2082,861.9041],[36.1601,31.1915,844.7352],[36.1702,31.1689,831.7456],[36.2125,31.132,812.4554],[36.2395,31.1012,814.0402],[36.2409,31.0935,814.5539],[36.2328,31.0808,813.8672],[36.2163,31.0654,824.5798],[36.2032,31.0405,841.6967],[36.1877,31.0167,866.4944],[36.1745,30.9838,881.6401],[36.1399,30.9273,852.9058],[36.1266,30.8945,864.4872],[36.1114,30.8705,858.0703],[36.1074,30.8507,875.0233],[36.1025,30.8394,885.7015],[36.0731,30.7972,832.2824],[36.069,30.7808,820.1876],[36.0348,30.7242,854.5806],[36.0307,30.7077,850.2413],[36.01,30.6723,870.7137],[36.0012,30.6655,882.1223],[35.9904,30.663,892.3552],[35.9362,30.6635,994.849],[35.9102,30.6705,996.2212],[35.8577,30.6702,982.4551],[35.8443,30.664,986.8438],[35.827,30.6506,1020.288],[35.8175,30.6471,1024.7433],[35.7288,30.6462,1278.4648],[35.7054,30.6439,1361.1069],[35.6966,30.6328,1355.5706],[35.6724,30.6227,1330.8108],[35.6375,30.6364,1290.3231],[35.6183,30.6405,1160.7711],[35.542,30.6478,643.7182],[35.522,30.6562,427.5781],[35.5119,30.6401,358.4977],[35.5021,30.6144,348.1037],[35.5004,30.6057,413.9486],[35.4986,30.5706,963.4687],[35.4922,30.5605,749.6281],[35.4816,30.535,832.0402],[35.4795,30.4731,962.8639],[35.4777,30.4694,1049.209],[35.4698,30.4617,1219.4094],[35.4551,30.4513,1173.7214],[35.4383,30.4491,1000.2446],[35.4335,30.4454,939.4269],[35.4299,30.4395,944.3974],[35.4277,30.4282,897.8995],[35.4279,30.3948,1090.1564],[35.4262,30.3823,1184.1469],[35.4211,30.3702,1109.3922],[35.4062,30.3496,727.152],[35.4067,30.3391,741.1338],[35.4211,30.3172,990.7125],[35.4318,30.2965,1114.6144],[35.4309,30.2753,913.2452],[35.4247,30.261,916.6261],[35.4219,30.2478,939.3804],[35.3912,30.1935,1004.2867],[35.3736,30.1683,870.6891],[35.3631,30.1575,1034.1113],[35.3486,30.1486,881.2106],[35.3384,30.1385,1082.5336],[35.3379,30.1286,1117.6296],[35.3444,30.1151,1195.7167],[35.346,30.1062,1178.379],[35.3463,30.0855,1293.1802],[35.3449,30.0749,1309.5896],[35.3348,30.0567,1171.2458],[35.3287,30.0492,1040.0844],[35.3242,30.0391,1200.8457],[35.3032,30.0125,813.5431],[35.362,30.0122,1028.6467],[35.3883,30.009,1067.9268],[35.4268,30.0081,1133.2985],[35.4727,30.0039,1334.2823],[35.5289,29.9957,1543.8517],[35.548,29.9878,1556.4199],[35.5536,29.9822,1568.6298],[35.5572,29.9686,1560.3541],[35.5622,29.9601,1585.3027],[35.5672,29.9424,1515.6387],[35.6035,29.895,1430.4589],[35.6181,29.8808,1392.8043],[35.6286,29.8631,1409.9551],[35.6363,29.8464,1338.9442],[35.6528,29.8313,1166.2284],[35.6656,29.816,1164.6682],[35.6855,29.7817,1082.5159],[35.6948,29.753,1047.9624],[35.698,29.7359,997.4537],[35.7046,29.7226,960.1924],[35.7073,29.7001,931.614],[35.7151,29.6616,886.8625],[35.7151,29.6129,859.3069],[35.7122,29.5818,884.1414],[35.7161,29.5653,884.8461],[35.7213,29.5567,900.7977],[35.7227,29.5508,843.9296],[35.716,29.5338,826.8497],[35.7107,29.5005,848.7264],[35.71,29.4602,880.7057],[35.7156,29.4285,936.5629],[35.7225,29.4143,940.2567],[35.7258,29.392,949.4274],[35.7326,29.372,947.9985],[35.7339,29.3401,886.3407],[35.7375,29.3167,949.3356],[35.7384,29.2873,1012.1085],[35.7421,29.264,993.0502],[35.7423,29.2371,996.8459],[35.7393,29.2375,1013.2828],[35.8199,29.22,830.719],[35.9083,29.21,809.5042],[35.9696,29.1982,768.7764],[36.0024,29.1951,761.0057],[36.0728,29.1834,680.927],[36.0828,29.189,673.4904],[36.0982,29.2026,675.095],[36.1518,29.232,714.7788],[36.2126,29.2862,702.888],[36.2497,29.3127,709.4402],[36.3103,29.352,725.8876],[36.3313,29.3731,749.1204],[36.3417,29.3801,752.7606],[36.3709,29.3976,781.5945],[36.3868,29.4028,794.4268],[36.397,29.4014,809.5953],[36.4093,29.4057,825.0222],[36.4233,29.4134,837.5767],[36.4308,29.42,848.0135],[36.4371,29.4207,866.8394],[36.4493,29.4304,878.0127],[36.4601,29.4525,865.9497],[36.4741,29.4643,887.3342],[36.4923,29.4853,864.3934],[36.5273,29.5143,863.0303],[36.5473,29.5462,889.316],[36.5485,29.5605,879.3724],[36.5504,29.5636,861.5745],[36.616,29.6318,903.9874],[36.6245,29.6369,916.3407],[36.6392,29.6738,891.5163],[36.6438,29.6874,898.9211],[36.6441,29.6944,900.5119],[36.6677,29.7278,937.9973],[36.6809,29.7494,979.9838],[36.7361,29.789,1002.4592],[36.7599,29.8205,1003.654],[36.7648,29.8378,988.5437],[36.7758,29.852,976.4343],[36.7849,29.8679,970.3135],[36.792,29.8715,981.6989],[36.7969,29.8709,984.7035],[36.865,29.8856,922.4466],[37.0002,29.9106,955.5054],[37.0373,29.9171,977.4341],[37.0496,29.9169,966.783],[37.0547,29.92,960.5286],[37.0572,29.9193,962.891],[37.1007,29.929,990.9661],[37.1222,29.9308,917.2985],[37.1231,29.9322,913.5199],[37.1265,29.9314,930.6887],[37.2071,29.9479,868.7978],[37.5055,30.0008,792.2479],[37.5208,30.0425,820.9603],[37.6364,30.2767,735.9015],[37.6656,30.3326,714.631],[37.9971,30.5007,578.111],[37.9615,30.5377,575.881],[37.9328,30.5763,568.8566],[37.9035,30.6064,567.662],[37.6336,30.8781,568.2203],[37.5963,30.9133,563.4149],[37.5742,30.9371,566.6744],[37.5463,30.9611,568.2017],[37.518,30.9931,569.2583],[37.4592,31.05,575.7891],[37.3911,31.1217,575.8375],[37.33,31.1782,579.4438],[37.2589,31.255,573.7704],[37.2293,31.2447,581.4912],[37.2147,31.2427,580.6215],[37.1345,31.2417,603.9476],[37.1185,31.2427,605.0287],[37.1012,31.2486,607.4039],[37.0866,31.2499,609.5388],[36.8557,31.2493,662.0115],[36.8092,31.2532,687.6149],[36.6038,31.2528,846.5721],[36.5509,31.2567,847.3868],[36.3265,31.2561,905.933],[36.3087,31.2573,926.8464],[36.2931,31.263,949.9097],[36.2846,31.264,956.0488],[36.1958,31.2639,825.4179]]]]}}