{"type":"Feature","properties":{"GID_2":"JOR.6.1_1","GID_0":"JOR","country":"Jordan","GID_1":"JOR.6_1","province":"Jarash","NL_NAME_1":"NA","county":"Jarash","VARNAME_2":"Jerash","NL_NAME_2":"NA","TYPE_2":"Nahia","ENGTYPE_2":"Sub-Province","CC_2":"NA","HASC_2":"JO.JA.JA","name":"Jarash.county"},
"geometry":{"type": "MultiPolygon","coordinates": [[[[35.7861,32.2012,396.1911],[35.7649,32.1901,184.0228],[35.7427,32.1696,418.2159],[35.8127,32.168,369.9147],[35.8745,32.1724,622.373],[35.897,32.1698,696.4547],[35.9135,32.1629,660.001],[35.9214,32.155,753.534],[35.9225,32.147,770.6683],[35.9152,32.1324,908.3851],[35.9175,32.1226,940.4722],[35.9268,32.116,960.5178],[35.9477,32.1101,816.6487],[35.9532,32.1223,772.3438],[35.9628,32.1364,734.3885],[35.9827,32.1543,585.7034],[35.9949,32.1626,532.9042],[36.0206,32.1693,509.5159],[36.0365,32.1773,691.703],[36.0396,32.1991,722.8178],[36.0468,32.2129,645.7238],[36.0466,32.2234,594.4721],[36.0348,32.2429,607.3971],[36.014,32.2546,655.3549],[36.0101,32.2585,674.1779],[36.0055,32.2684,706.7906],[36.0055,32.2793,699.4694],[36.0131,32.2932,723.7742],[36.041,32.3164,803.0245],[36.0507,32.3226,831.2533],[36.074,32.3435,848.8933],[36.0467,32.3539,905.7389],[36.0188,32.3736,791.3442],[36.0083,32.3746,790.4775],[36.0014,32.3721,780.0304],[35.9866,32.3606,867.9612],[35.9728,32.357,905.2575],[35.9557,32.3487,953.739],[35.9388,32.336,974.495],[35.8892,32.3177,768.0792],[35.8833,32.3141,737.7524],[35.8778,32.307,744.1557],[35.8693,32.2849,714.7208],[35.8655,32.2642,516.2431],[35.8547,32.2392,521.7442],[35.8344,32.2216,448.4883],[35.7861,32.2012,396.1911]]]]}}