{"type":"Feature","properties":{"GID_1":"JOR.4_1","GID_0":"JOR","country":"Jordan","province":"Balqa","VARNAME_1":"AlBalqa'|Balka|Belga","NL_NAME_1":"NA","TYPE_1":"Muhafazah","ENGTYPE_1":"Province","CC_1":"NA","HASC_1":"JO.BA","ISO_1":"NA","name":"Balqa.province"},
"geometry":{"type": "MultiPolygon","coordinates": [[[[35.7274,32.1779,105.9902],[35.7139,32.1892,102.2949],[35.6875,32.2157,459.6281],[35.667,32.2453,123.937],[35.6538,32.2428,-21.4861],[35.6405,32.2377,49.6199],[35.6015,32.2349,-240.772],[35.5715,32.2284,-335.9736],[35.5755,32.206,-283.2107],[35.5727,32.1963,-317.1742],[35.5643,32.183,-344.9069],[35.5579,32.1581,-351.3006],[35.555,32.1314,-335.8954],[35.5512,32.1203,-351.9777],[35.5371,32.104,-355.465],[35.5339,32.0863,-316.8549],[35.5256,32.0722,-332.1575],[35.5278,32.0292,-314.8357],[35.5388,32.0184,-292.6295],[35.5404,32.0116,-312.3931],[35.5311,32.0,-366.5735],[35.5478,31.9686,-370.3613],[35.5415,31.933,-374.5772],[35.5234,31.9181,-359.9525],[35.5332,31.876,-351.6284],[35.5506,31.8665,-382.4468],[35.5408,31.8501,-385.8905],[35.5513,31.8359,-382.0539],[35.5434,31.8169,-392.1632],[35.5557,31.7585,-424.5358],[35.5518,31.7524,-427.0],[35.5534,31.7383,-427.0],[35.5761,31.7208,-427.0],[35.5963,31.7097,-199.5091],[35.631,31.7093,83.723],[35.6576,31.7138,234.4552],[35.671,31.7182,281.1599],[35.6827,31.7268,396.9323],[35.6913,31.7357,514.0959],[35.693,31.7394,420.3446],[35.6942,31.7697,189.3184],[35.6959,31.778199999999998,153.874],[35.7068,31.7912,140.8346],[35.7119,31.7944,316.5086],[35.7174,31.7955,408.9366],[35.7399,31.8192,207.7495],[35.7459,31.8379,446.9873],[35.7501,31.8617,456.9794],[35.7542,31.8692,235.8862],[35.767,31.8838,271.6506],[35.7725,31.9083,657.533],[35.7829,31.9262,680.7805],[35.7944,31.9392,705.0761],[35.8129,31.9518,711.4441],[35.8587,31.972,962.8185],[35.8729,31.9864,997.0707],[35.8749,31.9953,998.0809],[35.8738,32.0066,1005.8599],[35.9017,32.0201,950.4911],[35.9209,32.0363,876.5438],[35.934,32.0514,869.5492],[35.9506,32.064,931.1477],[35.9517,32.0926,725.5127],[35.9477,32.1101,816.6487],[35.9268,32.116,960.5178],[35.9175,32.1226,940.4722],[35.9152,32.1324,908.3851],[35.9215,32.1435,843.1176],[35.9225,32.151,755.5953],[35.9203,32.1569,690.1543],[35.9135,32.1629,660.001],[35.897,32.1698,696.4547],[35.8862,32.172,698.5282],[35.8568,32.172,590.5308],[35.8347,32.169,511.2936],[35.8127,32.168,369.9147],[35.7427,32.1696,418.2159],[35.7274,32.1779,105.9902]]]]}}