{"type":"Feature","properties":{"ISO3166-1-Alpha-3":"JOR","country":"Jordan","fill":"#FF0","id":"857","name":"Balqa"},
"geometry":{"type": "Polygon","coordinates": [[[35.63553,32.18382,-219.8661],[35.56597,32.19093,-344.3945],[35.55956,32.19037,-345.6831],[35.55517,32.17439,-348.7928],[35.55941,32.16253,-349.5741],[35.55941,32.15509,-349.9766],[35.55125,32.15153,-349.598],[35.5467,32.14703,-329.3896],[35.5467,32.14161,-354.0246],[35.55197,32.1352,-351.8627],[35.53523,32.11081,-313.8295],[35.53461,32.09923,-357.7897],[35.54515,32.08683,-359.3065],[35.5283,32.0751,-308.4587],[35.52282,32.05784,-323.3586],[35.52468,32.01169,-366.6433],[35.53554,31.98823,-368.3922],[35.53771,31.97758,-359.1953],[35.53833,31.96394,-339.7069],[35.53998,31.95562,-350.4203],[35.54587,31.94456,-374.1113],[35.54515,31.9366,-373.4605],[35.5406,31.93201,-375.0193],[35.53368,31.9303,-320.3108],[35.52747,31.92735,-318.8735],[35.52468,31.91924,-374.0268],[35.54908,31.83919,-385.275],[35.53833,31.82674,-380.1415],[35.53833,31.8193,-387.1227],[35.55941,31.76535,-402.0654],[35.52758,31.73507,-427.0],[35.50248,31.68536,-427.0],[35.51476,31.68409,-427.0],[35.58354,31.68081,-287.5863],[35.5975,31.68646,-86.672],[35.61005,31.69685,93.7267],[35.62649,31.7223,72.3597],[35.63817,31.74923,21.5623],[35.64421,31.75597,34.3084],[35.6563,31.76284,53.0014],[35.66871,31.76607,67.9928],[35.69542,31.76811,226.5788],[35.70829,31.77465,316.5259],[35.71015,31.79253,265.1707],[35.71248,31.80307,256.4955],[35.72519,31.83372,166.5599],[35.72348,31.84219,88.1724],[35.71775,31.84757,66.4599],[35.6948,31.8508,19.2107],[35.68157,31.85413,-68.838],[35.67088,31.85878,-101.7006],[35.6639,31.86573,-67.0693],[35.66173,31.87493,-123.5796],[35.66871,31.88594,39.9517],[35.68374,31.89743,-0.3715],[35.74193,31.92283,574.8824],[35.76694,31.93834,647.8378],[35.81195,31.98371,917.3104],[35.82684,31.9942,976.1166],[35.86487,32.00409,1033.5647],[35.88053,32.01159,1039.2358],[35.91174,32.03763,896.5393],[35.9412,32.04585,837.9346],[35.92166,32.05569,892.7713],[35.91484,32.05822,897.4341],[35.90673,32.06468,925.0496],[35.90161,32.06985,923.8776],[35.89588,32.09566,814.9634],[35.85913,32.11897,711.8536],[35.85164,32.12739,769.3154],[35.84032,32.13711,698.7341],[35.82637,32.1422,483.6675],[35.80668,32.14538,324.1177],[35.71976,32.14352,429.5479],[35.70643,32.1446,502.8462],[35.6962,32.14783,469.5893],[35.6948,32.15618,386.7979],[35.66871,32.1607,572.9961],[35.65181,32.16656,42.0716],[35.63553,32.18382,-219.8661]]]}}