{"type":"Feature","properties":{"GID_1":"JOR.3_1","GID_0":"JOR","country":"Jordan","province":"Aqaba","VARNAME_1":"Al`Aqabah","NL_NAME_1":"NA","TYPE_1":"Muhafazah","ENGTYPE_1":"Province","CC_1":"NA","HASC_1":"JO.AQ","ISO_1":"NA","name":"Aqaba.province"},
"geometry":{"type": "MultiPolygon","coordinates": [[[[34.9663,29.5476,4.6165],[34.9799,29.5424,1.5142],[34.9979,29.5307,7.4768],[34.9982,29.5282,0.2934],[35.0007,29.526,1.027],[35.001,29.5182,0.0],[34.9957,29.5171,0.0],[34.9907,29.5037,0.0],[34.9918,29.5004,6.6995],[34.9854,29.4904,0.0],[34.9835,29.4835,10.0529],[34.9796,29.4804,0.0],[34.9801,29.4776,0.0],[34.9746,29.4704,2.5871],[34.9743,29.4629,0.0],[34.9762,29.459,0.0],[34.9715,29.4535,6.793],[34.9712,29.4501,7.5966],[34.9676,29.4471,0.0],[34.9704,29.4379,4.4571],[34.9746,29.4326,12.3959],[34.9724,29.4204,2.975],[34.9779,29.4099,0.0],[34.9762,29.406,0.4597],[34.9704,29.4035,3.7865],[34.9646,29.3985,1.6416],[34.9637,29.3937,0.3585],[34.9685,29.3865,4.8125],[34.9643,29.3827,2.4224],[34.9621,29.3774,1.9318],[34.966,29.3721,0.491],[34.9576,29.3674,0.0],[34.9585,29.3649,0.0],[34.9607,29.3674,1.1251],[34.9665,29.3632,7.2652],[34.9668,29.3615,6.3644],[34.9621,29.3587,8.084],[35.0531,29.3444,502.965],[35.0742,29.3441,703.6617],[35.0888,29.3393,847.2639],[35.1351,29.3318,942.3896],[35.7423,29.2371,996.8459],[35.7421,29.264,993.0502],[35.7384,29.2873,1012.1085],[35.7375,29.3167,949.3356],[35.7339,29.3401,886.3407],[35.7326,29.372,947.9985],[35.7258,29.392,949.4274],[35.7225,29.4143,940.2567],[35.7156,29.4285,936.5629],[35.71,29.4602,880.7057],[35.7107,29.5005,848.7264],[35.716,29.5338,826.8497],[35.7227,29.5508,843.9296],[35.7213,29.5567,900.7977],[35.7161,29.5653,884.8461],[35.7122,29.5818,884.1414],[35.7151,29.6129,859.3069],[35.7151,29.6616,886.8625],[35.7073,29.7001,931.614],[35.7046,29.7226,960.1924],[35.698,29.7359,997.4537],[35.6948,29.753,1047.9624],[35.6855,29.7817,1082.5159],[35.6656,29.816,1164.6682],[35.6528,29.8313,1166.2284],[35.6363,29.8464,1338.9442],[35.6286,29.8631,1409.9551],[35.6181,29.8808,1392.8043],[35.6035,29.895,1430.4589],[35.5672,29.9424,1515.6387],[35.5622,29.9601,1585.3027],[35.5572,29.9686,1560.3541],[35.5536,29.9822,1568.6298],[35.548,29.9878,1556.4199],[35.5289,29.9957,1543.8517],[35.4727,30.0039,1334.2823],[35.4268,30.0081,1133.2985],[35.3883,30.009,1067.9268],[35.362,30.0122,1028.6467],[35.3032,30.0125,813.5431],[35.3242,30.0391,1200.8457],[35.3287,30.0492,1040.0844],[35.3348,30.0567,1171.2458],[35.3449,30.0749,1309.5896],[35.3463,30.0855,1293.1802],[35.346,30.1062,1178.379],[35.3444,30.1151,1195.7167],[35.3379,30.1286,1117.6296],[35.3384,30.1385,1082.5336],[35.3486,30.1486,881.2106],[35.3631,30.1575,1034.1113],[35.3736,30.1683,870.6891],[35.3912,30.1935,1004.2867],[35.4219,30.2478,939.3804],[35.4247,30.261,916.6261],[35.4309,30.2753,913.2452],[35.4318,30.2965,1114.6144],[35.4211,30.3172,990.7125],[35.4067,30.3391,741.1338],[35.4062,30.3496,727.152],[35.4211,30.3702,1109.3922],[35.4262,30.3823,1184.1469],[35.4279,30.3948,1090.1564],[35.4277,30.4282,897.8995],[35.4299,30.4395,944.3974],[35.4335,30.4454,939.4269],[35.4383,30.4491,1000.2446],[35.4551,30.4513,1173.7214],[35.4698,30.4617,1219.4094],[35.4777,30.4694,1049.209],[35.4795,30.4731,962.8639],[35.4816,30.535,832.0402],[35.4922,30.5605,749.6281],[35.4986,30.5706,963.4687],[35.5004,30.6057,413.9486],[35.5021,30.6144,348.1037],[35.5119,30.6401,358.4977],[35.522,30.6562,427.5781],[35.474,30.6534,282.7346],[35.4614,30.6541,210.7583],[35.4536,30.657,184.4301],[35.4265,30.6802,82.664],[35.3935,30.7243,-56.0766],[35.3792,30.737,-90.3145],[35.3554,30.7648,-137.5874],[35.3417,30.7775,-160.7599],[35.3342,30.7954,-180.4788],[35.3414,30.8053,-183.8107],[35.363,30.8287,-209.2611],[35.3654,30.8326,-217.6942],[35.367,30.8413,-223.4708],[35.3565,30.8728,-225.5509],[35.3469,30.8888,-303.2282],[35.3334,30.863,-277.2161],[35.3331,30.8449,-261.4418],[35.3381,30.8284,-246.3031],[35.333,30.8082,-227.2189],[35.3138,30.8023,-217.8403],[35.2989,30.7867,-184.7666],[35.2901,30.7659,-174.153],[35.29,30.7251,-154.8802],[35.2759,30.6967,-132.8257],[35.2514,30.658,-98.0897],[35.2461,30.6357,-65.2422],[35.2312,30.6238,-75.0566],[35.2017,30.5745,-38.5551],[35.1993,30.558,-28.5549],[35.1767,30.4672,30.4947],[35.1698,30.4493,43.6394],[35.156,30.4322,55.5774],[35.152,30.4186,66.7656],[35.1866,30.3622,109.7312],[35.1919,30.3466,135.31],[35.1887,30.3347,137.7793],[35.1665,30.3134,144.4473],[35.1601,30.2962,155.3496],[35.1635,30.2762,166.0219],[35.1445,30.2395,186.2195],[35.1758,30.1191,186.0833],[35.0984,30.0226,137.2067],[35.0776,29.9505,96.1209],[35.0808,29.8723,60.9993],[35.0513,29.8209,54.7919],[35.0468,29.8021,55.9676],[35.0497,29.7872,58.4445],[35.0468,29.767,71.6821],[35.0297,29.705,60.2227],[35.0298,29.6713,34.2003],[35.0324,29.6502,29.6042],[35.0327,29.6307,47.5433],[35.0195,29.6167,35.3813],[35.0017,29.6052,27.4123],[34.9865,29.5898,15.3862],[34.9757,29.571,7.532],[34.9663,29.5476,4.6165]]]]}}