{"type":"Feature","properties":{"ISO3166-1-Alpha-3":"JOR","country":"Jordan","fill":"#FF0","id":"849","name":"Aqaba"},
"geometry":{"type": "Polygon","coordinates": [[[35.44805,30.60849,225.3294],[35.42526,30.60935,155.4784],[35.41394,30.61291,137.3902],[35.39978,30.61898,104.0443],[35.38754,30.63276,89.9148],[35.3756,30.65069,71.944],[35.36258,30.66084,-29.3275],[35.34718,30.66784,-66.1978],[35.27891,30.71009,-138.8208],[35.26388,30.71997,-130.8058],[35.26382,30.71978,-130.8058],[35.20532,30.6171,-59.1769],[35.16212,30.49468,38.2667],[35.15737,30.47085,67.0148],[35.14,30.43019,68.0313],[35.14,30.40616,78.1704],[35.14497,30.39587,86.1698],[35.15933,30.37561,92.0328],[35.16212,30.3614,104.0957],[35.15995,30.3475,205.4458],[35.15447,30.33675,166.7185],[35.14776,30.32647,167.526],[35.14176,30.31396,176.0302],[35.13236,30.26187,212.5231],[35.12523,30.24467,194.072],[35.12481,30.21609,201.6511],[35.14528,30.1549,244.1382],[35.14528,30.12338,203.0931],[35.12905,30.08974,201.0796],[35.08626,30.03403,177.6053],[35.07469,29.9946,244.5511],[35.07407,29.98256,128.4905],[35.07034,29.97373,111.4032],[35.06538,29.96598,98.0466],[35.06146,29.95735,100.8024],[35.05412,29.92339,135.7836],[35.05319,29.86262,57.7522],[35.04895,29.84231,55.518],[35.00255,29.7331,106.4829],[34.9951,29.70816,86.6823],[34.98983,29.65196,49.1026],[34.98032,29.627,56.471],[34.96699,29.60812,73.1482],[34.95986,29.58621,89.9543],[34.95558,29.55899,22.4225],[34.96022,29.55952,3.6628],[34.9616,29.55809,5.8081],[34.9616,29.55541,9.7689],[34.96241,29.55215,3.354],[34.97608,29.55215,3.7892],[34.99684,29.53388,6.4996],[34.99781,29.51797,0.0],[34.97608,29.47704,0.0],[34.969,29.45083,0.0],[34.96241,29.35977,0.7706],[34.94939,29.35171,0.0],[34.94939,29.35169,0.0],[35.06032,29.3347,696.0695],[35.17907,29.31666,993.02739999999994],[35.33462,29.29315,953.8618],[35.47363,29.27206,1510.8689],[35.62204,29.24969,1230.9376],[35.74025,29.23173,990.0427],[35.74018,29.23201,990.0427],[35.7379,29.24059,1015.1397],[35.6884,29.55719,816.6663],[35.62354,29.78736,1027.8755],[35.57094,29.89089,1455.1516],[35.55605,29.91099,1269.2963],[35.53807,29.92773,1510.5729],[35.51869,29.94249,1268.125],[35.4991,29.95194,1086.9747],[35.4805,29.95799,1108.7592],[35.45068,29.96308,1155.0295],[35.42495,29.96244,1092.3958],[35.41208,29.96014,1076.9373],[35.39916,29.95605,1028.6726],[35.38428,29.95443,997.8115],[35.36831,29.95502,971.97],[35.35188,29.95975,968.6843],[35.33818,29.96672,974.2324],[35.32594,29.97659,989.7584],[35.31679,29.98698,1023.5492],[35.30904,29.99853,1072.006],[35.30377,30.00832,880.2881],[35.29912,30.02706,685.5753],[35.30144,30.05339,630.6771],[35.31291,30.1031,1171.2949],[35.37141,30.20325,655.0482],[35.37947,30.23239,620.9017],[35.37746,30.34497,504.7942],[35.42185,30.46682,733.7786],[35.44231,30.54602,333.7231],[35.44805,30.60849,225.3294]]]}}