{"type":"Feature","properties":{"GID_2":"JOR.11.2_1","GID_0":"JOR","country":"Jordan","GID_1":"JOR.11_1","province":"Tafilah","NL_NAME_1":"NA","county":"Hesa","VARNAME_2":"Al-Hasa","NL_NAME_2":"NA","TYPE_2":"Nahia","ENGTYPE_2":"Sub-Province","CC_2":"NA","HASC_2":"JO.AT.HE","name":"Hesa.county"},
"geometry":{"type": "MultiPolygon","coordinates": [[[[35.8013,30.9571,770.2191],[35.7882,30.9427,525.9744],[35.775,30.918,815.3247],[35.7689,30.9103,929.5744],[35.7654,30.9018,959.879],[35.7596,30.894,975.0682],[35.7554,30.8776,991.3189],[35.7493,30.8677,1022.8975],[35.7478,30.8543,1087.6686],[35.7481,30.8207,1112.2015],[35.7496,30.8115,1144.2997],[35.7565,30.7956,1163.1167],[35.7567,30.7834,1152.924],[35.7286,30.7355,1280.7518],[35.7264,30.7235,1350.5509],[35.7205,30.7131,1410.5564],[35.7177,30.6923,1462.9969],[35.7105,30.6734,1363.4446],[35.7054,30.6439,1361.1069],[35.7288,30.6462,1278.4648],[35.8175,30.6471,1024.7433],[35.827,30.6506,1020.288],[35.8505,30.6679,976.6719],[35.8654,30.6711,1000.5008],[35.9102,30.6705,996.2212],[35.9313,30.6643,994.0418],[35.9412,30.6631,990.5244],[35.9904,30.663,892.3552],[36.0012,30.6655,882.1223],[36.0122,30.675,868.5864],[36.0157,30.6835,863.0486],[36.0307,30.7077,850.2413],[36.0348,30.7242,854.5806],[36.069,30.7808,820.1876],[36.0731,30.7972,832.2824],[36.1025,30.8394,885.7015],[36.0872,30.848,882.7003],[36.0762,30.8564,878.9373],[36.0572,30.8646,872.209],[36.0189,30.8756,890.3672],[36.0098,30.8806,886.5211],[35.9981,30.8845,875.4824],[35.9778,30.8957,893.3403],[35.958,30.9023,876.5624],[35.9389,30.8989,893.3856],[35.9089,30.8968,845.8581],[35.8963,30.8987,910.9927],[35.8832,30.9079,956.9428],[35.8759,30.9157,952.4045],[35.8685,30.9316,1039.9191],[35.8612,30.9383,1040.9781],[35.8517,30.9422,902.6893],[35.8196,30.9484,682.145],[35.8013,30.9571,770.2191]]]]}}