{"type":"Feature","properties":{"GID_2":"JOR.12.3_1","GID_0":"JOR","country":"Jordan","GID_1":"JOR.12_1","province":"Zarqa","NL_NAME_1":"NA","county":"Zarqa","VARNAME_2":"Az-Zarqa","NL_NAME_2":"NA","TYPE_2":"Nahia","ENGTYPE_2":"Sub-Province","CC_2":"NA","HASC_2":"JO.AZ.AZ","name":"Zarqa.county"},
"geometry":{"type": "MultiPolygon","coordinates": [[[[36.4219,32.0116,646.6478],[36.4724,32.054,583.0],[36.4824,32.0682,589.2875],[36.4845,32.0836,594.5459],[36.4839,32.0956,600.4863],[36.4806,32.1038,608.4041],[36.4723,32.1142,616.8462],[36.4534,32.1227,615.3712],[36.4438,32.1247,603.7103],[36.4251,32.1238,595.272],[36.4094,32.1181,587.3785],[36.3513,32.1137,588.5403],[36.3203,32.1172,575.5881],[36.2971,32.1267,583.8744],[36.2615,32.1474,557.8423],[36.244,32.1557,590.4716],[36.1784,32.1344,602.304],[36.1731,32.1351,600.5811],[36.1495,32.146,548.7336],[36.1432,32.1473,532.8533],[36.1318,32.145,552.3826],[36.1191,32.1338,550.9387],[36.1064,32.1293,544.7943],[36.0878,32.1324,572.2639],[36.0698,32.1416,502.258],[36.0664,32.1219,511.3277],[36.0662,32.1041,556.8469],[36.0674,32.0942,588.3954],[36.0745,32.0726,570.0698],[36.0736,32.0627,563.2396],[36.0641,32.0523,639.6768],[36.0537,32.0449,658.7304],[36.0421,32.0408,710.4609],[36.026,32.0321,702.755],[36.0293,32.0104,679.7087],[36.0343,31.9961,694.5115],[36.0514,31.9868,726.915],[36.0599,31.9837,763.481],[36.0738,31.9816,763.4626],[36.0952,31.9828,684.5217],[36.1085,31.9872,758.0255],[36.1184,31.9927,702.7199],[36.1325,31.9947,709.9875],[36.1388,31.993,693.5589],[36.1543,31.9808,779.7697],[36.1718,31.9777,716.5034],[36.2051,31.9789,732.558],[36.2524,31.9855,686.7629],[36.2847,31.987,686.4794],[36.3292,32.0051,643.2263],[36.3632,32.0249,637.8281],[36.386,32.0344,614.0527],[36.3955,32.0343,624.1245],[36.4045,32.0303,627.4948],[36.4154,32.0207,634.7738],[36.4219,32.0116,646.6478]]]]}}