{"type":"Feature","properties":{"ISO3166-1-Alpha-3":"JOR","country":"Jordan","fill":"#00F","id":"860","name":"Zarqa"},
"geometry":{"type": "Polygon","coordinates": [[[36.04067,32.13223,553.6138],[36.02998,32.13383,569.7573],[36.01969,32.13995,533.0422],[36.01473,32.14685,509.9682],[36.01396,32.15633,489.76],[36.0169,32.16354,440.2882],[36.0214,32.16966,509.5159],[36.02295,32.17615,658.1366],[36.01938,32.18305,534.4404],[36.01086,32.19085,594.6159],[35.9907,32.19667,454.4554],[35.98729,32.17563,659.3359],[35.98233,32.1668,599.4545],[35.9738,32.15936,700.2223],[35.96073,32.15416,556.8445],[35.94492,32.14615,655.8374],[35.93329,32.13837,750.7777],[35.89588,32.09566,814.9634],[35.90161,32.06985,923.8776],[35.90673,32.06468,925.0496],[35.91484,32.05822,897.4341],[35.92166,32.05569,892.7713],[35.9412,32.04585,837.9346],[35.96414,32.02016,782.1764],[35.98822,32.00128,698.7318],[36.02192,31.96632,813.2048],[36.04129,31.95448,758.6431],[36.05447,31.951,839.5212],[36.07401,31.9605,845.6654],[36.0863,31.96267,730.5068],[36.10243,31.96391,701.5648],[36.15147,31.97722,729.5233],[36.21586,31.97683,716.7946],[36.23648,31.98012,708.9258],[36.24939,31.98689,689.7025],[36.26846,32.00663,674.3304],[36.2804,32.01544,662.9752],[36.30169,32.01934,644.356],[36.40747,32.01148,630.8691],[36.42845,32.00347,651.1093],[36.44907,31.98869,648.2399],[36.50587,31.93562,602.6223],[36.5346,31.90382,603.2276],[36.5363,31.88803,588.8141],[36.5271,31.87581,595.3446],[36.49904,31.86085,655.638],[36.47656,31.84516,629.9235],[36.46892,31.83625,631.2332],[36.46752,31.82687,631.6367],[36.47377,31.81591,631.6143],[36.50075,31.78966,646.6086],[36.5456,31.75403,619.3394],[36.58906,31.72861,583.9133],[36.61232,31.72114,575.8333],[36.63108,31.7216,566.0382],[36.67857,31.74664,542.5661],[36.69567,31.75062,537.923],[36.71428,31.7469,535.6205],[36.99436,31.50247,557.7146],[36.99746,31.50102,558.9365],[36.99791,31.50081,558.9365],[37.20727,31.55435,508.4088],[37.45501,31.61771,618.3043],[37.70274,31.68112,825.0183],[37.76141,31.69612,868.9988],[37.76083,31.69631,868.9988],[37.75938,31.69677,866.5833],[36.51796,32.06342,597.9241],[36.48277,32.08081,594.4486],[36.45093,32.10628,597.36],[36.43341,32.11411,592.6531],[36.37941,32.11907,585.39],[36.36091,32.1175,590.6633],[36.34805,32.11254,587.6331],[36.3375,32.10566,582.9607],[36.32464,32.10065,588.7405],[36.3096,32.10031,611.3554],[36.2942,32.10419,602.5579],[36.27668,32.11504,589.3372],[36.23632,32.13197,557.9192],[36.19586,32.1353,613.251],[36.1834,32.1339,624.8882],[36.17302,32.13181,579.5122],[36.15224,32.1246,592.5987],[36.13839,32.12362,556.9095],[36.12305,32.12716,559.425],[36.09871,32.1429,545.2227],[36.08615,32.14951,490.2644],[36.07618,32.15062,478.65],[36.06253,32.1391,486.6676],[36.05246,32.13437,535.8264],[36.04067,32.13223,553.6138]]]}}